"i","j","recID","eqid","region","SOF","magBin","mag","rake","ZTOR","Rrup","RJB","RX","RY","FLen","VS30","rockPGA","lnY","intra.Resid","Median","eventTerm","srcSiteA","z1","dip","Z1_1D","Z1_Ref","iregion.i.","epsilon_within","Station.Name","Station.Sequence.Number","Station.ID..No.","Hypocenter.Latitude..deg.","Hypocenter.Longitude..deg.","Hypocenter.Depth..km.","Fault.Rupture.Width..km.","Station.Latitude","Station.Longitude","PGA..g.","T0.200S","STATID","VS30_gmean","Z1_mean","Lat_stat","Lon_stat","X_stat","Y_stat","Basin_ID","D_basin","X_eq","Y_eq"
44,6,724,116,1,0,7,6.54,0,0,22.25,22.25,22.25,5.41,20,316.64,0.0764,-0.99,0.1138,-1.0288,0.1613,90,0.66,90,0,0.442,1,0.1896,"Plaster City",208,5052,33.0222,-115.8314,9,12,32.79,-115.86,0.18359,0.39797,"S76",316.64,0.66,32.79,-115.86,1169.28425257869,3650.6623653101,8,8.54956925774128,1170.20632249285,3676.6692368547
44,7,725,116,1,0,7,6.54,0,0,11.16,11.16,-11.16,-7.03,20,316.64,0.142,-0.2419,0.2056,-0.5194,0.1613,-90,1.3,90,0,0.442,1,0.3425,"Poe Road (temp)",261,9400,33.0222,-115.8314,9,12,33.097,-115.751,0.33892,0.6815,"S329",316.64,1.3,33.097,-115.751,1177.16200778251,3685.50790560764,8,14.6050042187224,1170.20632249285,3676.6692368547
44,8,726,116,1,0,7,6.54,0,0,25.88,25.88,-25.88,-2.39,20,191.14,0.0658,-1.1313,-0.2785,-1.0161,0.1613,-90,0.68,90,0,0.4964,1,-0.4641,"Salton Sea Wildlife Refuge",218,5062,33.0222,-115.8314,9,12,33.1774,-115.616,0.11933,0.37988,"S112",191.112306800659,0.68,33.177,-115.616,1189.17051730094,3695.29284182443,8,19.6217096387128,1170.20632249285,3676.6692368547
44,9,727,116,1,0,7,6.54,0,0,5.61,5.61,5.61,-3.03,20,362.38,0.2287,0.3418,0.5814,-0.1707,0.1613,90,1.2,90,0,0.4037,1,0.9687,"Superstition Mtn Camera",94,286,33.0222,-115.8314,9,12,32.955,-115.825,0.72878,1.5193,"S77",362.38,1.2,32.955,-115.825,1171.31822634773,3669.23669116938,8,11.9506899539235,1170.20632249285,3676.6692368547
44,10,728,116,1,0,7,6.54,0,0,13.03,13.03,-13.03,6.52,20,193.67,0.1248,-0.6784,-0.1936,-0.6127,0.1613,-90,1.5,90,0,0.4959,1,-0.3225,"Westmorland Fire Sta",264,11369,33.0222,-115.8314,9,12,33.037,-115.623,0.21043,0.4938,"S79",193.67,1.5,33.037,-115.623,1189.61704946035,3679.67365859876,8,28.051285630522,1170.20632249285,3676.6692368547
44,11,729,116,1,0,7,6.54,0,0,23.85,23.85,-23.85,9.2,20,179,0.0714,-0.7185,0.1721,-0.9523,0.1613,-90,1.54,90,0,0.4985,1,0.2867,"Imperial Valley Wildlife Liquefaction Array",233,5210,33.0222,-115.8314,9,12,33.0976,-115.5306,0.20194,0.43522,"S330",179,1.54,33.098,-115.531,1197.75163019098,3687.07184087216,8,23.916317552671,1170.20632249285,3676.6692368547
48,2,833,125,1,0,7,7.28,0,0,144.9,144.9,-142.52,-8.97,71.8,269.29,0.0199,-2.6122,-0.0314,-2.702,0.2992,-100.4,0.62,90,0,0.4707,1,-0.0565,"Anaheim - W Ball Rd",581,90088,34.2,-116.436,7,15,33.817,-117.951,0.039787,0.081407,"S226",269.29,0.62,33.817,-117.951,967.493416737382,3753.34720069215,1,9.66633233855313,1105.23669257943,3803.86990309112
48,3,834,125,1,0,7,7.28,0,0,137.25,137.25,-133.78,27.25,71.8,330.5,0.0217,-3.2831,-0.3646,-2.7268,0.2992,-77.09,0.32,90,0,0.4315,1,-0.6557,"Arcadia - Arcadia Av",590,90099,34.2,-116.436,7,15,34.127,-118.059,0.028606,0.051934,"S400",330.5,0.32,34.127,-118.059,955.821164544059,3787.28062300844,4,4.03812191440553,1105.23669257943,3803.86990309112
48,4,835,125,1,0,7,7.28,0,0,135.22,135.22,-131.96,26.67,71.8,367.53,0.0223,-2.6193,0.1953,-2.7665,0.2992,-77.39,0.32,90,0,0.3988,1,0.3512,"Arcadia - Campus Dr",585,90093,34.2,-116.436,7,15,34.13,-118.036,0.049089,0.092419,"S227",367.53,0.32,34.13,-118.036,957.928718896948,3787.71697978137,4,2.48413362174935,1105.23669257943,3803.86990309112
48,6,837,125,1,0,7,7.28,0,0,131.92,131.92,-129.85,21.16,71.8,544.68,0.0232,-3.3732,-0.2359,-2.9794,0.2992,-79.85,0.38,90,0,0.1968,1,-0.4241,"Baldwin Park - N Holly",563,90069,34.2,-116.436,7,15,34.1,-117.974,0.027942,0.043212,"S229",544.68,0.38,34.1,-117.974,963.81795723836,3784.6665483875,4,4.59659025913156,1105.23669257943,3803.86990309112
48,8,839,125,1,0,7,7.28,0,0,154.26,154.26,-152.52,14.48,71.8,267.13,0.0178,-2.5777,0.016,-2.8193,0.2992,-81.39,0.78,90,0,0.4718,1,0.0289,"Bell Gardens - Jaboneria",586,90094,34.2,-116.436,7,15,33.965,-118.158,0.037595,0.081137,"S230",267.13,0.78,33.965,-118.158,947.532999583355,3768.85525906458,1,6.21679985688093,1105.23669257943,3803.86990309112
48,9,840,125,1,0,7,7.28,0,0,144.13,144.13,-133.61,49.86,71.8,550.11,0.02,-2.6167,-0.0104,-3.1573,0.2992,-67.98,0.04,90,0,0.191,1,-0.0187,"Big Tujunga, Angeles Nat F",556,90061,34.2,-116.436,7,15,34.286,-118.225,0.03011,0.071413,"S233",550.11,0.04,34.286,-118.225,939.664761319895,3804.2026146319,9,11.0623224723706,1105.23669257943,3803.86990309112
48,11,842,125,1,0,7,7.28,0,0,137.44,137.44,-136.55,-0.99,71.8,322.75,0.0217,-2.6752,-0.0051,-2.7145,0.2992,-96.52,0.52,90,0,0.4375,1,-0.0092,"Brea - S Flower Av",580,90087,34.2,-116.436,7,15,33.916,-117.896,0.041334,0.081256,"S234",322.75,0.52,33.916,-117.896,972.043875215493,3764.59252178888,1,1.02351914686886,1105.23669257943,3803.86990309112
48,12,843,125,1,0,7,7.28,0,0,150.09,150.09,-148.42,-3.19,71.8,270.96,0.0187,-2.702,0.1066,-2.7738,0.2992,-98.55,0.76,90,0,0.4699,1,0.1917,"Buena Park - La Palma",579,90086,34.2,-116.436,7,15,33.847,-118.018,0.042976,0.094735,"S325",270.96,0.76,33.847,-118.018,961.122107328497,3756.37495438366,1,11.1239684314248,1105.23669257943,3803.86990309112
48,13,844,125,1,0,7,7.28,0,0,157.94,157.94,-149.61,41.92,71.8,320.57,0.0171,-2.3485,0.5709,-2.9834,0.2992,-71.31,0.32,90,0,0.4391,1,1.0267,"Burbank - N Buena Vista",521,90012,34.2,-116.436,7,15,34.168,-118.331,0.058425,0.10448,"S237",320.57,0.32,34.168,-118.331,930.498437212805,3790.6479342434,3,1.47918327767423,1105.23669257943,3803.86990309112
48,14,845,125,1,0,7,7.28,0,0,190.05,190.05,-176.15,54.09,71.8,403.72,0.012,-3.6936,-0.3371,-3.5528,0.2992,-67.95,0.1,90,0,0.3611,1,-0.6062,"Calabasas - N Las Virg",547,90052,34.2,-116.436,7,15,34.15,-118.696,0.014835,0.034242,"S238",403.72,0.1,34.15,-118.696,896.904069798417,3787.1658104512,9,5.39594472746949,1105.23669257943,3803.86990309112
48,15,846,125,1,0,7,7.28,0,0,172.45,172.45,-152.2,70.15,71.8,409.4,0.0145,-3.1576,0.1715,-3.3359,0.2992,-61.95,0.32,90,0,0.3548,1,0.3085,"Chatsworth - Devonshire",513,90004,34.2,-116.436,7,15,34.358,-118.571,0.030013,0.047698,"S404",409.4,0.32,34.358,-118.571,907.433056573939,3810.74927906156,9,10.0669199901199,1105.23669257943,3803.86990309112
48,16,847,125,1,0,7,7.28,0,0,161.23,161.23,-160,9.23,71.8,266.9,0.0165,-2.3468,0.6322,-2.9089,0.2992,-82.91,0.84,90,0,0.4719,1,1.137,"Compton - Castlegate St",571,90078,34.2,-116.436,7,15,33.899,-118.196,0.064557,0.12234,"S244",266.9,0.84,33.899,-118.196,944.361411685043,3761.36191987755,1,13.5039957703841,1105.23669257943,3803.86990309112
48,18,849,125,1,0,7,7.28,0,0,128.06,128.06,-126.71,17.5,71.8,324.79,0.0243,-2.4635,0.0836,-2.59,0.2992,-81.66,0.32,90,0,0.4359,1,0.1503,"Covina - W Badillo",564,90070,34.2,-116.436,7,15,34.087,-117.915,0.050363,0.11817,"S246",324.79,0.32,34.087,-117.915,969.340006351637,3783.49330191198,4,3.22440894948384,1105.23669257943,3803.86990309112
48,19,850,125,1,0,7,7.28,0,0,21.78,21.78,-8.47,-52.15,71.8,359,0.1633,-1.1736,-0.5259,-0.7638,0.2992,-157.1,0.34,90,0,0.4069,1,-0.9458,"Desert Hot Springs",267,12149,34.2,-116.436,7,15,33.962,-116.509,0.15433,0.46634,"S192",359,0.34,33.962,-116.509,1100.18159323679,3776.98371512629,7,1.41227143299073,1105.23669257943,3803.86990309112
48,20,851,125,1,0,7,7.28,0,0,157.46,157.46,-156.15,10.64,71.8,271.9,0.0172,-2.6565,0.2659,-2.8719,0.2992,-82.62,0.88,90,0,0.4694,1,0.4782,"Downey - Co Maint Bldg",288,14368,34.2,-116.436,7,15,33.924,-118.167,0.046025,0.084982,"S248",271.9,0.88,33.924,-118.167,946.915331129906,3764.26380822066,1,10.603517941671,1105.23669257943,3803.86990309112
48,21,852,125,1,0,7,7.28,0,0,126.33,126.33,-123.76,24.98,71.8,459.14,0.0248,-3.1057,-0.5733,-2.7862,0.2992,-78.44,0.32,90,0,0.2965,1,-1.031,"Duarte - Mel Canyon Rd.",561,90067,34.2,-116.436,7,15,34.15,-117.939,0.023001,0.046725,"S406",459.14,0.32,34.15,-117.939,966.775160683524,3790.37859504504,9,0.707383035115431,1105.23669257943,3803.86990309112
48,22,853,125,1,0,7,7.28,0,0,135.88,135.88,-133.49,22.19,71.8,290.63,0.0221,-2.9909,-0.0476,-2.6285,0.2992,-79.23,0.38,90,0,0.4592,1,-0.0856,"El Monte - Fairview Av",560,90066,34.2,-116.436,7,15,34.093,-118.019,0.04208,0.061657,"S249",290.63,0.38,34.093,-118.019,959.699243525594,3783.68526173323,4,6.43382152094224,1105.23669257943,3803.86990309112
48,23,854,125,1,0,7,7.28,0,0,121.8,121.8,-119.75,-13.45,71.8,367.54,0.0263,-2.3202,0.0961,-2.5791,0.2992,-100.5,-999,90,0,0.3988,1,0.1728,"Featherly Park - Maint",274,13122,34.2,-116.436,7,15,33.869,-117.709,0.051402,0.10516,"S250",367.54,-999,33.869,-117.709,989.626455739907,3760.25164904744,9,7.35951926249234,1105.23669257943,3803.86990309112
48,25,856,125,1,0,7,7.28,0,0,146.89,146.89,-142.12,-19.57,71.8,270.54,0.0194,-2.4458,0.5039,-2.731,0.2992,-104.64,0.54,90,0,0.4701,1,0.9061,"Fountain Valley - Euclid",511,90002,34.2,-116.436,7,15,33.719,-117.937,0.066232,0.13592,"S251",270.54,0.54,33.719,-117.937,969.326876583661,3742.5291499938,1,10.0014617726958,1105.23669257943,3803.86990309112
48,26,857,125,1,0,7,7.28,0,0,148.07,148.07,-140.34,41.34,71.8,371.07,0.0191,-2.4856,0.3749,-2.9477,0.2992,-71.41,0.1,90,0,0.3953,1,0.6743,"Glendale - Las Palmas",558,90063,34.2,-116.436,7,15,34.2,-118.231,0.050314,0.10795,"S253",371.07,0.1,34.2,-118.231,939.560078220891,3794.62853508057,9,4.18708525244312,1105.23669257943,3803.86990309112
48,27,858,125,1,0,7,7.28,0,0,122.61,122.61,-120.83,21.45,71.8,362.31,0.026,-2.1775,0.1038,-2.5816,0.2992,-80.21,0.32,90,0,0.4038,1,0.1867,"Glendora - N Oakbank",559,90065,34.2,-116.436,7,15,34.137,-117.883,0.052215,0.11282,"S254",362.31,0.32,34.137,-117.883,972.017661334788,3789.19346787798,4,0.41156968037782,1105.23669257943,3803.86990309112
48,28,859,125,1,0,7,7.28,0,0,136.29,136.29,-135.75,8.55,71.8,337,0.022,-2.326,0.1784,-2.726,0.2992,-84.89,0.32,90,0,0.4262,1,0.3208,"Hacienda Heights - Colima",567,90073,34.2,-116.436,7,15,33.99,-117.943,0.049429,0.11268,"S255",337,0.32,33.99,-117.943,967.286653303196,3772.59367570811,9,4.49961962027247,1105.23669257943,3803.86990309112
48,29,860,125,1,0,7,7.28,0,0,68.66,68.66,-53.63,-58.09,71.8,328.09,0.056,-1.646,-0.2063,-1.706,0.2992,-128.64,-999,90,0,0.4334,1,-0.3711,"Hemet Fire Station",272,12331,34.2,-116.436,7,15,33.729,-116.979,0.082307,0.18082,"S9",328.0927272425,-999,33.729,-116.979,1058.18187091981,3748.43001980908,9,38.0538905410939,1105.23669257943,3803.86990309112
48,30,861,125,1,0,7,7.28,0,0,156,156,-151.92,-14.42,71.8,270.54,0.0175,-2.2753,0.4834,-2.8498,0.2992,-103.13,0.54,90,0,0.4701,1,0.8694,"Huntington Bch - Waikiki",576,90083,34.2,-116.436,7,15,33.727,-118.044,0.058618,0.11414,"S408",270.54,0.54,33.727,-118.044,959.355849031767,3742.93429842622,1,3.81139875930319,1105.23669257943,3803.86990309112
48,31,862,125,1,0,7,7.28,0,0,54.25,54.25,22.37,-84.45,71.8,339.02,0.0724,-1.7855,-0.1991,-1.4689,0.2992,156,1.16,90,0,0.4245,1,-0.358,"Indio - Coachella Canal",266,12026,34.2,-116.436,7,15,33.717,-116.155,0.1042,0.19674,"S197",339.02,1.16,33.717,-116.155,1134.79174061941,3751.88693567321,9,0.667664221205795,1105.23669257943,3803.86990309112
48,32,863,125,1,0,7,7.28,0,0,167.27,167.27,-165.33,13.12,71.8,316.02,0.0154,-2.9192,0.2704,-3.0956,0.2992,-81.25,0.58,90,0,0.4425,1,0.4862,"Inglewood - Union Oil",285,14196,34.2,-116.436,7,15,33.905,-118.279,0.039,0.063199,"S257",316.02,0.58,33.905,-118.279,936.646717038304,3761.67097987571,1,12.2733566723536,1105.23669257943,3803.86990309112
48,33,864,125,1,0,7,7.28,0,0,11.03,11.03,10.72,-38.52,71.8,379.32,0.264,-1.0554,-0.3617,-0.3933,0.2992,104,-999,90,0,0.387,1,-0.6505,"Joshua Tree",298,22170,34.2,-116.436,7,15,34.13,-116.314,0.27436,0.44575,"S198",379.32,-999,34.13,-116.314,1117.01669939547,3796.82427395701,9,24.3404949421387,1105.23669257943,3803.86990309112
48,34,865,125,1,0,7,7.28,0,0,164.36,164.36,-162.25,14.82,71.8,301,0.0159,-2.6244,0.2988,-3.0262,0.2992,-80.79,0.74,90,0,0.4527,1,0.5373,"LA - 116th St School",290,14403,34.2,-116.436,7,15,33.929,-118.26,0.04209,0.077199,"S258",301,0.74,33.929,-118.26,938.282270091887,3764.41666313217,1,10.8991543074808,1105.23669257943,3803.86990309112
48,35,867,125,1,0,7,7.28,0,0,153.04,153.04,-147.48,33.18,71.8,329.06,0.0181,-2.7899,0.1461,-2.9358,0.2992,-74.5,0.26,90,0,0.4326,1,0.2626,"LA - Fletcher Dr",536,90034,34.2,-116.436,7,15,34.115,-118.244,0.039862,0.072844,"S265",329.06,0.26,34.115,-118.244,938.801689319887,3785.13542863915,9,2.24375618216854,1105.23669257943,3803.86990309112
48,36,868,125,1,0,7,7.28,0,0,148.7,148.7,-143.96,30.64,71.8,364.91,0.019,-3.0451,-0.1012,-2.9452,0.2992,-75.51,0.32,90,0,0.4013,1,-0.1819,"LA - N Figueroa St",534,90032,34.2,-116.436,7,15,34.111,-118.189,0.030997,0.053095,"S267",364.91,0.32,34.111,-118.189,943.901525711786,3784.92970056109,9,3.03642721636167,1105.23669257943,3803.86990309112
48,37,869,125,1,0,7,7.28,0,0,159.13,159.13,-153.65,31.9,71.8,315.06,0.0169,-2.7612,0.0805,-2.9878,0.2992,-74.92,0.32,90,0,0.4432,1,0.1447,"LA - N Westmoreland",530,90021,34.2,-116.436,7,15,34.082,-118.298,0.03545,0.10943,"S268",315.06,0.32,34.082,-118.298,933.98424278343,3781.24043410878,1,0.443928139738118,1105.23669257943,3803.86990309112
48,38,870,125,1,0,7,7.28,0,0,151.7,151.7,-148.63,22.64,71.8,349.43,0.0184,-2.1748,0.3674,-2.957,0.2992,-78.46,0.38,90,0,0.4156,1,0.6608,"LA - Obregon Park",337,24400,34.2,-116.436,7,15,34.037,-118.178,0.04853,0.13425,"S269",349.419999713806,0.38,34.037,-118.178,945.305688424754,3776.76174946919,9,1.86929405994365,1105.23669257943,3803.86990309112
48,39,871,125,1,0,7,7.28,0,0,161.56,161.56,-157.98,23.31,71.8,285.28,0.0164,-2.8351,0.0927,-2.9554,0.2992,-77.92,0.72,90,0,0.4623,1,0.1667,"LA - S Grand Ave",531,90022,34.2,-116.436,7,15,34.005,-118.279,0.036466,0.08313,"S270",285.28,0.72,34.005,-118.279,936.134610237232,3772.77294439047,1,4.02513021406878,1105.23669257943,3803.86990309112
48,40,872,125,1,0,7,7.28,0,0,160.99,160.99,-156.36,28.13,71.8,329.52,0.0165,-3.1463,-0.0564,-3.0413,0.2992,-76.23,0.32,90,0,0.4323,1,-0.1014,"LA - W 15th St",529,90020,34.2,-116.436,7,15,34.045,-118.298,0.029788,0.05792,"S409",329.52,0.32,34.045,-118.298,934.173485767762,3777.13272582191,1,1.57506353686702,1105.23669257943,3803.86990309112
48,41,873,125,1,0,7,7.28,0,0,163.96,163.96,-160.81,20.75,71.8,241.41,0.016,-2.6109,0.5385,-2.8809,0.2992,-78.75,0.84,90,0,0.4826,1,0.9683,"LA - W 70th St",532,90023,34.2,-116.436,7,15,33.976,-118.289,0.059545,0.094174,"S272",241.41,0.84,33.976,-118.289,935.358338118245,3769.51072658682,1,7.37783232870062,1105.23669257943,3803.86990309112
48,42,874,125,1,0,7,7.28,0,0,160.85,160.85,-159.93,6.6,71.8,344.72,0.0165,-2.406,0.6351,-3.0691,0.2992,-83.87,0.82,90,0,0.4197,1,1.1421,"LB - Orange Ave",573,90080,34.2,-116.436,7,15,33.881,-118.176,0.05836,0.10181,"S275",344.704210429884,0.82,33.881,-118.176,946.307079268397,3759.45043440394,1,14.098768477339,1105.23669257943,3803.86990309112
48,43,875,125,1,0,7,7.28,0,0,148.47,148.47,-139.14,46.09,71.8,411.55,0.0191,-3.1664,-0.2234,-3.0213,0.2992,-69.59,0.1,90,0,0.3524,1,-0.4017,"La Crescenta - New York",555,90060,34.2,-116.436,7,15,34.238,-118.254,0.026186,0.063211,"S278",411.55,0.1,34.238,-118.254,937.241385214583,3798.74814065345,9,6.51237196747276,1105.23669257943,3803.86990309112
48,44,876,125,1,0,7,7.28,0,0,143.12,143.12,-142.88,2.62,71.8,338.27,0.0203,-2.797,0.0466,-2.8211,0.2992,-86.73,0.56,90,0,0.4252,1,0.0838,"La Habra - Briarcliff",568,90074,34.2,-116.436,7,15,33.921,-117.973,0.039954,0.075509,"S279",338.27,0.56,33.921,-117.973,964.888288988953,3764.79514177281,1,2.36491975104951,1105.23669257943,3803.86990309112
48,45,877,125,1,0,7,7.28,0,0,132.08,132.08,-131.38,11.29,71.8,339.52,0.0232,-2.9081,-0.08,-2.673,0.2992,-84.07,0.32,90,0,0.4241,1,-0.1438,"La Puente - Rimgrove Av",566,90072,34.2,-116.436,7,15,34.026,-117.918,0.040006,0.07336,"S280",339.52,0.32,34.026,-117.918,969.400187079936,3776.70588470598,9,1.00226449745452,1105.23669257943,3803.86990309112
48,46,878,125,1,0,7,7.28,0,0,157.41,157.41,-155.89,-0.05,71.8,267.35,0.0172,-2.5307,0.4122,-2.8606,0.2992,-97.97,0.82,90,0,0.4717,1,0.7412,"Lakewood - Del Amo Blvd",577,90084,34.2,-116.436,7,15,33.846,-118.099,0.053872,0.1088,"S281",267.35,0.82,33.846,-118.099,953.623208296875,3755.90254165294,1,11.2486177971396,1105.23669257943,3803.86990309112
48,48,880,125,1,0,7,7.28,0,0,26.96,26.96,-0.61,-59.63,71.8,355.42,0.1376,-1.2038,-0.5676,-0.9031,0.2992,-178.7,0.48,90,0,0.4102,1,-1.0208,"Mission Creek Fault",66,100,34.2,-116.436,7,15,33.905,-116.419,0.12347,0.25972,"S411",355.42,0.48,33.905,-116.419,1108.92507025471,3771.18149328424,9,1.71988862434573,1105.23669257943,3803.86990309112
48,49,881,125,1,0,7,7.28,0,0,17.36,17.36,-14.18,-42.12,71.8,396.41,0.1937,-1.2841,-0.4442,-0.6357,0.2992,-125.21,0.02,90,0,0.3691,1,-0.7988,"Morongo Valley Fire Station",223,5071,34.2,-116.436,7,15,34.0486,-116.5782,0.19249,0.368,"S201",396.406923050054,0.02,34.049,-116.578,1093.18277864536,3786.2489021266,9,5.56130304316732,1105.23669257943,3803.86990309112
48,50,882,125,1,0,7,7.28,0,0,26.84,26.84,-11.89,-54.86,71.8,344.67,0.1381,-1.3003,-0.5568,-0.8944,0.2992,-153.7,0.84,90,0,0.4197,1,-1.0013,"North Palm Springs",222,5070,34.2,-116.436,7,15,33.924,-116.543,0.13073,0.33971,"S203",344.67,0.84,33.924,-116.543,1097.29970502179,3772.56065467107,7,4.57653378613388,1105.23669257943,3803.86990309112
48,51,883,125,1,0,7,7.28,0,0,172.32,172.32,-159.45,53.17,71.8,280.86,0.0145,-2.9358,0.2138,-3.0836,0.2992,-67.71,0.34,90,0,0.4647,1,0.3845,"Northridge - 17645 Saticoy St",512,90003,34.2,-116.436,7,15,34.209,-118.517,0.036926,0.071116,"S295",280.86,0.34,34.209,-118.517,913.134796766699,3794.42773125433,3,5.36809748879591,1105.23669257943,3803.86990309112
48,52,884,125,1,0,7,7.28,0,0,36.15,36.15,-9.76,-64.66,71.8,312.47,0.107,-1.7347,-0.7351,-1.0888,0.2992,-164.34,0.38,90,0,0.445,1,-1.3219,"Palm Springs Airport",265,12025,34.2,-116.436,7,15,33.829,-116.512,0.088741,0.17687,"S204",312.47,0.38,33.829,-116.512,1100.84131398629,3762.18363909344,7,3.10524398424876,1105.23669257943,3803.86990309112
48,53,885,125,1,0,7,7.28,0,0,117.5,117.5,-117.36,7.66,71.8,384.44,0.0278,-2.1985,0.2049,-2.5458,0.2992,-87.14,0.32,90,0,0.3818,1,0.3684,"Pomona - 4th & Locust FF",302,23525,34.2,-116.436,7,15,34.056,-117.748,0.059653,0.16101,"S306",384.428571003863,0.32,34.056,-117.748,984.947090523483,3780.83286104091,5,1.32278512208011,1105.23669257943,3803.86990309112
48,54,886,125,1,0,7,7.28,0,0,94.48,94.48,-29.44,-107.38,71.8,442.7,0.0378,-1.9972,-0.3444,-2.2881,0.2992,-161.84,-999,90,0,0.3162,1,-0.6194,"Puerta La Cruz",268,12168,34.2,-116.436,7,15,33.324,-116.683,0.0436,0.13812,"S205",442.7,-999,33.324,-116.683,1088.41665768996,3705.07045930079,9,49.1912652280984,1105.23669257943,3803.86990309112
48,55,887,125,1,0,7,7.28,0,0,96,96,-94.82,-15.78,71.8,389.95,0.037,-2.2734,-0.4041,-2.2354,0.2992,-98.99,0.32,90,0,0.376,1,-0.7266,"Riverside Airport",275,13123,34.2,-116.436,7,15,33.951,-117.446,0.042496,0.14581,"S207",389.970832554262,0.32,33.951,-117.446,1013.49854325885,3770.64876021556,9,6.7397208843987,1105.23669257943,3803.86990309112
48,56,888,125,1,0,7,7.28,0,0,79.76,79.76,-79.69,-10.12,71.8,296.97,0.0469,-1.753,-0.0414,-1.8371,0.2992,-92.47,0.34,90,0,0.4553,1,-0.0744,"San Bernardino - E & Hospitality",303,23542,34.2,-116.436,7,15,34.065,-117.292,0.085827,0.16446,"S412",296.97428552875,0.34,34.065,-117.292,1027.04627260833,3784.09749084897,6,1.66500028373693,1105.23669257943,3803.86990309112
48,57,889,125,1,0,7,7.28,0,0,141.92,141.92,-138.77,24.87,71.8,401.37,0.0206,-2.8239,0.2375,-2.9157,0.2992,-77.92,0.32,90,0,0.3637,1,0.427,"San Gabriel - E Grand Ave",528,90019,34.2,-116.436,7,15,34.091,-118.093,0.045631,0.073448,"S309",401.37,0.32,34.091,-118.093,952.874145655653,3783.13173207285,4,3.705603872153,1105.23669257943,3803.86990309112
