"i","j","recID","eqid","region","SOF","magBin","mag","rake","ZTOR","Rrup","RJB","RX","RY","FLen","VS30","rockPGA","lnY","intra.Resid","Median","eventTerm","srcSiteA","z1","dip","Z1_1D","Z1_Ref","iregion.i.","epsilon_within","Station.Name","Station.Sequence.Number","Station.ID..No.","Hypocenter.Latitude..deg.","Hypocenter.Longitude..deg.","Hypocenter.Depth..km.","Fault.Rupture.Width..km.","Station.Latitude","Station.Longitude","PGA..g.","T0.200S","STATID","VS30_gmean","Z1_mean","Lat_stat","Lon_stat","X_stat","Y_stat","Basin_ID","D_basin","X_eq","Y_eq"
50,59,1004,127,1,1,7,6.69,77,5,8.44,0,7.18,8.49,18,380.06,0.4285,-1.6991,0.192,-2.4901,0.1969,90,0.36,40,0,0.3863,1,0.3277,"LA - Sepulveda VA Hospital",108,637,34.2057,-118.5539,17.5,24,34.2489,-118.4789,0.75323,1.8184,"S456",380.079999473795,0.36,34.249,-118.479,916.441896918302,3799.02326108622,3,2.98647509667256,909.747722569613,3793.91202474154
50,60,1005,127,1,1,7,6.69,77,5,31.48,28.82,13.73,37.82,18,452.15,0.0945,-3.6744,0.0832,-3.7776,0.1969,25,0.32,40,0,0.3049,1,0.1421,"LA - Temple & Hope",357,24611,34.2057,-118.5539,17.5,24,34.059,-118.246,0.17161,0.47931,"S427",452.157142518647,0.32,34.059,-118.246,938.906793997517,3778.90955909279,9,1.37746629385185,909.747722569613,3793.91202474154
50,61,1006,127,1,1,7,6.69,77,5,22.49,13.8,22.34,22.22,18,398.42,0.1313,-2.9464,0.5721,-3.4191,0.1969,59,0.32,40,0,0.3669,1,0.9767,"LA - UCLA Grounds",360,24688,34.2057,-118.5539,17.5,24,34.068,-118.439,0.39297,0.72393,"S457",398.42,0.32,34.068,-118.439,921.029277566618,3779.09499647881,9,0.731887588152617,909.747722569613,3793.91202474154
50,62,1007,127,1,1,7,6.69,77,5,34.2,32.39,11.09,41.39,18,332.28,0.0868,-4.2026,0.7809,-3.6399,0.1969,19,0.32,40,0,0.4301,1,1.3331,"Los Angeles - 7-story Univ Hospital (FF)",354,24605,34.2057,-118.5539,17.5,24,34.062,-118.198,0.3496,0.85158,"S428",332.28,0.32,34.062,-118.198,943.326527740152,3779.45026863754,9,3.78082462465233,909.747722569613,3793.91202474154
50,63,1008,127,1,1,7,6.69,77,5,29.74,25.59,17.6,34.6,18,329.52,0.1001,-3.4022,-0.2867,-3.5134,0.1969,35,0.32,40,0,0.4323,1,-0.4894,"LA - W 15th St",529,90020,34.2057,-118.5539,17.5,24,34.045,-118.298,0.13829,0.26722,"S409",329.52,0.32,34.045,-118.298,934.173485767762,3777.13272582191,1,1.57506353686702,909.747722569613,3793.91202474154
50,64,1011,127,1,1,7,6.69,77,5,20.29,15.11,15.12,24.11,18,1222.52,0.1445,-4.1923,-0.1226,-3.9634,0.1969,45,0.0037,40,0,0.0022,1,-0.2093,"LA - Wonderland Ave",526,90017,34.2057,-118.5539,17.5,24,34.114,-118.38,0.14082,0.2787,"S273",1222.52,0.0037,34.114,-118.38,926.248695143776,3784.44682657302,9,2.51876362551997,909.747722569613,3793.91202474154
50,65,1012,127,1,1,7,6.69,77,5,19.07,9.87,19.49,18.81,18,706.22,0.1901,-3.5848,0.2433,-3.7219,0.1969,63,0.32,40,0,0.0704,1,0.4153,"LA 00",509,-999,34.2057,-118.5539,17.5,24,34.106,-118.454,0.3449,0.67208,"S458",706.22,0.32,34.106,-118.454,919.455546231264,3783.25155948882,9,4.60662753149728,909.747722569613,3793.91202474154
50,66,1013,127,1,1,7,6.69,77,5,5.92,0,3.18,5.45,18,628.99,0.4734,-1.7204,-0.6547,-2.6485,0.1969,90,0.32,40,0,0.1186,1,-1.1176,"LA Dam",1,0,34.2057,-118.5539,17.5,24,34.294,-118.483,0.35455,0.7222,"S459",628.99,0.32,34.294,-118.483,915.850931583903,3804.00230002883,9,1.39703523998804,909.747722569613,3793.91202474154
50,68,1015,127,1,1,7,6.69,77,5,51.89,47.79,31.8,54.87,18,302.73,0.0547,-3.896,-0.4496,-3.7849,0.1969,35,0.58,40,0,0.4516,1,-0.7675,"LB - Rancho Los Cerritos",287,14242,34.2057,-118.5539,17.5,24,33.84,-118.194,0.068081,0.21503,"S276",302.719999669654,0.58,33.84,-118.194,944.853512546189,3754.82016419593,1,9.86751888283903,909.747722569613,3793.91202474154
50,70,1017,127,1,1,7,6.69,77,5,59.62,58.32,13.28,67.32,18,338.27,0.0462,-4.2861,0.5159,-4.0098,0.1969,13,0.56,40,0,0.4252,1,0.8808,"La Habra - Briarcliff",568,90074,34.2057,-118.5539,17.5,24,33.921,-117.973,0.14809,0.3754,"S279",338.27,0.56,33.921,-117.973,964.888288988953,3764.79514177281,1,2.36491975104951,909.747722569613,3793.91202474154
50,77,1024,127,1,1,7,6.69,77,5,56.91,53.56,26.55,61.94,18,267.35,0.049,-3.7644,0.2295,-3.6537,0.1969,27,0.82,40,0,0.4717,1,0.3919,"Lakewood - Del Amo Blvd",577,90084,34.2057,-118.5539,17.5,24,33.846,-118.099,0.12814,0.38749,"S281",267.35,0.82,33.846,-118.099,953.623208296875,3755.90254165294,1,11.2486177971396,909.747722569613,3793.91202474154
50,79,1026,127,1,1,7,6.69,77,5,39.91,34.31,33.9,39.6,18,311.86,0.0736,-3.4441,-0.2784,-3.604,0.1969,48,0.52,40,0,0.4454,1,-0.4752,"Lawndale - Osage Ave",540,90045,34.2057,-118.5539,17.5,24,33.897,-118.346,0.10616,0.20802,"S283",311.86,0.52,33.897,-118.346,930.484980272532,3760.49917861374,1,6.76669571579872,909.747722569613,3793.91202474154
50,86,1033,127,1,1,7,6.69,77,5,46.58,46.31,-39.51,33.16,18,485.67,0.062,-4.342,-0.4152,-4.199,0.1969,-58.55,-999,40,0,0.2646,1,-0.7087,"Littlerock - Brainard Can",309,23595,34.2057,-118.5539,17.5,24,34.486,-117.98,0.068335,0.19286,"S467",485.67,-999,34.486,-117.98,961.142408707921,3827.50053497192,9,34.4977639406149,909.747722569613,3793.91202474154
50,88,1035,127,1,1,7,6.69,77,5,39.29,33.56,37.05,36.89,18,351.57,0.0749,-3.2859,0.1291,-3.727,0.1969,53,0.44,40,0,0.4137,1,0.2204,"Manhattan Beach - Manhattan",541,90046,34.2057,-118.5539,17.5,24,33.886,-118.389,0.15725,0.39104,"S327",351.57,0.44,33.886,-118.389,926.559213694691,3759.09814790733,1,2.6026773110565,909.747722569613,3793.91202474154
50,91,1038,127,1,1,7,6.69,77,5,45.03,43.22,13.74,52.22,18,316.01,0.0644,-4.1958,0.2836,-3.686,0.1969,18,0.6,40,0,0.4425,1,0.4841,"Montebello - Bluff Rd.",520,90011,34.2057,-118.5539,17.5,24,33.99,-118.114,0.16409,0.45857,"S470",316.01,0.6,33.99,-118.114,951.47089538728,3771.82453316776,1,2.63293233567811,909.747722569613,3793.91202474154
50,92,1039,127,1,1,7,6.69,77,5,24.76,16.92,23.09,-25.26,18,341.58,0.1885,-3.2288,-0.263,-3.2363,0.1969,125,0.32,40,0,0.4224,1,-0.449,"Moorpark - Fire Sta",325,24283,34.2057,-118.5539,17.5,24,34.288,-118.881,0.24086,0.56076,"S290",341.58,0.32,34.288,-118.881,879.212369040369,3801.7764587573,9,11.5250900276144,909.747722569613,3793.91202474154
50,95,1042,127,1,1,7,6.69,77,5,12.51,7.89,9.14,16.89,18,326.47,0.2265,-2.42,-0.3196,-2.7805,0.1969,49,0.34,40,0,0.4346,1,-0.5456,"N Hollywood - Coldwater Can",518,90009,34.2057,-118.5539,17.5,24,34.194,-118.412,0.26844,0.9976,"S292",326.47,0.34,34.194,-118.412,922.893841219136,3793.19442043658,3,5.30491652625208,909.747722569613,3793.91202474154
50,97,1044,127,1,1,7,6.69,77,5,5.92,3.16,-3.16,-3.94,18,269.14,0.3677,-1.862,0.2722,-2.0906,0.1969,-90,0.42,40,0,0.4708,1,0.4648,"Newhall - Fire Sta",324,24279,34.2057,-118.5539,17.5,24,34.387,-118.533,0.6543,1.4085,"S293",269.129999442621,0.42,34.387,-118.533,910.789343189345,3814.12208343641,9,9.62481281214998,909.747722569613,3793.91202474154
50,98,1045,127,1,1,7,6.69,77,5,5.48,2.11,0.79,-11.11,18,285.93,0.4509,-1.2341,-0.4917,-2.1254,0.1969,159,0.32,40,0,0.4619,1,-0.8394,"Newhall - W Pico Canyon Rd.",551,90056,34.2057,-118.5539,17.5,24,34.391,-118.622,0.36263,0.52191,"S294",285.93,0.32,34.391,-118.622,902.579763897753,3814.20832845074,9,13.8211563937359,909.747722569613,3793.91202474154
50,99,1046,127,1,1,7,6.69,77,5,85.49,83.01,36.75,89.96,18,339.6,0.0287,-3.9589,-0.1522,-4.4847,0.1969,24,0.32,40,0,0.4241,1,-0.2598,"Newport Bch - Irvine Ave. F.S",276,13160,34.2057,-118.5539,17.5,24,33.634,-117.902,0.047642,0.13452,"S432",339.6,0.32,33.634,-117.902,973.041500965163,3733.25084975105,1,2.24754746876666,909.747722569613,3793.91202474154
50,100,1047,127,1,1,7,6.69,77,5,84.54,82.03,39.22,88.34,18,340.65,0.0291,-4.0024,0.4879,-4.4765,0.1969,26,0.32,40,0,0.4232,1,0.8329,"Newport Bch - Newp & Coast",282,13610,34.2057,-118.5539,17.5,24,33.623,-117.931,0.09298,0.18745,"S472",340.65,0.32,33.623,-117.931,970.407870796176,3731.89668406521,1,1.39068269992265,909.747722569613,3793.91202474154
50,101,1048,127,1,1,7,6.69,77,5,12.09,0,12.85,7.81,18,280.86,0.3656,-2.1088,-0.281,-2.4901,0.1969,90,0.34,40,0,0.4647,1,-0.4797,"Northridge - 17645 Saticoy St",512,90003,34.2057,-118.5539,17.5,24,34.209,-118.517,0.3878,1.0465,"S295",280.86,0.34,34.209,-118.517,913.134796766699,3794.42773125433,3,5.36809748879591,909.747722569613,3793.91202474154
50,102,1049,127,1,1,7,6.69,77,5,24.08,13.34,30.42,14.77,18,191.06,0.1746,-3.3134,0.1686,-2.7822,0.1969,79,0.32,40,0,0.4964,1,0.2878,"Pacific Palisades - Sunset",544,90049,34.2057,-118.5539,17.5,24,34.042,-118.554,0.34065,1.2657,"S298",191.06,0.32,34.042,-118.554,910.53112608935,3775.74013927167,9,4.32475873261563,909.747722569613,3793.91202474154
50,103,1050,127,1,1,7,6.69,77,5,7.01,4.92,-4.84,9.86,18,2016.13,0.3328,-2.5885,0.2452,-3.1885,0.1969,-79.95,0,40,0,0.0001,1,0.4186,"Pacoima Dam (downstr)",319,24207,34.2057,-118.5539,17.5,24,34.334,-118.396,0.42372,0.87805,"S16",2016.13,-999,34.334,-118.396,923.665137051258,3808.80315542428,9,3.56777023868403,909.747722569613,3793.91202474154
50,104,1051,127,1,1,7,6.69,77,5,7.01,4.92,-4.84,9.86,18,2016.13,0.3328,-2.4473,1.4452,-3.1885,0.1969,-79.95,0,40,0,0.0001,1,2.4672,"Pacoima Dam (upper left)",89,24207,34.2057,-118.5539,17.5,24,34.334,-118.396,1.3889,2.3492,"S16",2016.13,-999,34.334,-118.396,923.665137051258,3808.80315542428,9,3.56777023868403,909.747722569613,3793.91202474154
50,105,1052,127,1,1,7,6.69,77,5,7.26,5.26,-2.28,13.74,18,508.08,0.3256,-2.3128,-0.275,-2.7383,0.1969,-25.73,0.32,40,0,0.238,1,-0.4695,"Pacoima Kagel Canyon",316,24088,34.2057,-118.5539,17.5,24,34.296,-118.375,0.37291,0.62701,"S299",508.082222183345,0.32,34.296,-118.375,925.791506668452,3804.67258290396,9,1.81566550641537,909.747722569613,3793.91202474154
50,109,1056,127,1,1,7,6.69,77,5,85.9,85.75,-60.37,69.9,18,333.41,0.0285,-4.1065,0.0297,-4.4033,0.1969,-44.75,-999,40,0,0.4292,1,0.0508,"Phelan - Wilson Ranch",310,23597,34.2057,-118.5539,17.5,24,34.467,-117.52,0.057425,0.14313,"S436",333.41,-999,34.467,-117.52,1003.55759057868,3827.59105178826,9,31.5653137014641,909.747722569613,3793.91202474154
50,110,1057,127,1,1,7,6.69,77,5,31.74,24.42,32.18,29.15,18,345.72,0.0937,-2.8088,-0.5099,-3.4885,0.1969,58,0.52,40,0,0.4188,1,-0.8705,"Playa Del Rey - Saran",542,90047,34.2057,-118.5539,17.5,24,33.96,-118.432,0.10306,0.18768,"S305",345.72,0.52,33.96,-118.432,922.211813989088,3767.13473322697,1,2.01629354453853,909.747722569613,3793.91202474154
50,112,1059,127,1,1,7,6.69,77,5,51.78,47.58,52.35,-42.33,18,248.98,0.057,-3.9089,-0.2635,-3.6226,0.1969,122,0.52,40,0,0.4797,1,-0.4498,"Port Hueneme - Naval Lab.",86,25281,34.2057,-118.5539,17.5,24,34.145,-119.206,0.090415,0.16894,"S19",248.98,0.52,34.145,-119.206,849.866512200171,3784.74097080256,2,0.954760089028969,909.747722569613,3793.91202474154
50,116,1063,127,1,1,7,6.69,77,5,6.5,0,4.16,6.6,18,282.25,0.4638,-1.5409,0.164,-2.1645,0.1969,90,0.32,40,0,0.464,1,0.28,"Rinaldi Receiving Sta",63,77,34.2057,-118.5539,17.5,24,34.281,-118.478,0.70785,1.4345,"S477",282.29615353171,0.32,34.281,-118.478,916.37589838322,3802.57968467567,9,0.275807281786395,909.747722569613,3793.91202474154
50,121,1069,127,1,1,7,6.69,77,5,108.29,108.18,-34.01,111.69,18,296.97,0.0201,-4.5912,0.7967,-4.6003,0.1969,-18.32,0.34,40,0,0.4553,1,1.36,"San Bernardino - E & Hospitality",303,23542,34.2057,-118.5539,17.5,24,34.065,-117.292,0.093288,0.16896,"S412",296.97428552875,0.34,34.065,-117.292,1027.04627260833,3784.09749084897,6,1.66500028373693,909.747722569613,3793.91202474154
50,122,1070,127,1,1,7,6.69,77,5,39.31,38.86,3.2,47.86,18,401.37,0.0748,-3.9649,0.4372,-3.8994,0.1969,5,0.32,40,0,0.3637,1,0.7464,"San Gabriel - E Grand Ave",528,90019,34.2057,-118.5539,17.5,24,34.091,-118.093,0.20426,0.55541,"S309",401.37,0.32,34.091,-118.093,952.874145655653,3783.13173207285,4,3.705603872153,909.747722569613,3793.91202474154
50,123,1071,127,1,1,7,6.69,77,5,147.55,147.47,-24.71,154.38,18,306.76,0.0117,-4.0269,1.1945,-4.8626,0.1969,-9.64,-999,40,0,0.4489,1,2.0391,"San Jacinto - CDF Fire Station",273,12673,34.2057,-118.5539,17.5,24,33.787,-116.958,0.080944,0.21082,"S481",306.76,-999,33.787,-116.958,1059.75241153637,3754.98882007316,9,33.4273733709882,909.747722569613,3793.91202474154
50,127,1075,127,1,1,7,6.69,77,5,109.13,107.2,57,-109.01,18,312.98,0.0198,-4.3518,0.5831,-4.5752,0.1969,150,-999,40,0,0.4446,1,0.9954,"Santa Barbara - UCSB Goleta",361,25091,34.2057,-118.5539,17.5,24,34.422,-119.851,0.071539,0.18051,"S484",312.98,-999,34.422,-119.851,789.410396130147,3813.4465448893,9,53.425785236961,909.747722569613,3793.91202474154
50,128,1076,127,1,1,7,6.69,77,5,50.22,48.06,16.74,57.06,18,339.06,0.0568,-4.183,0.1893,-3.8318,0.1969,19,0.62,40,0,0.4245,1,0.3232,"Santa Fe Springs - E.Joslin",570,90077,34.2057,-118.5539,17.5,24,33.944,-118.087,0.13003,0.46963,"S311",339.06,0.62,33.944,-118.087,954.213317081021,3766.83675533406,1,6.10240397662044,909.747722569613,3793.91202474154
50,129,1077,127,1,1,7,6.69,77,5,26.45,17.28,30.21,21.6,18,336.2,0.1406,-2.3024,0.9491,-3.2279,0.1969,67,0.54,40,0,0.4269,1,1.6202,"Santa Monica City Hall",348,24538,34.2057,-118.5539,17.5,24,34.011,-118.49,0.62478,1.8924,"S485",336.2,0.54,34.011,-118.49,916.597147192398,3772.55818648266,1,1.00467525278482,909.747722569613,3793.91202474154
50,130,1078,127,1,1,7,6.69,77,5,16.74,1.69,20.08,-8.61,18,715.12,0.2817,-3.4473,-0.3995,-3.5367,0.1969,90,0.02,40,0,0.0661,1,-0.682,"Santa Susana Ground",227,5108,34.2057,-118.5539,17.5,24,34.232,-118.71,0.25847,0.91949,"S486",715.12,0.02,34.232,-118.71,895.22843706148,3796.21304904458,9,7.20787891318365,909.747722569613,3793.91202474154
50,131,1079,127,1,1,7,6.69,77,5,64.76,61.46,34.19,68.4,18,296.62,0.0417,-3.6816,-0.057,-3.9797,0.1969,30,0.54,40,0,0.4555,1,-0.0972,"Seal Beach - Office Bldg",294,14578,34.2057,-118.5539,17.5,24,33.757,-118.084,0.079514,0.21289,"S441",296.62,0.54,33.757,-118.084,955.485715625203,3746.08726305766,1,4.28133384781016,909.747722569613,3793.91202474154
50,132,1080,127,1,1,7,6.69,77,5,13.42,0,14.92,-7.06,18,557.42,0.3433,-3.1283,0.2811,-3.0494,0.1969,90,0.32,40,0,0.1833,1,0.4799,"Simi Valley - Katherine Rd",550,90055,34.2057,-118.5539,17.5,24,34.264,-118.666,0.6441,1.059,"S487",557.42,0.32,34.264,-118.666,899.133403227725,3799.93709895576,9,5.20718049774229,909.747722569613,3793.91202474154
50,133,1082,127,1,1,7,6.69,77,5,10.05,5.59,7.03,14.59,18,320.93,0.3029,-2.3432,-0.292,-2.5531,0.1969,52,0.36,40,0,0.4389,1,-0.4984,"Sun Valley - Roscoe Blvd",515,90006,34.2057,-118.5539,17.5,24,34.221,-118.421,0.34535,0.88158,"S314",320.93,0.36,34.221,-118.421,921.92866161195,3796.15436223675,3,4.74926982077174,909.747722569613,3793.91202474154
50,134,1083,127,1,1,7,6.69,77,5,13.35,12.38,-3.26,20.94,18,402.16,0.208,-3.4291,-0.8306,-3.2837,0.1969,-15.27,0.1,40,0,0.3628,1,-1.418,"Sunland - Mt Gleason Ave",553,90058,34.2057,-118.5539,17.5,24,34.269,-118.303,0.14839,0.3258,"S316",402.16,0.1,34.269,-118.303,932.564181279687,3801.979805025,9,3.77932196151113,909.747722569613,3793.91202474154
50,135,1084,127,1,1,7,6.69,77,5,5.35,0,1.91,3.9,18,251.24,0.477,-0.8951,0.2103,-2.3048,0.1969,90,0.1,40,0,0.4788,1,0.359,"Sylmar - Converter Sta",61,74,34.2057,-118.5539,17.5,24,34.311,-118.49,0.69753,1.1969,"S488",251.24,0.1,34.311,-118.49,915.122107558014,3805.86077802869,9,1.61200902928426,909.747722569613,3793.91202474154
50,136,1085,127,1,1,7,6.69,77,5,5.19,0,1.38,4.54,18,370.52,0.4746,-1.2018,0.0278,-2.518,0.1969,90,0.12,40,0,0.3958,1,0.0474,"Sylmar - Converter Sta East",62,75,34.2057,-118.5539,17.5,24,34.312,-118.481,0.6861,1.373,"S489",370.52,0.12,34.312,-118.481,915.946194163611,3806.00868624467,9,0.810011451708831,909.747722569613,3793.91202474154
50,137,1086,127,1,1,7,6.69,77,5,5.3,1.74,-1.74,6.59,18,440.54,0.3899,-1.1913,0.0977,-2.7436,0.1969,-90,0.1,40,0,0.3187,1,0.1668,"Sylmar - Olive View Med FF",344,24514,34.2057,-118.5539,17.5,24,34.326,-118.444,0.64005,1.1816,"S317",440.54,0.1,34.326,-118.444,919.284612238091,3807.71533037098,9,0.514372873886074,909.747722569613,3793.91202474154
50,138,1087,127,1,1,7,6.69,77,5,15.6,0.37,18.31,9.37,18,257.21,0.3067,-2.2142,1.3268,-2.614,0.1969,89,0.32,40,0,0.4763,1,2.265,"Tarzana - Cedar Hill A",341,24436,34.2057,-118.5539,17.5,24,34.16,-118.534,1.644,2.5926,"S319",257.21,0.32,34.16,-118.534,911.805673334943,3788.91944262774,3,0.146783680421362,909.747722569613,3793.91202474154
50,139,1088,127,1,1,7,6.69,77,5,57.2,53.43,45.29,55.16,18,260.6,0.0487,-3.8115,0.5057,-3.9033,0.1969,44,0.32,40,0,0.4748,1,0.8633,"Terminal Island - S Seaside",575,90082,34.2057,-118.5539,17.5,24,33.736,-118.269,0.16938,0.33151,"S320",260.6,0.32,33.736,-118.269,938.436692244182,3742.95137862561,1,0.468818608232955,909.747722569613,3793.91202474154
50,140,1089,127,1,1,7,6.69,77,5,22.28,10.31,28.7,8.7,18,505.97,0.1925,-3.5853,-0.1077,-3.442,0.1969,90,0.32,40,0,0.2405,1,-0.1839,"Topanga - Fire Sta",226,5081,34.2057,-118.5539,17.5,24,34.084,-118.6,0.26423,0.87023,"S490",505.992499833245,0.32,34.084,-118.6,906.07953625497,3780.21815490032,9,8.76543421802983,909.747722569613,3793.91202474154
50,142,1091,127,1,1,7,6.69,77,5,23.64,23.1,-23.1,5.88,18,996.43,0.1253,-3.5679,0.0211,-4.0895,0.1969,-90,0.0108,40,0,0.0091,1,0.036,"Vasquez Rocks Park",313,24047,34.2057,-118.5539,17.5,24,34.492,-118.327,0.154,0.42197,"S322",996.43,0.0108,34.492,-118.327,929.209359202577,3826.63504176706,9,21.6561190394187,909.747722569613,3793.91202474154
50,143,1092,127,1,1,7,6.69,77,5,58,54.28,44.13,-56.79,18,358.95,0.0559,-3.2638,-0.3599,-3.8969,0.1969,137,0.78,40,0,0.4069,1,-0.6144,"Ventura - Harbor & California",365,25340,34.2057,-118.5539,17.5,24,34.276,-119.293,0.072102,0.12005,"S491",358.95,0.78,34.276,-119.293,841.309986540823,3798.98240402014,2,0.199599934445339,909.747722569613,3793.91202474154
50,144,1093,127,1,1,7,6.69,77,5,77.56,76.38,15.01,85.38,18,416.93,0.0328,-4.507,-0.3304,-4.5382,0.1969,11,0.32,40,0,0.3463,1,-0.564,"Villa Park - Serrano Ave",583,90090,34.2057,-118.5539,17.5,24,33.821,-117.818,0.042578,0.1675,"S323",416.93,0.32,33.821,-117.818,979.798312586285,3754.40557955498,9,0.510091000848359,909.747722569613,3793.91202474154
50,145,1094,127,1,1,7,6.69,77,5,51.7,51.46,-1.2,60.45,18,334.69,0.0549,-3.9824,-0.4945,-3.9945,0.1969,-1.34,0.34,40,0,0.4281,1,-0.8441,"West Covina - S Orange Ave",565,90071,34.2057,-118.5539,17.5,24,34.064,-117.952,0.063927,0.17528,"S324",334.69,0.34,34.064,-117.952,966.048033960579,3780.76951189694,4,3.09386738737235,909.747722569613,3793.91202474154
50,147,1096,127,1,1,7,6.69,77,5,64.66,64.46,-41.59,58.25,18,662.7,0.0418,-4.8815,-0.2296,-4.7903,0.1969,-40.18,-999,40,0,0.0949,1,-0.3919,"Wrightwood - Jackson Flat",308,23590,34.2057,-118.5539,17.5,24,34.381,-117.737,0.049046,0.09899,"S493",662.7,-999,34.381,-117.737,984.094144586328,3816.97809177417,9,26.1969546181623,909.747722569613,3793.91202474154
50,148,1097,127,1,1,7,6.69,77,5,81.69,81.54,-44.78,77.14,18,506,0.0306,-5.3051,-0.1333,-4.7519,0.1969,-33.32,-999,40,0,0.2404,1,-0.2275,"Wrightwood - Nielson Ranch",306,23573,34.2057,-118.5539,17.5,24,34.314,-117.545,0.043675,0.084847,"S443",506,-999,34.314,-117.545,1002.17446498979,3810.47307290891,9,16.2359006308493,909.747722569613,3793.91202474154
59,1,6874,146,1,0,6,6.1,0,5,17.86,17.15,-12.22,-16.03,8,333.89,0.1373,-3.6356,-0.1639,-3.5458,0.4814,-135,1.6,90,0,0.4288,1,-0.2551,"Thousand Palms Post Office",1651,5068,33.96,-116.3167,12.4,10.5,33.8166,-116.3945,0.19909,0.821,"S420",333.892499971922,1.6,33.817,-116.394,1111.87335136079,3761.54916289325,7,1.99056900719552,1118.00685769743,3777.91041449783
59,2,6875,146,1,0,6,6.1,0,5,22.3,21.73,-19.27,14.03,8,396.41,0.1083,-4.6375,-0.672,-4.8834,0.4814,-62,0.02,90,0,0.3691,1,-1.0462,"Morongo Valley Fire Station",223,5071,33.96,-116.3167,12.4,10.5,34.0486,-116.5782,0.094852,0.20829,"S201",396.406923050054,0.02,34.049,-116.578,1093.18277864536,3786.2489021266,9,5.56130304316732,1118.00685769743,3777.91041449783
