"i","j","recID","eqid","region","SOF","magBin","mag","rake","ZTOR","Rrup","RJB","RX","RY","FLen","VS30","rockPGA","lnY","intra.Resid","Median","eventTerm","srcSiteA","z1","dip","Z1_1D","Z1_Ref","iregion.i.","epsilon_within","Station.Name","Station.Sequence.Number","Station.ID..No.","Hypocenter.Latitude..deg.","Hypocenter.Longitude..deg.","Hypocenter.Depth..km.","Fault.Rupture.Width..km.","Station.Latitude","Station.Longitude","PGA..g.","T0.200S","STATID","VS30_gmean","Z1_mean","Lat_stat","Lon_stat","X_stat","Y_stat","Basin_ID","D_basin","X_eq","Y_eq"
108,240,8492,280,1,0,7,7.2,0,0.61,57.97,57.74,37.03,95.02,125,191.14,0.0502,-4.5467,-0.0617,-4.1695,0.0168,38,0.68,50,0,0.4964,1,-0.1109,"Salton Sea Wildlife Refuge",218,5062,32.3,-115.267,5.5,14.4,33.1774,-115.616,0.099553,0.27692,"S112",191.112306800659,0.68,33.177,-115.616,1189.17051730094,3695.29284182443,8,19.6217096387128,1228.98840318327,3600.07469698593
108,241,8493,280,1,0,7,7.2,0,0.61,308.3,308.3,-168.14,346.56,125,505.97,0.0027,-5.2081,-0.558,-6.2147,0.0168,-33,0.32,50,0,0.2405,1,-1.0034,"Topanga - Fire Sta",226,5081,32.3,-115.267,5.5,14.4,34.084,-118.6,0.0023927,0.0042477,"S490",505.992499833245,0.32,34.084,-118.6,906.07953625497,3780.21815490032,9,8.76543421802983,1228.98840318327,3600.07469698593
108,242,8494,280,1,0,7,7.2,0,0.61,291.66,291.66,-151.62,333.39,125,460.09,0.0031,-4.9819,0.296,-6.1011,0.0168,-31,0.32,50,0,0.2953,1,0.5323,"Beverly Hills Pac Bell Bsmt",1263,5402,32.3,-115.267,5.5,14.4,34.07618,-118.3959,0.0068797,0.0085297,"S510",460.096666642517,0.32,34.076,-118.396,924.961756233529,3780.16146908355,1,0.541514978531818,1228.98840318327,3600.07469698593
108,243,8495,280,1,0,7,7.2,0,0.61,190.22,190.22,-32.44,243.36,125,760,0.0087,-7.1486,-2.0458,-6.1794,0.0168,-10,-999,50,0,0.0481,1,-3.6791,"Yucaipa; Oak Glen Christian Conf",100540,5442,32.3,-115.267,5.5,14.4,34.04905,-116.9403,0.0014545,0.0039405,"S921",760,-999,34.049,-116.94,1059.69777213104,3784.19852089784,9,13.230310001315,1228.98840318327,3600.07469698593
108,244,8496,280,1,0,7,7.2,0,0.61,113.25,113.13,18.27,160.02,125,257.55,0.0215,-6.7873,-2.4776,-4.5672,0.0168,9,3.08,50,0,0.4762,1,-4.4555,"Thermal; Buchanan Steet",100307,5444,32.3,-115.267,5.5,14.4,33.63461,-116.0953,0.0037411,0.0077995,"S922",257.589999223512,3.08,33.635,-116.095,1140.97858027239,3743.14300358427,8,1.36251624713986,1228.98840318327,3600.07469698593
108,246,8498,280,1,0,7,7.2,0,0.61,325.11,325.11,-178.78,361.7,125,423.11,0.0023,-5.7266,-0.514,-6.1439,0.0168,-33,0.32,50,0,0.3392,1,-0.9244,"Agoura",100160,"AGO",32.3,-115.267,5.5,14.4,34.14647,-118.767,0.0023177,0.0034805,"S736",423.101333319678,0.32,34.146,-118.767,890.370605994247,3786.44731617841,9,11.5533647864028,1228.98840318327,3600.07469698593
108,248,8501,280,1,0,7,7.2,0,0.61,85.37,85.37,-75.81,117.62,125,511,0.0318,-5.7421,0.2278,-5.3228,0.0168,-63,-999,50,0,0.2346,1,0.4096,"Barrett",100542,"BAR",32.3,-115.267,5.5,14.4,32.68005,-116.6722,0.059921,0.17497,"S638",511,-999,32.68,-116.672,1093.76613845532,3633.56102497267,9,65.9242709364934,1228.98840318327,3600.07469698593
108,249,8502,280,1,0,7,7.2,0,0.61,209.05,209.05,-20.52,259.13,125,356,0.0071,-5.4975,-0.2565,-5.6427,0.0168,-6,-999,50,0,0.4096,1,-0.4614,"Big Bear Solar Observatory",100543,"BBR",32.3,-115.267,5.5,14.4,34.2623,-116.9208,0.010122,0.019552,"S639",356,-999,34.262,-116.921,1060.03990091627,3807.97012276097,9,24.8888191575653,1228.98840318327,3600.07469698593
108,250,8504,280,1,0,7,7.2,0,0.61,150.71,150.62,43.72,183.39,125,796,0.0135,-5.201,-1.4609,-6.0506,0.0168,17,0.02,50,0,0.0372,1,-2.6272,"Belle Mountain Joshua Tree",100091,"BEL",32.3,-115.267,5.5,14.4,34.0006,-115.9982,0.0039766,0.0077959,"S642",796,0.02,34.001,-115.998,1147.21820191963,3784.44836783776,9,33.363213660934,1228.98840318327,3600.07469698593
108,251,8505,280,1,0,7,7.2,0,0.61,249.45,249.45,-82.74,301.53,125,500,0.0047,-5.3356,-0.8136,-6.0507,0.0168,-19,-999,50,0,0.2475,1,-1.4631,"Mt. Baldy Ranger Station",100092,"BFS",32.3,-115.267,5.5,14.4,34.23883,-117.6585,0.0032931,0.0051865,"S925",500,-999,34.239,-117.658,992.199460371147,3801.58877218575,9,9.41910448931369,1228.98840318327,3600.07469698593
108,252,8506,280,1,0,7,7.2,0,0.61,284.06,284.06,-153.12,324.64,125,394.1,0.0034,-4.0553,0.5029,-5.9133,0.0168,-33,0.56,50,0,0.3716,1,0.9043,"Baldwin Hills Oil",100605,"BHP",32.3,-115.267,5.5,14.4,33.99053,-118.3617,0.0097826,0.011453,"S926",394.1,0.56,33.991,-118.362,928.531060842912,3770.86742051902,1,9.33895511867551,1228.98840318327,3600.07469698593
108,253,8507,280,1,0,7,7.2,0,0.61,243.43,243.43,-130.64,287.01,125,265.59,0.005,-4.2267,0.2313,-5.4442,0.0168,-32,0.7,50,0,0.4725,1,0.4159,"Barre Substation",100093,"BRE",32.3,-115.267,5.5,14.4,33.80776,-117.9812,0.013292,0.016867,"S927",265.599583325816,0.7,33.808,-117.981,964.761792863272,3752.21155002289,1,12.6058884210314,1228.98840318327,3600.07469698593
108,256,8510,280,1,0,7,7.2,0,0.61,274.65,274.65,-126.06,321.54,125,399,0.0037,-5.3593,0.0175,-5.9647,0.0168,-27,0.32,50,0,0.3663,1,0.0314,"Caltech Athenaeum Cellar",100095,"CAC",32.3,-115.267,5.5,14.4,34.13678,-118.122,0.0065545,0.0082073,"S930",399,0.32,34.137,-118.122,949.950804489644,3788.11058226734,4,3.21141952800544,1228.98840318327,3600.07469698593
108,257,8514,280,1,0,7,7.2,0,0.61,261.34,261.33,-186.78,281.6,125,505,0.0042,-5.665,-0.6132,-6.0958,0.0168,-46,-999,50,0,0.2416,1,-1.1026,"Catalina Island Airport",100097,"CIA",32.3,-115.267,5.5,14.4,33.4019,-118.415,0.0035583,0.0067485,"S931",505,-999,33.402,-118.415,926.539241388295,3705.26158163238,9,35.8203437559722,1228.98840318327,3600.07469698593
108,259,8517,280,1,0,7,7.2,0,0.61,298.07,298.07,-137.75,343.62,125,434.29,0.0029,-5.6659,0.0197,-6.0856,0.0168,-28,0.32,50,0,0.3261,1,0.0354,"Green Verdugo Microwave Site",100099,"DEC",32.3,-115.267,5.5,14.4,34.25353,-118.3338,0.0050439,0.0073943,"S933",434.299818179763,0.32,34.254,-118.334,929.78346475836,3800.18278047754,9,2.22602478699475,1228.98840318327,3600.07469698593
108,260,8518,280,1,0,7,7.2,0,0.61,298.14,298.14,-155.07,339.43,125,668.72,0.0029,-5.3524,-0.4843,-6.346,0.0168,-31,0.32,50,0,0.0911,1,-0.871,"Donna Jones Jenkins",100101,"DJJ",32.3,-115.267,5.5,14.4,34.10618,-118.4551,0.002489,0.0031141,"S934",668.700377352954,0.32,34.106,-118.455,919.363204834732,3783.24744299838,9,4.63194373279865,1228.98840318327,3600.07469698593
108,261,8519,280,1,0,7,7.2,0,0.61,254.87,254.87,-138.19,297.22,125,258.1,0.0045,-4.0098,0.5617,-5.4264,0.0168,-33,0.82,50,0,0.4759,1,1.01,"Del Amo",100102,"DLA",32.3,-115.267,5.5,14.4,33.84822,-118.0962,0.016733,0.025726,"S935",258.1,0.82,33.848,-118.096,953.890526478192,3756.13788025592,1,11.5655681049861,1228.98840318327,3600.07469698593
108,264,8522,280,1,0,7,7.2,0,0.61,51.2,50.94,16.72,102.62,125,238,0.0573,-3.7962,0.4769,-4.22,0.0168,19,1.16,50,0,0.4839,1,0.8576,"Elmore'S Ranch",100167,"ERR",32.3,-115.267,5.5,14.4,33.11675,-115.8227,0.17828,0.41994,"S653",238,1.16,33.117,-115.823,1170.26886745034,3687.26636023607,8,7.49579063192275,1228.98840318327,3600.07469698593
108,265,8524,280,1,0,7,7.2,0,0.61,263.8,263.8,-161.29,298.61,125,393.26,0.0041,-5.3536,-0.3545,-5.9033,0.0168,-38,-999,50,0,0.3725,1,-0.6376,"Fort Macarthur Park",100107,"FMP",32.3,-115.267,5.5,14.4,33.71264,-118.2938,0.0050527,0.0067403,"S739",393.298260784967,-999,33.713,-118.294,936.234554848655,3740.29168051766,9,1.34272459196362,1228.98840318327,3600.07469698593
108,266,8525,280,1,0,7,7.2,0,0.61,242.65,242.65,-122.63,288.5,125,351.22,0.005,-4.3591,0.7631,-5.6908,0.0168,-30,0.64,50,0,0.414,1,1.3723,"Fullerton",100108,"FUL",32.3,-115.267,5.5,14.4,33.8717,-117.9225,0.020077,0.030761,"S740",351.202352882063,0.64,33.872,-117.922,969.878987476568,3759.5870317748,1,6.45706214026975,1228.98840318327,3600.07469698593
108,268,8529,280,1,0,7,7.2,0,0.61,275.12,275.12,-126.58,321.92,125,366.77,0.0037,-5.3767,0.263,-5.9097,0.0168,-27,0.32,50,0,0.3995,1,0.4729,"Geol. Surv. Anal.",100110,"GSA",32.3,-115.267,5.5,14.4,34.13677,-118.1283,0.0086625,0.016169,"S741",366.795999858226,0.32,34.137,-118.128,949.396862822486,3788.08406840149,4,2.65836460896118,1228.98840318327,3600.07469698593
108,271,8532,280,1,0,7,7.2,0,0.61,295.08,295.07,-143.71,339.13,125,290.17,0.003,-4.7635,0.381,-5.8138,0.0168,-29,0.34,50,0,0.4594,1,0.6852,"North Hollywood",100274,"HLL",32.3,-115.267,5.5,14.4,34.17643,-118.3597,0.0089703,0.016748,"S940",290.197857040001,0.34,34.176,-118.36,927.781869945962,3791.41369800185,3,3.57536642035575,1228.98840318327,3600.07469698593
108,272,8533,280,1,0,7,7.2,0,0.61,174.48,174.4,122.38,145.06,125,981,0.0103,-6.3233,-1.2177,-6.1578,0.0168,44,0.007,50,0,0.0101,1,-2.1898,"Iron Mountain Pumping Station",100168,"IRM",32.3,-115.267,5.5,14.4,34.15738,-115.1451,0.0034984,0.0065502,"S941",981,0.007,34.157,-115.145,1224.8970743404,3807.56814080528,9,91.671350338571,1228.98840318327,3600.07469698593
108,273,8535,280,1,0,7,7.2,0,0.61,206.39,206.32,10.01,249.02,125,388,0.0073,-5.8987,-0.6361,-5.702,0.0168,3,-999,50,0,0.3781,1,-1.144,"Johnson Valley",100112,"JVA",32.3,-115.267,5.5,14.4,34.36622,-116.6127,0.0068308,0.015467,"S657",388,-999,34.366,-116.613,1087.72775238497,3821.275614443,9,41.0100138678883,1228.98840318327,3600.07469698593
108,274,8536,280,1,0,7,7.2,0,0.61,274.04,274.04,-123.7,321.37,125,383.09,0.0037,-5.3964,-0.1041,-5.936,0.0168,-27,0.32,50,0,0.3832,1,-0.1872,"Kinemetrics",100113,"KIK",32.3,-115.267,5.5,14.4,34.15037,-118.1016,0.0059457,0.009378,"S742",383.098999988254,0.32,34.15,-118.102,951.727863486249,3789.64260770737,4,2.61860792394771,1228.98840318327,3600.07469698593
108,275,8537,280,1,0,7,7.2,0,0.61,274.89,274.89,-156.65,313.22,125,257,0.0037,-4.3566,0.1626,-5.5949,0.0168,-35,0.48,50,0,0.4764,1,0.2924,"La Fresa",100174,"LAF",32.3,-115.267,5.5,14.4,33.86889,-118.3314,0.0092586,0.012208,"S942",257,0.48,33.869,-118.331,932.015147411919,3757.45387621769,1,6.21085620784282,1228.98840318327,3600.07469698593
108,276,8538,280,1,0,7,7.2,0,0.61,251.42,251.42,-140.02,292.78,125,261.91,0.0046,-4.259,0.4217,-5.4715,0.0168,-34,0.66,50,0,0.4742,1,0.7584,"Long Beach Water Reclm Plant 1",100175,"LBW1",32.3,-115.267,5.5,14.4,33.798,-118.0884,0.014955,0.03691,"S743",261.902857103896,0.66,33.798,-118.088,954.89723665113,3750.62179167642,1,7.42376916380739,1228.98840318327,3600.07469698593
108,277,8539,280,1,0,7,7.2,0,0.61,285.91,285.9,-153.97,326.4,125,396.33,0.0033,-4.0813,0.4847,-5.9178,0.0168,-33,0.58,50,0,0.3692,1,0.8717,"La Cienega",100176,"LCG",32.3,-115.267,5.5,14.4,34.00033,-118.3779,0.0094113,0.01165,"S943",396.301249954661,0.58,34,-118.378,927.006355456174,3771.79955778269,1,8.63956217629139,1228.98840318327,3600.07469698593
108,280,8544,280,1,0,7,7.2,0,0.61,312.98,312.98,-147.88,357.08,125,370.36,0.0025,-5.5386,0.12,-6.0242,0.0168,-28,0.32,50,0,0.396,1,0.2159,"Los Angeles Filtration Plant",100116,"LFP",32.3,-115.267,5.5,14.4,34.30529,-118.4881,0.0052133,0.0077397,"S945",370.398260779736,0.32,34.305,-118.488,915.335962399261,3805.20291261654,9,1.36993848762834,1228.98840318327,3600.07469698593
108,281,8545,280,1,0,7,7.2,0,0.61,266.5,266.5,-136.29,310.47,125,273.32,0.004,-4.415,0.1801,-5.5319,0.0168,-31,0.72,50,0,0.4687,1,0.3238,"Laguna Bell",100178,"LGB",32.3,-115.267,5.5,14.4,33.9753,-118.1492,0.0099346,0.012952,"S946",273.300769203707,0.72,33.975,-118.149,948.312943556682,3770.00497730398,1,4.92938565550037,1228.98840318327,3600.07469698593
108,283,8548,280,1,0,7,7.2,0,0.61,248.4,248.4,-69.76,300.78,125,433.34,0.0048,-5.2061,-0.22,-5.9329,0.0168,-16,-999,50,0,0.3272,1,-0.3956,"Wrightwood, Lone Pine Canyon",100609,"LPC",32.3,-115.267,5.5,14.4,34.31478,-117.5464,0.0064263,0.011151,"S948",433.34,-999,34.315,-117.546,1002.07632720466,3810.57917968966,9,16.353359443521,1228.98840318327,3600.07469698593
108,284,8549,280,1,0,7,7.2,0,0.61,263.08,263.08,-143.18,304.67,125,344.72,0.0041,-3.911,0.6396,-5.7101,0.0168,-33,0.82,50,0,0.4197,1,1.1503,"LB - Orange Ave",573,90080,32.3,-115.267,5.5,14.4,33.881,-118.176,0.014627,0.016098,"S275",344.704210429884,0.82,33.881,-118.176,946.307079268397,3759.45043440394,1,14.098768477339,1228.98840318327,3600.07469698593
108,285,8551,280,1,0,7,7.2,0,0.61,176.12,176.05,50.87,203.9,125,1188,0.0101,-5.2643,-1.5814,-6.1646,0.0168,17,0.002,50,0,0.0027,1,-2.8439,"Marine Combat Center 29palms",100119,"MCT",32.3,-115.267,5.5,14.4,34.22645,-116.0407,0.0021939,0.0029006,"S660",1188,0.002,34.226,-116.041,1141.52364088557,3809.19223261304,9,48.9403729318018,1228.98840318327,3600.07469698593
108,286,8552,280,1,0,7,7.2,0,0.61,274.95,274.95,-126.38,321.79,125,333,0.0037,-5.3528,1.2839,-5.8411,0.0168,-27,0.32,50,0,0.4295,1,2.3089,"Caltech Millikan Library",100262,"MIK",32.3,-115.267,5.5,14.4,34.13688,-118.126,0.025205,0.0273,"S949",333,0.32,34.137,-118.126,949.581509841401,3788.09290270348,4,2.84271614112964,1228.98840318327,3600.07469698593
108,287,8554,280,1,0,7,7.2,0,0.61,268.57,268.57,-163.34,303.29,125,508.83,0.0039,-7.4219,-1.9147,-6.1239,0.0168,-37,-999,50,0,0.2371,1,-3.4433,"Rancho Palos Verdes - Luconia",539,90044,32.3,-115.267,5.5,14.4,33.74,-118.335,0.00089967,0.0014913,"S307",508.83,-999,33.74,-118.335,932.294894920752,3743.11603949644,9,5.61052413029681,1228.98840318327,3600.07469698593
108,288,8556,280,1,0,7,7.2,0,0.61,343.66,343.65,-183.38,380.67,125,355.87,0.0019,-5.1782,0.3428,-6.078,0.0168,-32,0.32,50,0,0.4098,1,0.6165,"Moorpark",100120,"MOP",32.3,-115.267,5.5,14.4,34.28085,-118.9049,0.0049857,0.0058528,"S950",355.898499939938,0.32,34.281,-118.905,877.032774191773,3800.9101120283,9,9.2458783857895,1228.98840318327,3600.07469698593
108,290,8561,280,1,0,7,7.2,0,0.61,275.88,275.88,-116.51,324.52,125,760,0.0036,-5.5386,-0.1208,-6.4668,0.0168,-25,-999,50,0,0.0481,1,-0.2173,"Mount Wilson Obsv",100121,"MWC",32.3,-115.267,5.5,14.4,34.22362,-118.0583,0.0041753,0.0081797,"S952",760,-999,34.224,-118.058,955.390353570836,3798.05542721992,9,5.68578595368874,1228.98840318327,3600.07469698593
108,293,8565,280,1,0,7,7.2,0,0.61,313.52,313.52,-157.48,355.36,125,292.23,0.0025,-4.9173,0.5773,-5.8703,0.0168,-30,0.34,50,0,0.4582,1,1.0381,"Northridge",100418,"NOT",32.3,-115.267,5.5,14.4,34.22869,-118.5583,0.0091443,0.012092,"S745",292.204285525721,0.34,34.229,-118.558,909.256603614679,3796.48192531881,3,3.08154195631269,1228.98840318327,3600.07469698593
108,295,8568,280,1,0,7,7.2,0,0.61,328.9,328.9,-148.79,373.54,125,471.92,0.0022,-5.4135,0.285,-6.2177,0.0168,-27,0.32,50,0,0.2811,1,0.5126,"Pardee",100124,"PDE",32.3,-115.267,5.5,14.4,34.44199,-118.5822,0.0047313,0.0053712,"S955",471.900769215096,0.32,34.442,-118.582,906.013387257326,3820.02950884529,9,17.215031550133,1228.98840318327,3600.07469698593
108,296,8569,280,1,0,7,7.2,0,0.61,234.05,233.99,213.18,97.02,125,1312,0.0055,-6.1924,-0.8175,-6.3768,0.0168,64,0.001,50,0,0.0013,1,-1.4701,"Parker Dam",100461,"PDM",32.3,-115.267,5.5,14.4,34.30336,-114.1415,0.0024353,0.0045954,"S956",1312,0.001,34.303,-114.141,1316.38235954165,3831.49201712869,9,158.962941873243,1228.98840318327,3600.07469698593
108,297,8570,280,1,0,7,7.2,0,0.61,288.51,288.51,-160.72,327.06,125,402.06,0.0032,-4.1365,0.4653,-5.9486,0.0168,-34,0.52,50,0,0.3629,1,0.8368,"Playa Del Rey",100417,"PDR",32.3,-115.267,5.5,14.4,33.96273,-118.437,0.0089453,0.010421,"S957",402.097894637633,0.52,33.963,-118.437,921.734455611612,3767.4471328413,1,1.8260222183777,1228.98840318327,3600.07469698593
108,298,8571,280,1,0,7,7.2,0,0.61,239.03,239.03,-86.84,290.96,125,388.68,0.0052,-5.2528,-0.1141,-5.8365,0.0168,-21,0.32,50,0,0.3773,1,-0.2052,"Padua",100426,"PDU",32.3,-115.267,5.5,14.4,34.1207,-117.6381,0.0082372,0.016026,"S958",388.699629620277,0.32,34.121,-117.638,994.735242042325,3788.58077337056,5,3.71436792948151,1228.98840318327,3600.07469698593
108,299,8572,280,1,0,7,7.2,0,0.61,189.76,189.76,-58.41,244.11,125,739.23,0.0087,-3.6559,1.0611,-6.1555,0.0168,-18,-999,50,0,0.0558,1,1.9082,"Perris Dam",100607,"PEC",32.3,-115.267,5.5,14.4,33.892,-117.1613,0.033005,0.062724,"S959",739.23,-999,33.892,-117.161,1040.25608999094,3765.56402695521,9,17.1836507436039,1228.98840318327,3600.07469698593
108,300,8573,280,1,0,7,7.2,0,0.61,213.97,213.97,-100.35,263.43,125,699,0.0067,-4.9173,0.0994,-6.2,0.0168,-28,-999,50,0,0.074,1,0.1788,"Pleasants Peak",100431,"PLS",32.3,-115.267,5.5,14.4,33.7953,-117.6091,0.01007,0.016488,"S749",699,-999,33.795,-117.609,999.322530124734,3752.51570936871,9,5.2119907348713,1228.98840318327,3600.07469698593
108,301,8574,280,1,0,7,7.2,0,0.61,124.81,124.81,-4.76,177.85,125,786,0.0185,-5.3521,-0.0095,-5.9124,0.0168,-2,0.014,50,0,0.04,1,-0.0171,"Palm Desert",100385,"PMD",32.3,-115.267,5.5,14.4,33.64785,-116.3777,0.02315,0.058317,"S960",786,0.014,33.648,-116.378,1114.56898619731,3742.85922352115,9,4.94526375478672,1228.98840318327,3600.07469698593
108,302,8575,280,1,0,7,7.2,0,0.61,248.66,248.66,-102.24,298.89,125,462.66,0.0047,-5.0874,-0.1753,-5.9747,0.0168,-24,0.32,50,0,0.2922,1,-0.3152,"Puddingstone Reservoir",100329,"PSR",32.3,-115.267,5.5,14.4,34.09181,-117.8071,0.0065156,0.009264,"S961",462.698749947655,0.32,34.092,-117.807,979.290096365194,3784.55150932985,9,1.27353827122772,1228.98840318327,3600.07469698593
108,303,8576,280,1,0,7,7.2,0,0.61,319.65,319.65,-144.23,364.8,125,394.66,0.0024,-5.4943,-0.1196,-6.0772,0.0168,-27,0.34,50,0,0.371,1,-0.2152,"Quigley Station",100456,"QUG",32.3,-115.267,5.5,14.4,34.39558,-118.4984,0.0037437,0.0039944,"S962",394.696922932995,0.34,34.396,-118.498,913.965942757336,3815.26385125019,9,8.87727911730096,1228.98840318327,3600.07469698593
108,304,8579,280,1,0,7,7.2,0,0.61,262.01,262,-115.88,310.36,125,371.97,0.0042,-4.7598,-0.0265,-5.8649,0.0168,-26,0.36,50,0,0.3944,1,-0.0476,"Rio Hondo",100430,"RIO",32.3,-115.267,5.5,14.4,34.10473,-117.9796,0.0073294,0.010516,"S963",371.998695601863,0.36,34.105,-117.98,963.236381879825,3785.19443137829,4,4.30348527870785,1228.98840318327,3600.07469698593
108,305,8580,280,1,0,7,7.2,0,0.61,274.5,274.5,-168.9,307.8,125,529.99,0.0037,-5.3284,0.247,-6.1743,0.0168,-38,-999,50,0,0.2129,1,0.4441,"Rancho Palos Verdes",100201,"RPV",32.3,-115.267,5.5,14.4,33.74346,-118.4041,0.0072376,0.01165,"S964",529.99,-999,33.743,-118.404,925.880630146336,3743.16118251236,9,7.91109350293145,1228.98840318327,3600.07469698593
108,307,8582,280,1,0,7,7.2,0,0.61,265.97,265.96,-126.91,312.26,125,278.64,0.004,-4.697,0.1038,-5.6369,0.0168,-29,0.46,50,0,0.4659,1,0.1867,"Rush",100279,"RUS",32.3,-115.267,5.5,14.4,34.05073,-118.0809,0.0091608,0.024396,"S966",278.600888826502,0.46,34.051,-118.081,954.196800055314,3778.74384761618,4,0.677928524313106,1228.98840318327,3600.07469698593
108,308,8583,280,1,0,7,7.2,0,0.61,211.71,211.71,-71.28,265.05,125,355.87,0.0069,-5.3151,-1.0617,-5.6832,0.0168,-20,0.32,50,0,0.4098,1,-1.9093,"Riverside",100129,"RVR",32.3,-115.267,5.5,14.4,33.99351,-117.3755,0.0043396,0.011496,"S667",355.898441496167,0.32,33.994,-117.376,1019.71540295994,3775.77930111251,9,4.82458039395905,1228.98840318327,3600.07469698593
108,310,8586,280,1,0,7,7.2,0,0.61,318.58,318.58,-233.94,325.82,125,854,0.0024,-5.8226,-0.4323,-6.6286,0.0168,-47,0.011,50,0,0.0246,1,-0.7773,"Santa Barbara Island",100070,"SBI",32.3,-115.267,5.5,14.4,33.48046,-119.0299,0.0019265,0.00242,"S968",854,0.011,33.48,-119.03,868.956092383168,3711.56002306661,9,68.0660048981215,1228.98840318327,3600.07469698593
108,311,8587,280,1,0,7,7.2,0,0.61,256.83,256.83,-217.06,247.83,125,442,0.0044,-5.7418,-0.6064,-5.9753,0.0168,-58,-999,50,0,0.317,1,-1.0906,"San Clemente Island 2, Ca, Usa",100267,"SCI2",32.3,-115.267,5.5,14.4,32.915,-118.4879,0.0039841,0.0090677,"S969",442,-999,32.915,-118.488,922.075771977596,3650.90598159479,9,89.6058640004928,1228.98840318327,3600.07469698593
108,312,8593,280,1,0,7,7.2,0,0.61,292.93,292.92,-159.74,332.29,125,377.62,0.0031,-4.154,0.3314,-5.9016,0.0168,-33,0.6,50,0,0.3888,1,0.5959,"Santa Monica Fire St",100335,"SMS",32.3,-115.267,5.5,14.4,34.01438,-118.4562,0.007718,0.0091479,"S970",377.600526302218,0.6,34.014,-118.456,919.725454529362,3773.0304176191,1,3.67549330030064,1228.98840318327,3600.07469698593
