"i","j","recID","eqid","region","SOF","magBin","mag","rake","ZTOR","Rrup","RJB","RX","RY","FLen","VS30","rockPGA","lnY","intra.Resid","Median","eventTerm","srcSiteA","z1","dip","Z1_1D","Z1_Ref","iregion.i.","epsilon_within","Station.Name","Station.Sequence.Number","Station.ID..No.","Hypocenter.Latitude..deg.","Hypocenter.Longitude..deg.","Hypocenter.Depth..km.","Fault.Rupture.Width..km.","Station.Latitude","Station.Longitude","PGA..g.","T0.200S","STATID","VS30_gmean","Z1_mean","Lat_stat","Lon_stat","X_stat","Y_stat","Basin_ID","D_basin","X_eq","Y_eq"
42,75,666,113,1,1,6,5.99,30,14.5,58.61,55.93,29.12,55.56,10,285.93,0.0263,-1.5067,0.2319,-1.8417,-0.1744,30,0.32,30,0,0.4619,1,0.3552,"Newhall - W Pico Canyon Rd.",551,90056,34.0493,-118.081,14.6,6,34.391,-118.622,0.067989,0.2197,"S294",285.93,0.32,34.391,-118.622,902.579763897753,3814.20832845074,9,13.8211563937359,954.205896173244,3778.55509276384
42,76,667,113,1,1,6,5.99,30,14.5,41.69,38.04,10.79,42.62,10,280.86,0.0417,-1.2438,0.4373,-1.3927,-0.1744,16,0.34,30,0,0.4647,1,0.6698,"Northridge - 17645 Saticoy St",512,90003,34.0493,-118.081,14.6,6,34.209,-118.517,0.12937,0.38865,"S295",280.86,0.34,34.209,-118.517,913.134796766699,3794.42773125433,3,5.36809748879591,954.205896173244,3778.55509276384
42,77,668,113,1,1,6,5.99,30,14.5,20.42,14.37,-14.37,-3.58,10,279.46,0.0977,-1.0687,0.0102,-0.6849,-0.1744,-90,0.7,30,0,0.4655,1,0.0156,"Norwalk - Imp Hwy, S Grnd",107,634,34.0493,-118.081,14.6,6,33.915,-118.07,0.18271,0.30357,"S296",279.46,0.7,33.915,-118.07,955.941487591871,3763.69245646447,1,7.18806603382349,954.205896173244,3778.55509276384
42,78,669,113,1,1,6,5.99,30,14.5,22.84,17.65,-9.14,-20.1,10,415.69,0.0862,-0.8522,0.2773,-0.8888,-0.1744,-148.81,0.36,30,0,0.3477,1,0.4247,"Orange Co. Reservoir",111,697,34.0493,-118.081,14.6,6,33.9354,-117.884,0.19268,0.5279,"S297",415.69,0.36,33.935,-117.884,973.049387153029,3766.75779671613,9,1.34879524593416,954.205896173244,3778.55509276384
42,79,670,113,1,1,6,5.99,30,14.5,41.32,38.7,-8.11,42.84,10,191.06,0.0422,-1.9316,-0.7101,-1.2524,-0.1744,-12.09,0.32,30,0,0.4964,1,-1.0876,"Pacific Palisades - Sunset",544,90049,34.0493,-118.081,14.6,6,34.042,-118.554,0.046536,0.21307,"S298",191.06,0.32,34.042,-118.554,910.53112608935,3775.74013927167,9,4.32475873261563,954.205896173244,3778.55509276384
42,80,671,113,1,1,6,5.99,30,14.5,36.12,31.59,22.55,31.4,10,508.08,0.05,-1.0039,0.6743,-1.5134,-0.1744,41,0.32,30,0,0.238,1,1.0328,"Pacoima Kagel Canyon",316,24088,34.0493,-118.081,14.6,6,34.296,-118.375,0.15713,0.34674,"S299",508.082222183345,0.32,34.296,-118.375,925.791506668452,3804.67258290396,9,1.81566550641537,954.205896173244,3778.55509276384
42,81,672,113,1,1,6,5.99,30,14.5,36.29,31.8,16.8,34.6,10,323.76,0.0498,-1.0432,0.3493,-1.2918,-0.1744,30,0.36,30,0,0.4367,1,0.5351,"Pacoima Kagel Canyon USC",514,90005,34.0493,-118.081,14.6,6,34.25,-118.42,0.13182,0.4923,"S300",323.76,0.36,34.25,-118.42,921.875785314881,3799.37789656425,3,3.73028949177761,954.205896173244,3778.55509276384
42,82,673,113,1,1,6,5.99,30,14.5,36.55,32.13,13.38,36.07,10,318.16,0.0493,-1.1223,0.1278,-1.2925,-0.1744,23,0.36,30,0,0.4409,1,0.1957,"Panorama City - Roscoe",516,90007,34.0493,-118.081,14.6,6,34.222,-118.442,0.10648,0.32712,"S301",318.16,0.36,34.222,-118.442,919.987142730467,3796.17834916943,3,6.13747931519494,954.205896173244,3778.55509276384
42,83,674,113,1,1,6,5.99,30,14.5,17.3,4.3,9.48,5.3,10,341.14,0.1168,-0.9957,-0.3586,-0.5738,-0.1744,88,0.32,30,0,0.4228,1,-0.5492,"Pasadena - Brown Gym",492,80046,34.0493,-118.081,14.6,6,34.14,-118.12,0.14064,0.43267,"S302",341.14,0.32,34.14,-118.12,950.119492008754,3788.45251839325,4,3.37107414144265,954.205896173244,3778.55509276384
42,84,677,113,1,1,6,5.99,30,14.5,17.3,4.3,9.48,5.3,10,341.14,0.1168,-0.4599,0.0893,-0.5738,-0.1744,88,0.32,30,0,0.4228,1,0.1368,"Pasadena - CIT Calif Blvd",493,80047,34.0493,-118.081,14.6,6,34.14,-118.12,0.22155,0.76405,"S302",341.14,0.32,34.14,-118.12,950.119492008754,3788.45251839325,4,3.37107414144265,954.205896173244,3778.55509276384
42,85,678,113,1,1,6,5.99,30,14.5,17.3,4.3,9.48,5.3,10,341.14,0.1168,-0.2648,0.1789,-0.5738,-0.1744,88,0.32,30,0,0.4228,1,0.2741,"Pasadena - CIT Indust. Rel",497,80051,34.0493,-118.081,14.6,6,34.14,-118.12,0.24102,0.70556,"S302",341.14,0.32,34.14,-118.12,950.119492008754,3788.45251839325,4,3.37107414144265,954.205896173244,3778.55509276384
42,86,680,113,1,1,6,5.99,30,14.5,18.12,6.78,9.66,10.1,10,969.07,0.1112,-1.9566,-0.2284,-1.0952,-0.1744,62,0.0057,30,0,0.011,1,-0.3498,"Pasadena - CIT Kresge Lab",500,80054,34.0493,-118.081,14.6,6,34.149,-118.171,0.10337,0.17327,"S303",969.07,0.0057,34.149,-118.171,945.36382536503,3789.22734093923,9,1.19872808108915,954.205896173244,3778.55509276384
42,87,681,113,1,1,6,5.99,30,14.5,17.3,4.3,9.48,5.3,10,341.14,0.1168,0.0749,0.5723,-0.5738,-0.1744,88,0.32,30,0,0.4228,1,0.8765,"Pasadena - CIT Lura St",494,80048,34.0493,-118.081,14.6,6,34.14,-118.12,0.34929,0.74551,"S302",341.14,0.32,34.14,-118.12,950.119492008754,3788.45251839325,4,3.37107414144265,954.205896173244,3778.55509276384
42,88,683,113,1,1,6,5.99,30,14.5,19.17,8.03,13.22,2.03,10,397.27,0.1046,-0.1007,0.46,-0.7001,-0.1744,90,0.32,30,0,0.3682,1,0.7046,"Pasadena - Old House Rd",588,90095,34.0493,-118.081,14.6,6,34.168,-118.078,0.27789,0.78058,"S304",397.27,0.32,34.168,-118.078,953.846688022209,3791.74804305934,4,0.633163615565942,954.205896173244,3778.55509276384
42,89,684,113,1,1,6,5.99,30,14.5,32.8,29.42,-15.19,30.2,10,345.72,0.0564,-2.2827,-1.2442,-1.2046,-0.1744,-31.08,0.52,30,0,0.4188,1,-1.9056,"Playa Del Rey - Saran",542,90047,34.0493,-118.081,14.6,6,33.96,-118.432,0.02933,0.074292,"S305",345.72,0.52,33.96,-118.432,922.211813989088,3767.13473322697,1,2.01629354453853,954.205896173244,3778.55509276384
42,90,685,113,1,1,6,5.99,30,14.5,29.65,25.11,6.28,-30.09,10,384.44,0.0637,-1.7185,-0.5312,-1.137,-0.1744,166,0.32,30,0,0.3818,1,-0.8136,"Pomona - 4th & Locust FF",302,23525,34.0493,-118.081,14.6,6,34.056,-117.748,0.065516,0.10947,"S306",384.428571003863,0.32,34.056,-117.748,984.947090523483,3780.83286104091,5,1.32278512208011,954.205896173244,3778.55509276384
42,91,686,113,1,1,6,5.99,30,14.5,44.54,40.96,14.38,-44.92,10,390.18,0.0383,-2.0909,-0.1506,-1.6372,-0.1744,160,0.32,30,0,0.3758,1,-0.2307,"Rancho Cucamonga - Law and Justince Center FF, Foothill and Haven",301,23497,34.0493,-118.081,14.6,6,34.104,-117.574,0.054745,0.11287,"S206",390.183999917989,0.32,34.104,-117.574,1000.74744173866,3787.00577958706,5,5.95979130735482,954.205896173244,3778.55509276384
42,92,687,113,1,1,6,5.99,30,14.5,42.26,39.7,-37.78,17.19,10,508.83,0.041,-2.7972,-1.2554,-1.7191,-0.1744,-72.12,-999,30,0,0.2371,1,-1.9228,"Rancho Palos Verdes - Luconia",539,90044,34.0493,-118.081,14.6,6,33.74,-118.335,0.018632,0.04407,"S307",508.83,-999,33.74,-118.335,932.294894920752,3743.11603949644,9,5.61052413029681,954.205896173244,3778.55509276384
42,93,688,113,1,1,6,5.99,30,14.5,56.48,54.58,-0.25,-59.58,10,389.95,0.0277,-2.0426,-0.006,-1.965,-0.1744,-179.74,0.32,30,0,0.376,1,-0.0091,"Riverside Airport",275,13123,34.0493,-118.081,14.6,6,33.951,-117.446,0.045333,0.18146,"S207",389.970832554262,0.32,33.951,-117.446,1013.49854325885,3770.64876021556,9,6.7397208843987,954.205896173244,3778.55509276384
42,95,690,113,1,1,6,5.99,30,14.5,15.2,0,4.54,1.91,10,401.37,0.1338,-0.4262,0.1585,-0.4924,-0.1744,90,0.32,30,0,0.3637,1,0.2427,"San Gabriel - E Grand Ave",528,90019,34.0493,-118.081,14.6,6,34.091,-118.093,0.25916,0.69484,"S309",401.37,0.32,34.091,-118.093,952.874145655653,3783.13173207285,4,3.705603872153,954.205896173244,3778.55509276384
42,96,691,113,1,1,6,5.99,30,14.5,15.94,1.57,6.58,5.73,10,379.43,0.1273,-0.8467,-0.191,-0.5225,-0.1744,84,0.32,30,0,0.3869,1,-0.2925,"San Marino - SW Academy",338,24401,34.0493,-118.081,14.6,6,34.115,-118.13,0.17342,0.35479,"S310",379.43,0.32,34.115,-118.13,949.32897751427,3785.63258625348,4,2.30680529237886,954.205896173244,3778.55509276384
42,97,692,113,1,1,6,5.99,30,14.5,18.49,11.47,-11.47,-1.48,10,339.06,0.1088,0.0659,0.873,-0.6296,-0.1744,-90,0.62,30,0,0.4245,1,1.3372,"Santa Fe Springs - E.Joslin",570,90077,34.0493,-118.081,14.6,6,33.944,-118.087,0.45947,1.049,"S311",339.06,0.62,33.944,-118.087,954.213317081021,3766.83675533406,1,6.10240397662044,954.205896173244,3778.55509276384
42,98,693,113,1,1,6,5.99,30,14.5,35.86,32.8,-11.09,35.87,10,385.87,0.0505,-2.5215,-0.8833,-1.3589,-0.1744,-19.75,0.5,30,0,0.3803,1,-1.353,"Santa Monica - Second St",543,90048,34.0493,-118.081,14.6,6,34.005,-118.485,0.036312,0.076582,"S312",385.87,0.5,34.005,-118.485,917.088783334154,3771.91254419631,1,0.94214814798945,954.205896173244,3778.55509276384
42,99,694,113,1,1,6,5.99,30,14.5,31.06,26.91,5.52,31.91,10,400.44,0.0602,-0.6575,0.7572,-1.2078,-0.1744,12,0.32,30,0,0.3647,1,1.1598,"Studio City - Ventura & Coldwater Cyn Av",519,90010,34.0493,-118.081,14.6,6,34.146,-118.412,0.22331,0.45521,"S313",400.44,0.32,34.146,-118.412,923.134012366078,3787.86578958533,3,0.18295865263133,954.205896173244,3778.55509276384
42,100,695,113,1,1,6,5.99,30,14.5,34.99,30.33,13.6,34.15,10,320.93,0.0521,-0.5059,0.7067,-1.2463,-0.1744,25,0.36,30,0,0.4389,1,1.0824,"Sun Valley - Roscoe Blvd",515,90006,34.0493,-118.081,14.6,6,34.221,-118.421,0.20052,0.60725,"S314",320.93,0.36,34.221,-118.421,921.92866161195,3796.15436223675,3,4.74926982077174,954.205896173244,3778.55509276384
42,101,696,113,1,1,6,5.99,30,14.5,31.93,26.71,16,29.42,10,393.67,0.0582,-1.2175,-0.2467,-1.2317,-0.1744,33,0.4,30,0,0.372,1,-0.3779,"Sun Valley - Sunland",517,90008,34.0493,-118.081,14.6,6,34.235,-118.366,0.078416,0.13228,"S315",393.67,0.4,34.235,-118.366,926.929793014171,3797.93841925952,9,0.549429768375011,954.205896173244,3778.55509276384
42,102,697,113,1,1,6,5.99,30,14.5,30.37,24.82,20.72,24.36,10,402.16,0.0619,-1.6265,-0.3278,-1.1841,-0.1744,47,0.1,30,0,0.3628,1,-0.5021,"Sunland - Mt Gleason Ave",553,90058,34.0493,-118.081,14.6,6,34.269,-118.303,0.077465,0.21278,"S316",402.16,0.1,34.269,-118.303,932.564181279687,3801.979805025,9,3.77932196151113,954.205896173244,3778.55509276384
42,103,698,113,1,1,6,5.99,30,14.5,42.34,38.55,24.76,38.22,10,440.54,0.0409,-1.7502,-0.2141,-1.6381,-0.1744,37,0.1,30,0,0.3187,1,-0.328,"Sylmar - Olive View Med FF",344,24514,34.0493,-118.081,14.6,6,34.326,-118.444,0.056201,0.16994,"S317",440.54,0.1,34.326,-118.444,919.284612238091,3807.71533037098,9,0.514372873886074,954.205896173244,3778.55509276384
42,104,699,113,1,1,6,5.99,30,14.5,40.61,36.64,22.67,37.21,10,348.87,0.0432,-2.0733,-0.5452,-1.461,-0.1744,35,0.1,30,0,0.4161,1,-0.8351,"Sylmar - Sayre St",510,90001,34.0493,-118.081,14.6,6,34.306,-118.437,0.046336,0.13771,"S318",348.87,0.1,34.306,-118.437,920.029210682733,3805.52406913397,3,0.746178530130172,954.205896173244,3778.55509276384
42,105,700,113,1,1,6,5.99,30,14.5,41.22,38.24,5.15,43.24,10,257.21,0.0423,-0.1261,1.9319,-1.3437,-0.1744,8,0.32,30,0,0.4763,1,2.959,"Tarzana - Cedar Hill",340,24436,34.0493,-118.081,14.6,6,34.16,-118.534,0.58926,0.86322,"S319",257.21,0.32,34.16,-118.534,911.805673334943,3788.91944262774,3,0.146783680421362,954.205896173244,3778.55509276384
42,106,701,113,1,1,6,5.99,30,14.5,40.36,37.67,-37.17,11.09,10,260.6,0.0435,-2.2736,-0.6958,-1.3248,-0.1744,-80.69,0.32,30,0,0.4748,1,-1.0658,"Terminal Island - S Seaside",575,90082,34.0493,-118.081,14.6,6,33.736,-118.269,0.044418,0.10108,"S320",260.6,0.32,33.736,-118.269,938.436692244182,3742.95137862561,1,0.468818608232955,954.205896173244,3778.55509276384
42,107,702,113,1,1,6,5.99,30,14.5,36.11,33.07,-29.12,20.66,10,289.04,0.0501,-2.4753,-0.9169,-1.2396,-0.1744,-61.73,0.32,30,0,0.4601,1,-1.4043,"Torrance - W 226th St",537,90038,34.0493,-118.081,14.6,6,33.822,-118.356,0.038962,0.10342,"S321",289.04,0.32,33.822,-118.356,929.936065644309,3752.13110927243,1,0.611594843039403,954.205896173244,3778.55509276384
42,108,703,113,1,1,6,5.99,30,14.5,50.39,47.25,44.79,30.79,10,996.43,0.0325,-1.8769,0.5826,-2.4176,-0.1744,60,0.0108,30,0,0.0091,1,0.8923,"Vasquez Rocks Park",313,24047,34.0493,-118.081,14.6,6,34.492,-118.327,0.065016,0.13513,"S322",996.43,0.0108,34.492,-118.327,929.209359202577,3826.63504176706,9,21.6561190394187,954.205896173244,3778.55509276384
42,109,704,113,1,1,6,5.99,30,14.5,34.34,31.13,-20.6,-28.34,10,416.93,0.0533,-1.9049,-0.4303,-1.3452,-0.1744,-138.57,0.32,30,0,0.3463,1,-0.6591,"Villa Park - Serrano Ave",583,90090,34.0493,-118.081,14.6,6,33.821,-117.818,0.058805,0.19022,"S323",416.93,0.32,33.821,-117.818,979.798312586285,3754.40557955498,9,0.510091000848359,954.205896173244,3778.55509276384
42,110,705,113,1,1,6,5.99,30,14.5,16.32,6.42,3.85,-11.42,10,334.69,0.1243,-0.6394,-0.3356,-0.5232,-0.1744,149,0.34,30,0,0.4281,1,-0.514,"West Covina - S Orange Ave",565,90071,34.0493,-118.081,14.6,6,34.064,-117.952,0.15443,0.34783,"S324",334.69,0.34,34.064,-117.952,966.048033960579,3780.76951189694,4,3.09386738737235,954.205896173244,3778.55509276384
42,111,706,113,1,1,6,5.99,30,14.5,14.73,2.6,-2.6,-3.1,10,298.68,0.1382,-0.1991,0.097,-0.4399,-0.1744,-90,0.4,30,0,0.4542,1,0.1486,"Whittier Narrows Dam upstream",97,289,34.0493,-118.081,14.6,6,34.02,-118.053,0.25783,0.52431,"S25",298.68,0.4,34.02,-118.053,956.951345678403,3775.4268605099,9,0.408876109750224,954.205896173244,3778.55509276384
43,1,707,114,1,1,5,5.27,40,10.98,12.01,3.63,4.87,-1.74,4.1,549.75,0.0909,-0.737,0.3635,-1.3296,0.1639,90,0.32,70,0,0.1914,1,0.5035,"Alhambra - Fremont School",342,24461,34.06,-118.1035,13.3,3.6,34.07,-118.15,0.19436,0.46881,"S224",549.75,0.32,34.07,-118.15,947.71967397188,3780.54823760313,9,0.450730331938614,952.069417247499,3779.64314524285
43,2,708,114,1,1,5,5.27,40,10.98,15.38,10.77,-2.1,-12.59,4.1,375.16,0.068,-0.1044,0.6506,-1.4299,0.1639,-168.78,0.32,70,0,0.3912,1,0.9012,"Altadena - Eaton Canyon",339,24402,34.06,-118.1035,13.3,3.6,34.177,-118.096,0.22134,0.37546,"S225",375.16,0.32,34.177,-118.096,952.137281552686,3792.6671296679,4,0.318539074852186,952.069417247499,3779.64314524285
43,3,709,114,1,1,5,5.27,40,10.98,18.66,14.37,9.25,13.95,4.1,271.9,0.0535,-1.8387,-0.5414,-1.5159,0.1639,37.78,0.88,70,0,0.4694,1,-0.7499,"Downey - Co Maint Bldg",288,14368,34.06,-118.1035,13.3,3.6,33.924,-118.167,0.059673,0.14669,"S248",271.9,0.88,33.924,-118.167,946.915331129906,3764.26380822066,1,10.603517941671,952.069417247499,3779.64314524285
43,4,710,114,1,1,5,5.27,40,10.98,25.72,22.21,19.8,14.19,4.1,316.02,0.0351,-1.5428,0.5922,-1.957,0.1639,58.36,0.58,70,0,0.4425,1,0.8203,"Inglewood - Union Oil",285,14196,34.06,-118.1035,13.3,3.6,33.905,-118.279,0.11568,0.20676,"S257",316.02,0.58,33.905,-118.279,936.646717038304,3761.67097987571,1,12.2733566723536,952.069417247499,3779.64314524285
43,5,711,114,1,1,5,5.27,40,10.98,22.98,19.12,17.6,11.88,4.1,301,0.0408,-1.5034,0.5877,-1.7939,0.1639,60.7,0.74,70,0,0.4527,1,0.8141,"LA - 116th St School",290,14403,34.06,-118.1035,13.3,3.6,33.929,-118.26,0.13897,0.23603,"S258",301,0.74,33.929,-118.26,938.282270091887,3764.41666313217,1,10.8991543074808,952.069417247499,3779.64314524285
43,6,712,114,1,1,5,5.27,40,10.98,27.5,23.98,25.22,0.74,4.1,297.07,0.0321,-2.066,0.4464,-2.0107,0.1639,90,0.32,70,0,0.4552,1,0.6183,"LA - Baldwin Hills",318,24157,34.06,-118.1035,13.3,3.6,34.009,-118.361,0.097625,0.17176,"S259",297.074999789625,0.32,34.009,-118.361,928.532859759514,3772.86988559313,1,8.14038325394554,952.069417247499,3779.64314524285
43,7,713,114,1,1,5,5.27,40,10.98,24.76,20.99,21.63,-6.91,4.1,316.46,0.037,-1.7786,0.0496,-1.9097,0.1639,102.88,0.32,70,0,0.4421,1,0.0688,"LA - Hollywood Stor FF",326,24303,34.06,-118.1035,13.3,3.6,34.09,-118.339,0.072352,0.12237,"S11",316.46,0.32,34.09,-118.339,930.156315689499,3781.95476635018,1,0.942811477833974,952.069417247499,3779.64314524285
43,8,714,114,1,1,5,5.27,40,10.98,13.62,6.82,8.05,1.53,4.1,349.43,0.0786,0.0499,0.8562,-1.2748,0.1639,90,0.38,70,0,0.4156,1,1.1861,"LA - Obregon Park",337,24400,34.06,-118.1035,13.3,3.6,34.037,-118.178,0.32222,0.88736,"S269",349.419999713806,0.38,34.037,-118.178,945.305688424754,3776.76174946919,9,1.86929405994365,952.069417247499,3779.64314524285
43,9,715,114,1,1,5,5.27,40,10.98,19.78,16.45,-6.54,-17.11,4.1,680.37,0.0496,-0.4831,0.7848,-2.0552,0.1639,-156.58,-999,70,0,0.0841,1,1.087,"Mt Wilson - CIT Seis Sta",336,24399,34.06,-118.1035,13.3,3.6,34.224,-118.057,0.15001,0.30755,"S291",680.37,-999,34.224,-118.057,955.482584944131,3798.05991323133,9,5.73962740455752,952.069417247499,3779.64314524285
43,10,716,114,1,1,5,5.27,40,10.98,12,4.42,2.19,-6.34,4.1,379.43,0.091,-0.8324,0.149,-1.1759,0.1639,153.15,0.32,70,0,0.3869,1,0.2064,"San Marino - SW Academy",338,24401,34.06,-118.1035,13.3,3.6,34.115,-118.13,0.17794,0.44198,"S310",379.43,0.32,34.115,-118.13,949.32897751427,3785.63258625348,4,2.30680529237886,952.069417247499,3779.64314524285
43,11,717,114,1,1,5,5.27,40,10.98,42.45,39.95,37.94,-17.69,4.1,257.21,0.0173,-1.3629,0.8094,-2.5278,0.1639,112.6,0.32,70,0,0.4763,1,1.1212,"Tarzana - Cedar Hill",340,24436,34.06,-118.1035,13.3,3.6,34.16,-118.534,0.080393,0.16138,"S319",257.21,0.32,34.16,-118.534,911.805673334943,3788.91944262774,3,0.146783680421362,952.069417247499,3779.64314524285
43,12,3684,114,1,1,5,5.27,40,10.98,30.42,28.37,-8.35,29.12,4.1,269.29,0.0279,-2.7795,-0.7028,-2.091,0.1639,-17.11,0.62,70,0,0.4707,1,-0.9736,"Anaheim - W Ball Rd",581,90088,34.06,-118.1035,13.3,3.6,33.817,-117.951,0.027998,0.072231,"S226",269.29,0.62,33.817,-117.951,967.493416737382,3753.34720069215,1,9.66633233855313,952.069417247499,3779.64314524285
43,13,3685,114,1,1,5,5.27,40,10.98,13.58,7.99,-6.63,-6.48,4.1,367.53,0.0789,-0.8652,0.2281,-1.2896,0.1639,-123.92,0.32,70,0,0.3988,1,0.3159,"Arcadia - Campus Dr",585,90093,34.06,-118.1035,13.3,3.6,34.13,-118.036,0.16922,0.39463,"S227",367.53,0.32,34.13,-118.036,957.928718896948,3787.71697978137,4,2.48413362174935,952.069417247499,3779.64314524285
43,14,3686,114,1,1,5,5.27,40,10.98,16.03,11.68,-11.68,-2.18,4.1,544.68,0.0646,-1.9221,-0.6222,-1.6588,0.1639,-90.91,0.38,70,0,0.1968,1,-0.8619,"Baldwin Park - N Holly",563,90069,34.06,-118.1035,13.3,3.6,34.1,-117.974,0.05244,0.12129,"S229",544.68,0.38,34.1,-117.974,963.81795723836,3784.6665483875,4,4.59659025913156,952.069417247499,3779.64314524285
43,15,3687,114,1,1,5,5.27,40,10.98,15.37,9.92,7.63,9.61,4.1,267.13,0.068,-1.7574,-0.0399,-1.3142,0.1639,45.2,0.78,70,0,0.4718,1,-0.0552,"Bell Gardens - Jaboneria",586,90094,34.06,-118.1035,13.3,3.6,33.965,-118.158,0.12133,0.2264,"S230",267.13,0.78,33.965,-118.158,947.532999583355,3768.85525906458,1,6.21679985688093,952.069417247499,3779.64314524285
43,16,3688,114,1,1,5,5.27,40,10.98,30.74,27.56,26.89,-12.03,4.1,545.66,0.0275,-2.0973,-0.1763,-2.5214,0.1639,110.53,0.1,70,0,0.1957,1,-0.2441,"Beverly Hills - 12520 Mulhol",523,90014,34.06,-118.1035,13.3,3.6,34.127,-118.405,0.034721,0.07181,"S231",545.66,0.1,34.127,-118.405,923.875242044317,3785.78566149036,9,1.96479294592537,952.069417247499,3779.64314524285
43,17,3689,114,1,1,5,5.27,40,10.98,27.94,25.36,7.48,-26.58,4.1,550.11,0.0314,-0.6585,1.4144,-2.3909,0.1639,163.08,0.04,70,0,0.191,1,1.9592,"Big Tujunga, Angeles Nat F",556,90061,34.06,-118.1035,13.3,3.6,34.286,-118.225,0.194,0.36845,"S233",550.11,0.04,34.286,-118.225,939.664761319895,3804.2026146319,9,11.0623224723706,952.069417247499,3779.64314524285
43,18,3690,114,1,1,5,5.27,40,10.98,25.43,22.93,-15.25,19.14,4.1,322.75,0.0357,-2.3967,0.0903,-1.9534,0.1639,-41.67,0.52,70,0,0.4375,1,0.1251,"Brea - S Flower Av",580,90087,34.06,-118.1035,13.3,3.6,33.916,-117.896,0.073289,0.13266,"S234",322.75,0.52,33.916,-117.896,972.043875215493,3764.59252178888,1,1.02351914686886,952.069417247499,3779.64314524285
43,19,3691,114,1,1,5,5.27,40,10.98,25.42,22.93,-2.82,24.77,4.1,270.96,0.0357,-1.2947,0.7112,-1.8675,0.1639,-7.07,0.76,70,0,0.4699,1,0.9852,"Buena Park - La Palma",579,90086,34.06,-118.1035,13.3,3.6,33.847,-118.018,0.14417,0.41083,"S325",270.96,0.76,33.847,-118.018,961.122107328497,3756.37495438366,1,11.1239684314248,952.069417247499,3779.64314524285
