"i","j","recID","eqid","region","SOF","magBin","mag","rake","ZTOR","Rrup","RJB","RX","RY","FLen","VS30","rockPGA","lnY","intra.Resid","Median","eventTerm","srcSiteA","z1","dip","Z1_1D","Z1_Ref","iregion.i.","epsilon_within","Station.Name","Station.Sequence.Number","Station.ID..No.","Hypocenter.Latitude..deg.","Hypocenter.Longitude..deg.","Hypocenter.Depth..km.","Fault.Rupture.Width..km.","Station.Latitude","Station.Longitude","PGA..g.","T0.200S","STATID","VS30_gmean","Z1_mean","Lat_stat","Lon_stat","X_stat","Y_stat","Basin_ID","D_basin","X_eq","Y_eq"
42,15,603,113,1,1,6,5.99,30,14.5,54.74,52.76,1.54,57.76,10,403.72,0.029,-2.141,-0.2718,-1.9404,-0.1744,2,0.1,30,0,0.3611,1,-0.4164,"Calabasas - N Las Virg",547,90052,34.0493,-118.081,14.6,6,34.15,-118.696,0.039193,0.088666,"S238",403.72,0.1,34.15,-118.696,896.904069798417,3787.1658104512,9,5.39594472746949,954.205896173244,3778.55509276384
42,16,604,113,1,1,6,5.99,30,14.5,48.96,45.98,9.73,50.75,10,267.49,0.0337,-1.146,0.6418,-1.5676,-0.1744,12,0.38,30,0,0.4716,1,0.9829,"Canoga Park - Topanga Can",548,90053,34.0493,-118.081,14.6,6,34.212,-118.606,0.13262,0.29936,"S239",267.49,0.38,34.212,-118.606,904.912527921472,3794.40254005379,3,1.03540168383237,954.205896173244,3778.55509276384
42,17,605,113,1,1,6,5.99,30,14.5,48.18,44.88,35.24,38.35,10,325.6,0.0345,-1.5411,0.5289,-1.6438,-0.1744,47,0.32,30,0,0.4353,1,0.8102,"Canyon Country - W Lost Cany",552,90057,34.0493,-118.081,14.6,6,34.419,-118.426,0.11165,0.1723,"S240",325.6,0.32,34.419,-118.426,920.476101801113,3818.114244021,9,10.9408300198556,954.205896173244,3778.55509276384
42,18,606,113,1,1,6,5.99,30,14.5,26.82,22.57,-10.95,-24.73,10,235,0.0717,-0.8099,0.2297,-0.8911,-0.1744,-150.98,0.36,30,0,0.4849,1,0.3517,"Carbon Canyon Dam",71,108,34.0493,-118.081,14.6,6,33.9121,-117.838,0.17949,0.70159,"S6",235,0.36,33.912,-117.838,977.435872022373,3764.41747537246,9,1.98429789416711,954.205896173244,3778.55509276384
42,19,607,113,1,1,6,5.99,30,14.5,33.19,29.85,-28.86,12.64,10,305.14,0.0556,-1.764,-0.7972,-1.1676,-0.1744,-75.17,0.42,30,0,0.45,1,-1.2211,"Carson - Catskill Ave",538,90040,34.0493,-118.081,14.6,6,33.812,-118.27,0.047487,0.094651,"S241",305.14,0.42,33.812,-118.27,937.955824420258,3751.384571162,1,4.10084191001566,954.205896173244,3778.55509276384
42,20,608,113,1,1,6,5.99,30,14.5,30.03,26.3,-25.75,10.37,10,160.58,0.0627,-1.3672,-0.1814,-0.9663,-0.1744,-78.23,0.52,30,0,0.501,1,-0.2778,"Carson - Water St",574,90081,34.0493,-118.081,14.6,6,33.836,-118.24,0.11267,0.23005,"S242",160.58,0.52,33.836,-118.24,940.612488886356,3754.1775010889,1,7.92157665882667,954.205896173244,3778.55509276384
42,21,609,113,1,1,6,5.99,30,14.5,64.96,62.56,36.15,59.36,10,421.05,0.0227,-2.5478,-0.0502,-2.2224,-0.1744,34,0.32,30,0,0.3415,1,-0.0769,"Castaic - Hasley Canyon",322,24277,34.0493,-118.081,14.6,6,34.459,-118.65,0.037848,0.12049,"S243",421.074999257852,0.32,34.459,-118.65,899.678612233199,3821.64538570963,9,21.7389485881107,954.205896173244,3778.55509276384
42,23,611,113,1,1,6,5.99,30,14.5,23.37,18.32,-18.14,7.57,10,266.9,0.084,-0.1461,0.6905,-0.7914,-0.1744,-81.94,0.84,30,0,0.4719,1,1.0576,"Compton - Castlegate St",571,90078,34.0493,-118.081,14.6,6,33.899,-118.196,0.32104,0.57741,"S244",266.9,0.84,33.899,-118.196,944.361411685043,3761.36191987755,1,13.5039957703841,954.205896173244,3778.55509276384
42,24,612,113,1,1,6,5.99,30,14.5,20.91,13.58,6.69,-18.49,10,346.62,0.0951,-1.9302,-0.9134,-0.7446,-0.1744,154,0.32,30,0,0.418,1,-1.399,"Covina - S Grand Ave",562,90068,34.0493,-118.081,14.6,6,34.078,-117.871,0.066502,0.13271,"S245",346.62,0.32,34.078,-117.871,973.455465068024,3782.69751252934,9,0.79784079079417,954.205896173244,3778.55509276384
42,25,613,113,1,1,6,5.99,30,14.5,18.59,9.49,6.97,-14.33,10,324.79,0.1082,-1.2425,-0.6173,-0.6268,-0.1744,143,0.32,30,0,0.4359,1,-0.9454,"Covina - W Badillo",564,90070,34.0493,-118.081,14.6,6,34.087,-117.915,0.1036,0.26654,"S246",324.79,0.32,34.087,-117.915,969.340006351637,3783.49330191198,4,3.22440894948384,954.205896173244,3778.55509276384
42,26,614,113,1,1,6,5.99,30,14.5,20.79,14.9,-14.9,2.61,10,245.06,0.0957,-0.2146,0.5619,-0.6904,-0.1744,-90,0.84,30,0,0.4813,1,0.8606,"Downey - Birchdale",572,90079,34.0493,-118.081,14.6,6,33.92,-118.137,0.31881,0.67492,"S247",245.06,0.84,33.92,-118.137,949.71308395691,3763.95113274995,1,10.4896395129194,954.205896173244,3778.55509276384
42,27,615,113,1,1,6,5.99,30,14.5,20.82,14.95,-14.94,5.41,10,271.9,0.0956,-1.1086,0.0219,-0.6978,-0.1744,-88.42,0.88,30,0,0.4694,1,0.0336,"Downey - Co Maint Bldg",288,14368,34.0493,-118.081,14.6,6,33.924,-118.167,0.18366,0.38582,"S248",271.9,0.88,33.924,-118.167,946.915331129906,3764.26380822066,1,10.603517941671,954.205896173244,3778.55509276384
42,28,616,113,1,1,6,5.99,30,14.5,15.67,0.75,5.95,-4.77,10,290.63,0.1296,-0.7942,-0.0706,-0.4843,-0.1744,90,0.38,30,0,0.4592,1,-0.1082,"El Monte - Fairview Av",560,90066,34.0493,-118.081,14.6,6,34.093,-118.019,0.2121,0.52755,"S249",290.63,0.38,34.093,-118.019,959.699243525594,3783.68526173323,4,6.43382152094224,954.205896173244,3778.55509276384
42,29,617,113,1,1,6,5.99,30,14.5,37.92,35.04,-13.56,-37.31,10,367.54,0.0471,-1.8447,0.0168,-1.4026,-0.1744,-157.23,-999,30,0,0.3988,1,0.0257,"Featherly Park - Maint",274,13122,34.0493,-118.081,14.6,6,33.869,-117.709,0.087174,0.25232,"S250",367.54,-999,33.869,-117.709,989.626455739907,3760.25164904744,9,7.35951926249234,954.205896173244,3778.55509276384
42,30,618,113,1,1,6,5.99,30,14.5,39.45,36.69,-33.71,-19.49,10,270.54,0.0448,-1.7567,-0.3324,-1.3134,-0.1744,-113.27,0.54,30,0,0.4701,1,-0.5091,"Fountain Valley - Euclid",511,90002,34.0493,-118.081,14.6,6,33.719,-117.937,0.064829,0.2141,"S251",270.54,0.54,33.719,-117.937,969.326876583661,3742.5291499938,1,10.0014617726958,954.205896173244,3778.55509276384
42,31,619,113,1,1,6,5.99,30,14.5,14.5,0.36,-0.36,2.82,10,468.18,0.1404,0.2599,0.6727,-0.4869,-0.1744,-90,0.44,30,0,0.2856,1,1.0303,"Garvey Res. - Control Bldg",113,709,34.0493,-118.081,14.6,6,34.049,-118.112,0.43646,1.3429,"S252",468.186666571738,0.44,34.049,-118.112,951.342430890802,3778.38415631056,9,1.05846701594428,954.205896173244,3778.55509276384
42,32,620,113,1,1,6,5.99,30,14.5,22.82,14.68,14.29,16.52,10,371.07,0.0863,-0.4269,0.4282,-0.8481,-0.1744,51,0.1,30,0,0.3953,1,0.6558,"Glendale - Las Palmas",558,90063,34.0493,-118.081,14.6,6,34.2,-118.231,0.23146,0.6706,"S253",371.07,0.1,34.2,-118.231,939.560078220891,3794.62853508057,9,4.18708525244312,954.205896173244,3778.55509276384
42,33,621,113,1,1,6,5.99,30,14.5,22.11,13.67,12.96,-16.25,10,362.31,0.0894,-1.2125,-0.4149,-0.8097,-0.1744,131,0.32,30,0,0.4038,1,-0.6355,"Glendora - N Oakbank",559,90065,34.0493,-118.081,14.6,6,34.137,-117.883,0.10203,0.26564,"S254",362.31,0.32,34.137,-117.883,972.017661334788,3789.19346787798,4,0.41156968037782,954.205896173244,3778.55509276384
42,34,622,113,1,1,6,5.99,30,14.5,17.39,9.6,-4.11,-13.67,10,337,0.1162,-0.6148,-0.0103,-0.5763,-0.1744,-154.62,0.32,30,0,0.4262,1,-0.0158,"Hacienda Heights - Colima",567,90073,34.0493,-118.081,14.6,6,33.99,-117.943,0.19588,0.37271,"S255",337,0.32,33.99,-117.943,967.286653303196,3772.59367570811,9,4.49961962027247,954.205896173244,3778.55509276384
42,35,624,113,1,1,6,5.99,30,14.5,44.58,42.16,-40.92,-15.13,10,315.52,0.0382,-2.1855,-0.4884,-1.528,-0.1744,-103.91,0.4,30,0,0.4428,1,-0.7481,"Huntington Beach - Lake St",278,13197,34.0493,-118.081,14.6,6,33.662,-117.997,0.044561,0.11599,"S256",315.513333192467,0.4,33.662,-117.997,964.066894362711,3735.92791059247,1,1.56962021588596,954.205896173244,3778.55509276384
42,36,625,113,1,1,6,5.99,30,14.5,25.86,21.41,-18.8,15.23,10,316.02,0.0748,-0.0376,0.5726,-0.9217,-0.1744,-61.44,0.58,30,0,0.4425,1,0.8771,"Inglewood - Union Oil",285,14196,34.0493,-118.081,14.6,6,33.905,-118.279,0.24541,0.62795,"S257",316.02,0.58,33.905,-118.279,936.646717038304,3761.67097987571,1,12.2733566723536,954.205896173244,3778.55509276384
42,37,626,113,1,1,6,5.99,30,14.5,23.29,18.23,-15.87,13.97,10,301,0.0843,0.0266,0.6757,-0.8103,-0.1744,-60.54,0.74,30,0,0.4527,1,1.0349,"LA - 116th St School",290,14403,34.0493,-118.081,14.6,6,33.929,-118.26,0.30671,1.1541,"S258",301,0.74,33.929,-118.26,938.282270091887,3764.41666313217,1,10.8991543074808,954.205896173244,3778.55509276384
42,38,627,113,1,1,6,5.99,30,14.5,25.94,21.51,-8.7,24.67,10,297.07,0.0745,-0.7885,0.0985,-0.9076,-0.1744,-23.85,0.32,30,0,0.4552,1,0.1508,"LA - Baldwin Hills",318,24157,34.0493,-118.081,14.6,6,34.009,-118.361,0.15487,0.41898,"S259",297.074999789625,0.32,34.009,-118.361,928.532859759514,3772.86988559313,1,8.14038325394554,954.205896173244,3778.55509276384
42,39,628,113,1,1,6,5.99,30,14.5,31.53,28,-10.68,30.88,10,321.91,0.0591,-1.912,-0.5946,-1.1323,-0.1744,-22.42,0.58,30,0,0.4381,1,-0.9108,"LA - Centinela St",549,90054,34.0493,-118.081,14.6,6,34.001,-118.431,0.058104,0.1458,"S260",321.91,0.58,34.001,-118.431,922.10102393146,3771.69030529565,1,4.69714845153134,954.205896173244,3778.55509276384
42,40,629,113,1,1,6,5.99,30,14.5,29.89,26.14,-3.67,30.88,10,277.98,0.0631,-1.4179,-0.2839,-1.0274,-0.1744,-8.08,0.32,30,0,0.4663,1,-0.4348,"LA - Century City CC North",333,24389,34.0493,-118.081,14.6,6,34.063,-118.418,0.09187,0.38984,"S261",277.98,0.32,34.063,-118.418,922.994264728899,3778.62683394087,1,0.931505340527059,954.205896173244,3778.55509276384
42,41,630,113,1,1,6,5.99,30,14.5,29.73,25.95,-3.75,30.68,10,277.98,0.0635,-1.8261,-0.6636,-1.0221,-0.1744,-8.32,0.34,30,0,0.4663,1,-1.0164,"LA - Century City CC South",334,24390,34.0493,-118.081,14.6,6,34.062,-118.416,0.063378,0.20816,"S262",277.98,0.34,34.062,-118.416,923.184030634299,3778.52411811134,1,1.1470540376171,954.205896173244,3778.55509276384
42,42,631,113,1,1,6,5.99,30,14.5,35.23,32.11,-2.14,37.04,10,740.05,0.0516,-2.8324,-0.8748,-1.7059,-0.1744,-3.82,0.32,30,0,0.0555,1,-1.3398,"LA - Chalon Rd",524,90015,34.0493,-118.081,14.6,6,34.086,-118.481,0.029336,0.06094,"S263",740.05,0.32,34.086,-118.481,917.06071362519,3780.92056014608,9,3.43725692008375,954.205896173244,3778.55509276384
42,43,632,113,1,1,6,5.99,30,14.5,16.97,8.56,2.16,13.56,10,366.71,0.1192,-0.9696,-0.3494,-0.57,-0.1744,14,0.32,30,0,0.3996,1,-0.5352,"LA - Cypress Ave",535,90033,34.0493,-118.081,14.6,6,34.088,-118.222,0.14255,0.23292,"S264",366.71,0.32,34.088,-118.222,940.973702804698,3782.23280225593,9,5.07574725654436,954.205896173244,3778.55509276384
42,44,634,113,1,1,6,5.99,30,14.5,18.86,11.07,4.77,16.07,10,329.06,0.1065,-0.3568,0.074,-0.6413,-0.1744,23,0.26,30,0,0.4326,1,0.1134,"LA - Fletcher Dr",536,90034,34.0493,-118.081,14.6,6,34.115,-118.244,0.20296,0.66213,"S265",329.06,0.26,34.115,-118.244,938.801689319887,3785.13542863915,9,2.24375618216854,954.205896173244,3778.55509276384
42,45,635,113,1,1,6,5.99,30,14.5,24.08,19.22,0.53,24.22,10,316.46,0.0812,-0.8629,0.0341,-0.8534,-0.1744,2,0.32,30,0,0.4421,1,0.0522,"LA - Hollywood Stor FF",326,24303,34.0493,-118.081,14.6,6,34.09,-118.339,0.15209,0.45325,"S11",316.46,0.32,34.09,-118.339,930.156315689499,3781.95476635018,1,0.942811477833974,954.205896173244,3778.55509276384
42,46,636,113,1,1,6,5.99,30,14.5,31.48,27.94,-1.09,32.91,10,255,0.0593,-1.5887,-0.7466,-1.0548,-0.1744,-2.24,0.32,30,0,0.4773,1,-1.1435,"LA - N Faring Rd",525,90016,34.0493,-118.081,14.6,6,34.089,-118.435,0.055826,0.13958,"S266",255,0.32,34.089,-118.435,921.294515007443,3781.44275313469,9,2.07256141372418,954.205896173244,3778.55509276384
42,47,637,113,1,1,6,5.99,30,14.5,16.53,6,5.21,11,10,364.91,0.1226,-1.0347,-0.2812,-0.5465,-0.1744,41,0.32,30,0,0.4013,1,-0.4307,"LA - N Figueroa St",534,90032,34.0493,-118.081,14.6,6,34.111,-118.189,0.15745,0.29251,"S267",364.91,0.32,34.111,-118.189,943.901525711786,3784.92970056109,9,3.03642721636167,954.205896173244,3778.55509276384
42,48,638,113,1,1,6,5.99,30,14.5,21.11,15.34,0.3,20.34,10,315.06,0.0941,-0.1906,0.2385,-0.7316,-0.1744,1,0.32,30,0,0.4432,1,0.3653,"LA - N Westmoreland",530,90021,34.0493,-118.081,14.6,6,34.082,-118.298,0.21335,0.59711,"S268",315.06,0.32,34.082,-118.298,933.98424278343,3781.24043410878,1,0.443928139738118,954.205896173244,3778.55509276384
42,49,639,113,1,1,6,5.99,30,14.5,15.18,4.5,-2.73,8.58,10,349.43,0.134,0.1296,0.5839,-0.4698,-0.1744,-37.31,0.38,30,0,0.4156,1,0.8943,"LA - Obregon Park",337,24400,34.0493,-118.081,14.6,6,34.037,-118.178,0.40647,1.4609,"S269",349.419999713806,0.38,34.037,-118.178,945.305688424754,3776.76174946919,9,1.86929405994365,954.205896173244,3778.55509276384
42,50,640,113,1,1,6,5.99,30,14.5,20.48,14.46,-7.84,17.15,10,285.28,0.0973,-0.5945,0.0499,-0.6896,-0.1744,-32.85,0.72,30,0,0.4623,1,0.0765,"LA - S Grand Ave",531,90022,34.0493,-118.081,14.6,6,34.005,-118.279,0.18717,0.57491,"S270",285.28,0.72,34.005,-118.279,936.134610237232,3772.77294439047,1,4.02513021406878,954.205896173244,3778.55509276384
42,51,641,113,1,1,6,5.99,30,14.5,24.99,20.35,-4.55,24.83,10,308.71,0.0778,-0.5502,-0.0302,-0.8821,-0.1744,-12.91,0.5,30,0,0.4476,1,-0.0462,"LA - Saturn St",584,90091,34.0493,-118.081,14.6,6,34.046,-118.355,0.13776,0.31017,"S271",308.71,0.5,34.046,-118.355,928.900814422665,3777.00265379795,1,4.47176488577768,954.205896173244,3778.55509276384
42,52,642,113,1,1,6,5.99,30,14.5,22.17,16.77,-11.18,17.5,10,241.41,0.0891,-0.883,-0.0614,-0.7388,-0.1744,-41.81,0.84,30,0,0.4826,1,-0.094,"LA - W 70th St",532,90023,34.0493,-118.081,14.6,6,33.976,-118.289,0.16134,0.56282,"S272",241.41,0.84,33.976,-118.289,935.358338118245,3769.51072658682,1,7.37783232870062,954.205896173244,3778.55509276384
42,53,643,113,1,1,6,5.99,30,14.5,27.64,23.4,2.51,28.4,10,1222.52,0.0692,-2.1396,-0.4366,-1.758,-0.1744,6,0.0037,30,0,0.0022,1,-0.6686,"LA - Wonderland Ave",526,90017,34.0493,-118.081,14.6,6,34.114,-118.38,0.046453,0.1085,"S273",1222.52,0.0037,34.114,-118.38,926.248695143776,3784.44682657302,9,2.51876362551997,954.205896173244,3778.55509276384
42,54,644,113,1,1,6,5.99,30,14.5,37.05,34.1,-34.1,5.15,10,230,0.0485,-1.9181,-0.5767,-1.1901,-0.1744,-89.75,0.42,30,0,0.4866,1,-0.8833,"LB - Harbor Admin FF",289,14395,34.0493,-118.081,14.6,6,33.754,-118.2,0.057474,0.11812,"S274",230,0.42,33.754,-118.2,944.743640014718,3745.24612464596,1,2.43549423020728,954.205896173244,3778.55509276384
42,55,645,113,1,1,6,5.99,30,14.5,24.54,19.8,-19.8,5.4,10,344.72,0.0794,-0.8256,0.405,-0.8965,-0.1744,-88.83,0.82,30,0,0.4197,1,0.6203,"LB - Orange Ave",573,90080,34.0493,-118.081,14.6,6,33.881,-118.176,0.21472,0.50823,"S275",344.704210429884,0.82,33.881,-118.176,946.307079268397,3759.45043440394,1,14.098768477339,954.205896173244,3778.55509276384
42,56,646,113,1,1,6,5.99,30,14.5,28.56,24.61,-24.58,6.25,10,302.73,0.0666,-1.021,0.3538,-1.0075,-0.1744,-87.08,0.58,30,0,0.4516,1,0.542,"LB - Rancho Los Cerritos",287,14242,34.0493,-118.081,14.6,6,33.84,-118.194,0.17731,0.39241,"S276",302.719999669654,0.58,33.84,-118.194,944.853512546189,3754.82016419593,1,9.86751888283903,954.205896173244,3778.55509276384
42,57,647,113,1,1,6,5.99,30,14.5,33.68,30.4,-30.4,-0.49,10,282,0.0546,-2.1393,-0.623,-1.1549,-0.1744,-90,0.52,30,0,0.4641,1,-0.9542,"LB - Recreation Park",286,14241,34.0493,-118.081,14.6,6,33.778,-118.133,0.057336,0.15212,"S277",282,0.52,33.778,-118.133,950.831110779019,3748.20273702051,1,3.06440565350548,954.205896173244,3778.55509276384
42,58,648,113,1,1,6,5.99,30,14.5,26.04,19.28,18.1,19.33,10,411.55,0.0742,-1.0534,0.2014,-1.0235,-0.1744,52,0.1,30,0,0.3524,1,0.3084,"La Crescenta - New York",555,90060,34.0493,-118.081,14.6,6,34.238,-118.254,0.15394,0.31282,"S278",411.55,0.1,34.238,-118.254,937.241385214583,3798.74814065345,9,6.51237196747276,954.205896173244,3778.55509276384
42,59,649,113,1,1,6,5.99,30,14.5,20.28,14.17,-12.16,-12.29,10,338.27,0.0984,-0.9614,-0.1234,-0.7108,-0.1744,-120.94,0.56,30,0,0.4252,1,-0.189,"La Habra - Briarcliff",568,90074,34.0493,-118.081,14.6,6,33.921,-117.973,0.15402,0.38211,"S279",338.27,0.56,33.921,-117.973,964.888288988953,3764.79514177281,1,2.36491975104951,954.205896173244,3778.55509276384
42,60,650,113,1,1,6,5.99,30,14.5,17.75,10.24,0.23,-15.24,10,339.52,0.1137,-1.1585,-0.371,-0.5948,-0.1744,179,0.32,30,0,0.4241,1,-0.5682,"La Puente - Rimgrove Av",566,90072,34.0493,-118.081,14.6,6,34.026,-117.918,0.13673,0.3318,"S280",339.52,0.32,34.026,-117.918,969.400187079936,3776.70588470598,9,1.00226449745452,954.205896173244,3778.55509276384
42,62,652,113,1,1,6,5.99,30,14.5,26.68,22.4,-22.4,-2.28,10,267.35,0.0721,-0.5445,0.638,-0.9089,-0.1744,-90,0.82,30,0,0.4717,1,0.9771,"Lakewood - Del Amo Blvd",577,90084,34.0493,-118.081,14.6,6,33.846,-118.099,0.26631,0.46126,"S281",267.35,0.82,33.846,-118.099,953.623208296875,3755.90254165294,1,11.2486177971396,954.205896173244,3778.55509276384
42,64,654,113,1,1,6,5.99,30,14.5,30.04,26.31,-20.74,21.18,10,311.86,0.0627,-2.0245,-0.7583,-1.0692,-0.1744,-52.04,0.52,30,0,0.4454,1,-1.1614,"Lawndale - Osage Ave",540,90045,34.0493,-118.081,14.6,6,33.897,-118.346,0.055301,0.12249,"S283",311.86,0.52,33.897,-118.346,930.484980272532,3760.49917861374,1,6.76669571579872,954.205896173244,3778.55509276384
42,67,657,113,1,1,6,5.99,30,14.5,48.64,46.43,-9.08,50.53,10,578.11,0.034,-1.8696,0.1352,-1.992,-0.1744,-11.28,-999,30,0,0.1626,1,0.207,"Malibu - Las Flores Canyon",545,90050,34.0493,-118.081,14.6,6,34.045,-118.638,0.058824,0.14426,"S286",578.11,-999,34.045,-118.638,902.754902441136,3775.73848341657,9,11.7519455793409,954.205896173244,3778.55509276384
42,68,658,113,1,1,6,5.99,30,14.5,63.23,61.54,-15.1,64.66,10,349.54,0.0236,-2.2345,-0.0001,-2.0667,-0.1744,-14.2,-999,30,0,0.4155,1,-0.0002,"Malibu - Point Dume Sch",335,24396,34.0493,-118.081,14.6,6,34.013,-118.8,0.044519,0.11691,"S287",349.523999450673,-999,34.013,-118.8,887.932727357479,3771.55948486708,9,22.9530418527285,954.205896173244,3778.55509276384
42,69,659,113,1,1,6,5.99,30,14.5,62.07,60.35,-13.7,63.78,10,436.53,0.0242,-2.2987,-0.0702,-2.1749,-0.1744,-13.12,-999,30,0,0.3235,1,-0.1075,"Malibu - W Pacific Cst Hwy",546,90051,34.0493,-118.081,14.6,6,34.024,-118.788,0.03889,0.083586,"S288",436.53,-999,34.024,-118.788,888.991552629556,3772.82601501757,9,21.3046353730651,954.205896173244,3778.55509276384
42,70,661,113,1,1,6,5.99,30,14.5,36.79,32.36,37.52,6.5,10,569.84,0.0489,-1.0836,0.1702,-1.6033,-0.1744,88,-999,30,0,0.1707,1,0.2606,"Mill Creek, Angeles Nat For",557,90062,34.0493,-118.081,14.6,6,34.39,-118.08,0.087981,0.22809,"S289",569.84,-999,34.39,-118.08,952.466991597248,3816.38853531844,9,21.2004401354381,954.205896173244,3778.55509276384
42,71,662,113,1,1,6,5.99,30,14.5,74.69,72.62,13.84,77.11,10,341.58,0.0184,-2.1845,0.3012,-2.3137,-0.1744,11,0.32,30,0,0.4224,1,0.4613,"Moorpark - Fire Sta",325,24283,34.0493,-118.081,14.6,6,34.288,-118.881,0.047688,0.12236,"S290",341.58,0.32,34.288,-118.881,879.212369040369,3801.7764587573,9,11.5250900276144,954.205896173244,3778.55509276384
42,72,663,113,1,1,6,5.99,30,14.5,22.73,14.5,19.69,1.21,10,680.37,0.0867,-0.721,0.315,-1.114,-0.1744,90,-999,30,0,0.0841,1,0.4824,"Mt Wilson - CIT Seis Sta",336,24399,34.0493,-118.081,14.6,6,34.224,-118.057,0.15992,0.37353,"S291",680.37,-999,34.224,-118.057,955.482584944131,3798.05991323133,9,5.73962740455752,954.205896173244,3778.55509276384
42,73,664,113,1,1,6,5.99,30,14.5,33.11,28.37,10.78,32.82,10,326.47,0.0557,-1.2646,0.5322,-1.1914,-0.1744,21,0.34,30,0,0.4346,1,0.8152,"N Hollywood - Coldwater Can",518,90009,34.0493,-118.081,14.6,6,34.194,-118.412,0.17743,0.41889,"S292",326.47,0.34,34.194,-118.412,922.893841219136,3793.19442043658,3,5.30491652625208,954.205896173244,3778.55509276384
42,74,665,113,1,1,6,5.99,30,14.5,52.2,49.18,30.06,47.43,10,269.14,0.0309,-1.8703,-0.1634,-1.6531,-0.1744,35,0.42,30,0,0.4708,1,-0.2502,"Newhall - Fire Sta",324,24279,34.0493,-118.081,14.6,6,34.387,-118.533,0.05465,0.16611,"S293",269.129999442621,0.42,34.387,-118.533,910.789343189345,3814.12208343641,9,9.62481281214998,954.205896173244,3778.55509276384
