"i","j","recID","eqid","region","SOF","magBin","mag","rake","ZTOR","Rrup","RJB","RX","RY","FLen","VS30","rockPGA","lnY","intra.Resid","Median","eventTerm","srcSiteA","z1","dip","Z1_1D","Z1_Ref","iregion.i.","epsilon_within","Station.Name","Station.Sequence.Number","Station.ID..No.","Hypocenter.Latitude..deg.","Hypocenter.Longitude..deg.","Hypocenter.Depth..km.","Fault.Rupture.Width..km.","Station.Latitude","Station.Longitude","PGA..g.","T0.200S","STATID","VS30_gmean","Z1_mean","Lat_stat","Lon_stat","X_stat","Y_stat","Basin_ID","D_basin","X_eq","Y_eq"
67,85,3795,158,1,0,7,7.13,1,0,184.51,184.51,-178.13,36.96,44,337.71,0.0122,-4.915,-0.0008,-5.6782,0.3929,-74.88,0.32,82,0,0.4256,1,-0.0014,"Los Angeles - 1st & Figueroa",1659,24839,34.5981,-116.2645,14.8,16.2,34.058,-118.252,0.022588,0.045687,"S546",337.706666633765,0.32,34.058,-118.252,938.357540867928,3778.77273069098,9,1.32610590335854,1118.12363271072,3849.16206715708
67,86,3796,158,1,0,7,7.13,1,0,191.94,191.94,-184.01,42.17,44,320.88,0.0112,-5.0062,-0.013,-5.6708,0.3929,-73.47,0.32,82,0,0.4389,1,-0.0233,"Los Angeles - 3rd & La Brea LADOT",1660,24851,34.5981,-116.2645,14.8,16.2,34.07,-118.346,0.021068,0.032051,"S547",320.897142780824,0.32,34.07,-118.346,929.611050553724,3779.70491448607,1,3.00849879166329,1118.12363271072,3849.16206715708
67,87,3797,158,1,0,7,7.13,1,0,186.54,186.54,-179.22,40.24,44,439.6,0.0119,-5.0693,0.2383,-5.8611,0.3929,-73.9,0.32,82,0,0.3198,1,0.4285,"Los Angeles - Beverly Blvd & Virgil",1431,24853,34.5981,-116.2645,14.8,16.2,34.077,-118.286,0.024924,0.07923,"S548",439.6,0.32,34.077,-118.286,935.118399486262,3780.73649338921,9,0.642574510807728,1118.12363271072,3849.16206715708
67,88,3798,158,1,0,7,7.13,1,0,177.39,177.39,-169.36,42.94,44,418.83,0.0132,-5.2813,-0.0433,-5.7942,0.3929,-72.7,0.32,82,0,0.3441,1,-0.0778,"Los Angeles - Colorado & Eagle Rock",1418,24814,34.5981,-116.2645,14.8,16.2,34.14,-118.21,0.021256,0.066835,"S549",418.83,0.32,34.14,-118.21,941.810845598945,3788.05808155658,9,2.47646349225856,1118.12363271072,3849.16206715708
67,90,3800,158,1,0,7,7.13,1,0,186.39,186.39,-180.39,35.44,44,305.01,0.0119,-4.6743,-0.2009,-5.6114,0.3929,-75.41,0.32,82,0,0.4501,1,-0.3613,"Los Angeles - Olive & Pico",1425,24838,34.5981,-116.2645,14.8,16.2,34.037,-118.263,0.018975,0.026135,"S550",305.003333296904,0.32,34.037,-118.263,937.449269956045,3776.39406070572,1,0.195559534555405,1118.12363271072,3849.16206715708
67,92,3804,158,1,0,7,7.13,1,0,193.38,193.38,-186.19,39.5,44,333.75,0.0111,-4.6985,-0.2615,-5.6434,0.3929,-74.33,0.52,82,0,0.4289,1,-0.4703,"Los Angeles - Washington & La Brea",1662,24818,34.5981,-116.2645,14.8,16.2,34.041,-118.348,0.015911,0.039867,"S552",333.783332501096,0.52,34.041,-118.348,929.572985491433,3776.47702166608,1,5.21190432351508,1118.12363271072,3849.16206715708
67,93,3805,158,1,0,7,7.13,1,0,160.61,160.61,-158.03,21.84,44,336.6,0.016,-4.2681,0.2868,-5.574,0.3929,-79.72,0.32,82,0,0.4265,1,0.5158,"La Puente - Amar & Hacienda",1380,23843,34.5981,-116.2645,14.8,16.2,34.036,-117.95,0.039367,0.091295,"S553",336.6,0.32,34.036,-117.95,966.386699339835,3777.66952395898,4,0.449933871197356,1118.12363271072,3849.16206715708
67,94,3807,158,1,0,7,7.13,1,0,194.88,194.88,-178.14,66.58,44,328.43,0.0109,-4.8515,0.2127,-5.6843,0.3929,-66.08,0.36,82,0,0.4331,1,0.3826,"Mission Hills - Sepulveda & San Fernando",1663,24800,34.5981,-116.2645,14.8,16.2,34.273,-118.464,0.02537,0.037279,"S554",328.414999657446,0.36,34.273,-118.464,917.705657116573,3801.7491564512,3,0.39917202691836,1118.12363271072,3849.16206715708
67,95,3809,158,1,0,7,7.13,1,0,180.41,180.41,-179.81,-21.22,44,277.83,0.0128,-4.4946,-0.0096,-5.5463,0.3929,-85.33,0.32,82,0,0.4664,1,-0.0173,"Newport Beach - Balboa & Medina",3015,13876,34.5981,-116.2645,14.8,16.2,33.604,-117.906,0.025507,0.050109,"S555",277.814999595054,0.32,33.604,-117.906,972.834380960854,3729.90124589789,1,0.795877902858708,1118.12363271072,3849.16206715708
67,96,3810,158,1,0,7,7.13,1,0,179.05,179.05,-178.52,-21.86,44,361.56,0.013,-4.5936,0.294,-5.704,0.3929,-85.58,0.32,82,0,0.4045,1,0.5287,"Newport Beach - Balboa Island",1664,13877,34.5981,-116.2645,14.8,16.2,33.605,-117.89,0.031185,0.053565,"S556",361.573332841667,0.32,33.605,-117.89,974.315565046721,3730.0857526605,1,0.674665598159345,1118.12363271072,3849.16206715708
67,97,3811,158,1,0,7,7.13,1,0,191.26,191.26,-178.5,56.6,44,303.1,0.0113,-5.0755,0.2821,-5.6184,0.3929,-68.96,0.34,82,0,0.4514,1,0.5072,"North Hollywood - Laurel Canyon & Sherman",1419,24815,34.5981,-116.2645,14.8,16.2,34.199,-118.396,0.029255,0.073296,"S557",303.1,0.34,34.199,-118.396,924.344674355833,3793.81617325545,3,3.74115102158106,1118.12363271072,3849.16206715708
67,98,3812,158,1,0,7,7.13,1,0,164.52,164.52,-162.53,-7.82,44,314.88,0.0153,-4.5974,0.2396,-5.543,0.3929,-81.09,0.32,82,0,0.4433,1,0.4308,"Orange - Hwy 22/Hwy 55 Grounds",3014,13875,34.5981,-116.2645,14.8,16.2,33.777,-117.834,0.036932,0.077562,"S558",314.886666525524,0.32,33.777,-117.834,978.561085657064,3749.44476079647,1,2.2149527841354,1118.12363271072,3849.16206715708
67,99,3813,158,1,0,7,7.13,1,0,172.72,172.72,-169.52,24.07,44,261.45,0.0139,-4.2909,-0.3827,-5.3696,0.3929,-78.95,0.52,82,0,0.4744,1,-0.6883,"Pico Rivera - Durfee & Whittier",1427,24841,34.5981,-116.2645,14.8,16.2,34.002,-118.077,0.019586,0.042519,"S559",261.474998804857,0.52,34.002,-118.077,954.828717925023,3773.32108251106,1,1.29777839003803,1118.12363271072,3849.16206715708
67,100,3814,158,1,0,7,7.13,1,0,145.81,145.81,-144.23,17.29,44,368.88,0.019,-4.9248,-0.0287,-5.5692,0.3929,-81.56,0.32,82,0,0.3975,1,-0.0516,"Pomona - Orange Grove & Fairplex",1379,23837,34.5981,-116.2645,14.8,16.2,34.063,-117.784,0.032737,0.075235,"S560",368.886666546185,0.32,34.063,-117.784,981.579809244421,3781.43951528703,5,0.464968897254948,1118.12363271072,3849.16206715708
67,101,3815,158,1,0,7,7.13,1,0,128.94,128.94,-127.7,-9.09,44,334.99,0.0234,-5.1052,-0.1369,-5.4156,0.3929,-82.07,0.32,82,0,0.4279,1,-0.2463,"Riverside - Hole & La Sierra",1340,13913,34.5981,-116.2645,14.8,16.2,33.919,-117.488,0.037329,0.18566,"S561",334.992499972015,0.32,33.919,-117.488,1009.80234395665,3766.88415010866,9,5.79888939762547,1118.12363271072,3849.16206715708
67,102,3816,158,1,0,7,7.13,1,0,114.1,114.1,-113.15,-9.49,44,340.65,0.0283,-4.9211,-0.0138,-5.3441,0.3929,-82.6,0.32,82,0,0.4232,1,-0.0248,"Riverside - I215 & 3rd",1341,13915,34.5981,-116.2645,14.8,16.2,33.979,-117.344,0.050681,0.10499,"S562",340.674999082703,0.32,33.979,-117.344,1022.76838473218,3774.27656082396,9,6.80025056427953,1118.12363271072,3849.16206715708
67,103,3817,158,1,0,7,7.13,1,0,117.4,117.4,-117.25,-18.53,44,581.8,0.0271,-4.8472,-0.2467,-5.7563,0.3929,-87.06,-999,82,0,0.1591,1,-0.4436,"Riverside - Van Buren&Trautwein",1342,13916,34.5981,-116.2645,14.8,16.2,33.895,-117.32,0.030375,0.11036,"S563",581.8,-999,33.895,-117.32,1025.50750910552,3765.06877352451,9,16.3977174820135,1118.12363271072,3849.16206715708
67,104,3818,158,1,0,7,7.13,1,0,125.7,125.7,-123.66,-3.83,44,329.84,0.0244,-5.0897,-0.5066,-5.3869,0.3929,-79.67,0.32,82,0,0.432,1,-0.911,"Riverside - Limonite & Downey",1344,13921,34.5981,-116.2645,14.8,16.2,33.975,-117.486,0.026995,0.048209,"S564",329.814999431511,0.32,33.975,-117.486,1009.65222183926,3773.11412059836,9,2.3938380069827,1118.12363271072,3849.16206715708
67,105,3820,158,1,0,7,7.13,1,0,171.66,171.66,-165.39,37.11,44,379.43,0.0141,-5.0898,-0.3538,-5.7059,0.3929,-74.47,0.32,82,0,0.3869,1,-0.6362,"San Marino - SW Academy",338,24401,34.5981,-116.2645,14.8,16.2,34.115,-118.13,0.017327,0.049787,"S310",379.43,0.32,34.115,-118.13,949.32897751427,3785.63258625348,4,2.30680529237886,1118.12363271072,3849.16206715708
67,106,3823,158,1,0,7,7.13,1,0,190.67,190.67,-180.44,49.51,44,365.47,0.0114,-5.4234,0.5401,-5.7583,0.3929,-71.14,0.32,82,0,0.4007,1,0.9714,"Universal City - Hwy 101 & Lankershim",1436,24865,34.5981,-116.2645,14.8,16.2,34.139,-118.364,0.034988,0.08757,"S565",365.492499769141,0.32,34.139,-118.364,927.599815533768,3787.28929245019,3,0.126857573533938,1118.12363271072,3849.16206715708
67,107,3824,158,1,0,7,7.13,1,0,196.24,196.24,-183.2,57.38,44,304.04,0.0107,-5.0625,0.2419,-5.6478,0.3929,-69,0.32,82,0,0.4507,1,0.435,"Van Nuys - Civic Center Grounds",1438,24867,34.5981,-116.2645,14.8,16.2,34.184,-118.447,0.026625,0.046405,"S566",304.04,0.32,34.184,-118.447,919.714905786511,3791.93925635344,3,3.90988789676371,1118.12363271072,3849.16206715708
71,62,8177,163,1,0,5,4.92,-32,12.48,64.83,62.82,63.62,-1,2.8,341,0.0104,-10.0313,-0.9204,-10.6624,0.5867,90,-999,78,0,0.4229,1,-1.2309,"Beaumont, I-10 at 79",3039,"bbs",33.5083,-116.5143,15.2,3.9,33.921,-116.981,0.0075585,0.02,"S640",341,-999,33.921,-116.981,1056.74404639851,3769.75201224916,9,19.5231577374379,1102.8745577455,3726.52529361812
71,69,8196,163,1,0,5,4.92,-32,12.48,51.31,49.77,-21.28,-46.33,2.8,370,0.0154,-10.0778,-0.6859,-10.6173,0.5867,-155,0.1,78,0,0.3964,1,-0.9173,"Cactus City, Airway beacon",3052,"ctc",33.5083,-116.5143,15.2,3.9,33.655,-115.99,0.013604,0.038091,"S647",370,0.1,33.655,-115.99,1150.59271925333,3746.02699384787,9,7.25501120943978,1102.8745577455,3726.52529361812
71,73,8205,163,1,0,5,4.92,-32,12.48,68.87,67.73,-12.47,67.88,2.8,611,0.0094,-11.1075,0.291,-11.2021,0.5867,-11,-999,78,0,0.133,1,0.3891,"Dos Picos County Park",3055,"dpp",33.5083,-116.5143,15.2,3.9,32.999,-116.942,0.016666,0.025543,"S651",611,-999,32.999,-116.942,1066.35120243322,3667.51955349665,9,82.2952303846259,1102.8745577455,3726.52529361812
71,75,8210,163,1,0,5,4.92,-32,12.48,77.84,76.83,-75.37,-15.88,2.8,238,0.0075,-9.4461,0.5192,-10.4157,0.5867,-101,1.16,78,0,0.4839,1,0.6943,"Elmore'S Ranch",100167,"ERR",33.5083,-116.5143,15.2,3.9,33.11675,-115.8227,0.027238,0.093818,"S653",238,1.16,33.117,-115.823,1170.26886745034,3687.26636023607,8,7.49579063192275,1102.8745577455,3726.52529361812
75,4,2050,167,1,0,4,4.27,13,6.02,12.48,10.93,-10.24,-4.48,1.4,396.21,0.0268,-8.668,1.4185,-10.4428,0.7958,-110.51,0.44,88.3,0,0.3693,1,1.8969,"Brea - Central Ave Caltrans Yard",1319,13873,33.9173,-117.7758,7,1.5,33.933,-117.896,0.18384,0.34733,"S697",396.201999979809,0.44,33.933,-117.896,971.949772063292,3766.48026163,9,0.722079176256124,983.164763538905,3765.29807232495
75,8,2054,167,1,0,4,4.27,13,6.02,11.74,10.08,-6.8,-8.12,1.4,376.96,0.0289,-10.2602,-0.0001,-10.326,0.7958,-137.56,0.52,88.3,0,0.3894,1,-0.0001,"Fullerton - CSU Fullerton Grnds",1323,13878,33.9173,-117.7758,7,1.5,33.889,-117.886,0.048362,0.077341,"S541",376.983999490687,0.52,33.889,-117.886,973.119324070772,3761.6405164157,1,3.09921898014971,983.164763538905,3765.29807232495
75,9,2055,167,1,0,4,4.27,13,6.02,15.07,13.82,-11.48,-8.35,1.4,306.6,0.0212,-10.0313,-0.515,-10.4296,0.7958,-123.78,0.56,88.3,0,0.449,1,-0.6887,"Fullerton - Hermosa & Harbor",1325,13880,33.9173,-117.7758,7,1.5,33.91,-117.93,0.02339,0.051083,"S701",306.6,0.56,33.91,-117.93,968.929239597218,3763.76992658443,1,2.94593806004924,983.164763538905,3765.29807232495
75,10,2056,167,1,0,4,4.27,13,6.02,18.21,17.18,-11,-13.87,1.4,283.34,0.0166,-10.319,-0.4663,-10.5271,0.7958,-140.19,0.66,88.3,0,0.4634,1,-0.6236,"Fullerton - Valencia&Brookhurst",1324,13879,33.9173,-117.7758,7,1.5,33.866,-117.958,0.020242,0.058234,"S702",283.313332705858,0.66,33.866,-117.958,966.577298890791,3758.75624017901,1,8.32930648726664,983.164763538905,3765.29807232495
75,11,2057,167,1,0,4,4.27,13,6.02,17.35,16.28,-14.75,-7.53,1.4,331.73,0.0177,-9.7725,0.0156,-10.6352,0.7958,-115,0.58,88.3,0,0.4305,1,0.0208,"La Habra - La Habra&Monte Vista",1326,13881,33.9173,-117.7758,7,1.5,33.932,-117.955,0.032771,0.09497,"S703",331.705999782948,0.58,33.932,-117.955,966.494342016406,3766.0985199284,1,0.987275563595906,983.164763538905,3765.29807232495
75,67,8316,167,1,0,4,4.27,13,6.02,87.32,87.09,44.97,75.14,1.4,356,0.0014,-12.2061,0.0025,-12.6185,0.7958,31,-999,88.3,0,0.4096,1,0.0034,"Big Bear Solar Observatory",100543,"BBR",33.9173,-117.7758,7,1.5,34.2623,-116.9208,0.0025451,0.0067581,"S639",356,-999,34.262,-116.921,1060.03990091627,3807.97012276097,9,24.8888191575653,983.164763538905,3765.29807232495
75,71,8324,167,1,0,4,4.27,13,6.02,52.74,52.39,-27.88,-44.97,1.4,393.26,0.0034,-12.0238,-2.157,-12.0875,0.7958,-148,-999,88.3,0,0.3725,1,-2.8844,"Fort Macarthur Park",100107,"FMP",33.9173,-117.7758,7,1.5,33.71264,-118.2938,0.00067883,0.0016754,"S739",393.298260784967,-999,33.713,-118.294,936.234554848655,3740.29168051766,9,1.34272459196362,983.164763538905,3765.29807232495
75,81,8342,167,1,0,4,4.27,13,6.02,15.01,13.75,-13.13,-4.71,1.4,414.77,0.0213,-9.2103,0.0728,-10.6717,0.7958,-107,0.42,88.3,0,0.3487,1,0.0973,"Olinda",100460,"OLI",33.9173,-117.7758,7,1.5,33.94539,-117.9237,0.03799,0.14124,"S747",414.798928534065,0.42,33.945,-117.924,969.292050824434,3767.68389830634,9,0.887733769270359,983.164763538905,3765.29807232495
75,82,8343,167,1,0,4,4.27,13,6.02,44.97,44.57,-44.55,-0.03,1.4,639.74,0.0045,-12.2061,-1.0009,-12.385,0.7958,-88,0.02,88.3,0,0.1105,1,-1.3385,"Pasadena (PASA)",100562,"PASA",33.9173,-117.7758,7,1.5,34.1484,-118.1711,0.0022374,0.0068466,"S748",639.700909063134,0.02,34.148,-118.171,945.36909074505,3789.11631370555,9,1.28376049472447,983.164763538905,3765.29807232495
75,84,8348,167,1,0,4,4.27,13,6.02,91.68,91.44,89.36,19.72,1.4,704.1,0.0013,-13.1224,0.5208,-13.2242,0.7958,78,-999,88.3,0,0.0714,1,0.6965,"Red Mountain, Riverside Co., Ca, Usa",100127,"RDM",33.9173,-117.7758,7,1.5,33.63,-116.8478,0.0028301,0.0049424,"S666",704.1,-999,33.63,-116.848,1071.00167856381,3738.14932355052,9,33.2393914013204,983.164763538905,3765.29807232495
77,31,8376,170,1,0,5,4.92,-6,4.86,10.22,8.24,8.99,-0.4,2.9,356,0.0715,-7.4439,0.4189,-8.3225,0.1984,90,-999,72,0,0.4096,1,0.5602,"Big Bear Solar Observatory",100543,"BBR",34.31,-116.848,6.3,2.4,34.2623,-116.9208,0.18823,0.31638,"S639",356,-999,34.262,-116.921,1060.03990091627,3807.97012276097,9,24.8888191575653,1066.45073982428,3813.71002205025
77,32,8377,170,1,0,5,4.92,-6,4.86,84.08,83.94,-36.4,76.96,2.9,796,0.0032,-10.9251,-0.4581,-11.3589,0.1984,-26,0.02,72,0,0.0372,1,-0.6126,"Belle Mountain Joshua Tree",100091,"BEL",34.31,-116.848,6.3,2.4,34.0006,-115.9982,0.0024315,0.0072884,"S642",796,0.02,34.001,-115.998,1147.21820191963,3784.44836783776,9,33.363213660934,1066.45073982428,3813.71002205025
77,34,8381,170,1,0,5,4.92,-6,4.86,81.47,81.15,81.72,-5.69,2.9,392.7,0.0034,-10.68,-0.123,-10.7743,0.1984,94,0.32,72,0,0.3731,1,-0.1645,"Corona, E. 5th St. and Joy St.",3051,"crn",34.31,-116.848,6.3,2.4,33.876,-117.561,0.0051293,0.01597,"S738",392.7,0.32,33.876,-117.561,1003.29648590128,3761.74673299957,5,0.933956959298085,1066.45073982428,3813.71002205025
77,39,8424,170,1,0,5,4.92,-6,4.86,60.03,59.6,60.23,-4.54,2.9,355.87,0.0058,-10.5966,-0.0818,-10.3369,0.1984,94,0.32,72,0,0.4098,1,-0.1094,"Riverside",100129,"RVR",34.31,-116.848,6.3,2.4,33.99351,-117.3755,0.0098434,0.032618,"S667",355.898441496167,0.32,33.994,-117.376,1019.71540295994,3775.77930111251,9,4.82458039395905,1066.45073982428,3813.71002205025
84,21,4018,177,1,1,7,6.5,83,2,154.97,154.95,-78.28,-150.23,33,260.42,0.0059,-6.055,0.5502,-6.7101,-0.0443,-150,-999,52,0,0.4749,1,0.9109,"Santa Barbara - Hwy 101 & State",1789,25423,35.697,-121.085,8.5,10.2,34.439,-119.756,0.021713,0.027596,"S774",260.42,-999,34.439,-119.756,798.08431374974,3815.6084449309,9,45.8581430283502,673.262588896425,3952.03205230635
84,23,4020,177,1,1,7,6.5,83,2,155.22,155.21,-76.37,-151.61,33,467.01,0.0059,-6.0277,0.4136,-7.1788,-0.0443,-151,-999,52,0,0.287,1,0.6848,"Santa Barbara - San Roque Canyon Bridge",1791,25749,35.697,-121.085,8.5,10.2,34.45,-119.734,0.014483,0.020082,"S776",467.01,-999,34.45,-119.734,800.067247089175,3816.89395457048,9,44.5095035522103,673.262588896425,3952.03205230635
84,24,4021,177,1,1,7,6.5,83,2,151.46,151.44,-83.4,-142.91,33,312.98,0.0062,-5.2697,0.7161,-6.8368,-0.0443,-147,-999,52,0,0.4446,1,1.1856,"Santa Barbara - UCSB Goleta",361,25091,35.697,-121.085,8.5,10.2,34.422,-119.851,0.024663,0.04666,"S484",312.98,-999,34.422,-119.851,789.410396130147,3813.4465448893,9,53.425785236961,673.262588896425,3952.03205230635
84,26,4033,177,1,1,7,6.5,83,2,196.34,196.33,-78.46,-196.48,33,358.95,0.0036,-5.7887,1.1214,-7.0989,-0.0443,-156,0.78,52,0,0.4069,1,1.8566,"Ventura - Harbor & California",365,25340,35.697,-121.085,8.5,10.2,34.276,-119.293,0.020073,0.026473,"S491",358.95,0.78,34.276,-119.293,841.309986540823,3798.98240402014,2,0.199599934445339,673.262588896425,3952.03205230635
84,27,4034,177,1,1,7,6.5,83,2,186.41,186.4,-66.3,-190.71,33,373.46,0.004,-6.8609,0.4296,-7.1916,-0.0443,-159,0.32,52,0,0.3929,1,0.7113,"Ventura - Oakview PacBell Facility",1799,5403,35.697,-121.085,8.5,10.2,34.3968,-119.299,0.011121,0.014549,"S778",373.493333035828,0.32,34.397,-119.299,840.267367378676,3812.38948252817,9,13.2467172609098,673.262588896425,3952.03205230635
108,10,5832,280,1,0,7,7.2,0,0.61,26.55,25.32,10.33,20.83,125,242.05,0.1055,-3.0518,0.0949,-3.8435,0.0168,22,1.24,50,0,0.4824,1,0.1706,"TAMAULIPAS",2971,-999,32.3,-115.267,5.5,14.4,32.5495,-115.2357,0.20747,0.56004,"S823",242.05,1.24,32.55,-115.236,1229.88441594638,3628.10879419958,8,22.4055233945654,1228.98840318327,3600.07469698593
108,13,5835,280,1,0,7,7.2,0,0.61,73.31,72.75,68.09,-0.58,125,229.92,0.0384,-5.7838,-0.2691,-5.0715,0.0168,59,0.04,50,0,0.4866,1,-0.484,"Winterhaven -Sheriff Substation",2974,22,32.3,-115.267,5.5,14.4,32.739,-114.636,0.060798,0.16253,"S826",229.92,0.04,32.739,-114.636,1284.7833934964,3653.46625598172,8,5.59231674737296,1228.98840318327,3600.07469698593
108,15,5837,280,1,0,7,7.2,0,0.61,20.08,19.39,22.53,60.4,125,229.25,0.157,-3.1483,0.3537,-3.6212,0.0168,77,1.42,50,0,0.4868,1,0.6361,"El Centro - Imperial & Ross",2975,1711,32.3,-115.267,5.5,14.4,32.78,-115.567,0.36479,1.0369,"S827",229.25,1.42,32.78,-115.567,1196.89046340528,3651.45621507756,8,18.0570607834018,1228.98840318327,3600.07469698593
108,16,5838,280,1,0,7,7.2,0,0.61,29,28.53,32.39,51.95,125,186.21,0.0978,-3.6755,0.0754,-3.4737,0.0168,90,1.32,50,0,0.4973,1,0.1357,"El Centro - Meloland Geotechnic",2976,1794,32.3,-115.267,5.5,14.4,32.773,-115.447,0.19262,0.60116,"S60",235.339448608653,1.32,32.773,-115.447,1208.22392787201,3651.48055758119,8,25.7276066999583,1228.98840318327,3600.07469698593
108,17,5839,280,1,0,7,7.2,0,0.61,115,115,-94.98,146.65,125,388.01,0.021,-5.6599,-0.3197,-5.2935,0.0168,-56,-999,50,0,0.3781,1,-0.575,"El Cajon - Marshall",2977,2140,32.3,-115.267,5.5,14.4,32.813,-116.975,0.024846,0.044698,"S828",388.004999967784,-999,32.813,-116.975,1064.4464810666,3646.67481650857,9,90.081129698341,1228.98840318327,3600.07469698593
108,18,5840,280,1,0,7,7.2,0,0.61,115.4,115.4,-93.59,148.76,125,382.21,0.0209,-5.6111,0.0208,-5.2837,0.0168,-54,-999,50,0,0.3841,1,0.0374,"Santee - Mission Gorge & Cottonwood",2978,2143,32.3,-115.267,5.5,14.4,32.84,-116.974,0.036381,0.1519,"S829",382.21,-999,32.84,-116.974,1064.36862553488,3649.68018507115,9,89.0250139921002,1228.98840318327,3600.07469698593
108,19,5841,280,1,0,7,7.2,0,0.61,97.09,97.09,-76.91,136.54,125,567.81,0.0268,-5.3275,-0.1923,-5.4885,0.0168,-52,-999,50,0,0.1728,1,-0.3458,"Alpine Fire Station",1204,2467,32.3,-115.267,5.5,14.4,32.838,-116.775,0.03081,0.068561,"S610",567.81,-999,32.838,-116.775,1083.04907501131,3650.54438563819,9,71.5372628038954,1228.98840318327,3600.07469698593
108,20,5842,280,1,0,7,7.2,0,0.61,57.95,57.94,-29.83,115.13,125,585.04,0.0502,-4.361,-0.6385,-5.314,0.0168,-31,0.02,50,0,0.156,1,-1.1482,"Anza Borrego S.P. - Tierra Blan",2979,2659,32.3,-115.267,5.5,14.4,32.942,-116.276,0.037761,0.069576,"S830",585.04,0.02,32.942,-116.276,1129.1318171725,3664.98794425068,9,24.6271316290577,1228.98840318327,3600.07469698593
108,21,5843,280,1,0,7,7.2,0,0.61,139.07,139.07,-120.58,157.82,125,413.64,0.0155,-5.607,-0.055,-5.4717,0.0168,-60,-999,50,0,0.35,1,-0.0989,"San Diego - Ocean Beach Fire St",2980,3121,32.3,-115.267,5.5,14.4,32.749,-117.242,0.024853,0.049475,"S831",413.64,-999,32.749,-117.242,1039.7852954862,3638.16433480251,9,111.595504181222,1228.98840318327,3600.07469698593
