"i","j","recID","eqid","region","SOF","magBin","mag","rake","ZTOR","Rrup","RJB","RX","RY","FLen","VS30","rockPGA","lnY","intra.Resid","Median","eventTerm","srcSiteA","z1","dip","Z1_1D","Z1_Ref","iregion.i.","epsilon_within","Station.Name","Station.Sequence.Number","Station.ID..No.","Hypocenter.Latitude..deg.","Hypocenter.Longitude..deg.","Hypocenter.Depth..km.","Fault.Rupture.Width..km.","Station.Latitude","Station.Longitude","PGA..g.","T0.200S","STATID","VS30_gmean","Z1_mean","Lat_stat","Lon_stat","X_stat","Y_stat","Basin_ID","D_basin","X_eq","Y_eq"
49,1,901,126,1,0,6,6.46,-10,3.93,8.3,7.31,-7.31,-6.63,22.4,430.36,0.3259,-3.4567,0.105,-2.9848,0.4174,-90,-999,85,0,0.3307,1,0.1728,"Big Bear Lake - Civic Center",1388,22561,34.21,-116.83,13,9.5,34.238,-116.935,0.52458,1.1121,"S421",430.36,-999,34.238,-116.935,1058.90782109958,3805.22610210958,9,21.9777014240378,1068.78671479433,3802.69908925408
49,3,903,126,1,0,6,6.46,-10,3.93,112.02,111.27,112.1,5.82,22.4,370.6,0.0178,-5.6579,0.3764,-5.2999,0.4174,90,0.26,85,0,0.3958,1,0.6193,"Desert Shores",1291,12626,34.21,-116.83,13,9.5,33.426,-116.078,0.045514,0.083323,"S422",370.6,0.26,33.426,-116.078,1144.11805229002,3720.01127567215,8,0.49976271787259,1068.78671479433,3802.69908925408
49,7,907,126,1,0,6,6.46,-10,3.93,44.65,44.48,-42.51,-24.07,22.4,358.36,0.0644,-3.5633,-0.4373,-4.2511,0.4174,-107.13,-999,85,0,0.4075,1,-0.7195,"Hesperia - 4th & Palm",1400,23583,34.21,-116.83,13,9.5,34.405,-117.313,0.072829,0.2389,"S424",358.375999464258,-999,34.405,-117.313,1022.98882112793,3821.75747328469,9,22.0930954584896,1068.78671479433,3802.69908925408
49,9,909,126,1,0,6,6.46,-10,3.93,78.21,77.33,78.1,13.84,22.4,282.14,0.0311,-3.3593,0.0596,-4.1128,0.4174,87.76,2.28,85,0,0.464,1,0.0981,"Indio - Riverside Co Fair Grnds",1289,12543,34.21,-116.83,13,9.5,33.715,-116.221,0.064832,0.2213,"S425",282.14,2.28,33.715,-116.221,1128.6746636344,3751.25798570244,8,0.56215928892574,1068.78671479433,3802.69908925408
49,10,910,126,1,0,6,6.46,-10,3.93,41.87,40.99,35.24,33.32,22.4,379.32,0.0695,-4.2992,-0.6128,-4.2444,0.4174,57.71,-999,85,0,0.387,1,-1.0081,"Joshua Tree",298,22170,34.21,-116.83,13,9.5,34.13,-116.314,0.063395,0.1809,"S198",379.32,-999,34.13,-116.314,1117.01669939547,3796.82427395701,9,24.3404949421387,1068.78671479433,3802.69908925408
49,11,912,126,1,0,6,6.46,-10,3.93,115.01,114.94,-56.47,-111.12,22.4,365.22,0.017,-4.4465,0.4994,-5.2669,0.4174,-150.58,0.32,85,0,0.401,1,0.8216,"LA - City Terrace",353,24592,34.21,-116.83,13,9.5,34.053,-118.171,0.050804,0.16079,"S426",365.22,0.32,34.053,-118.171,945.868682694138,3778.56875037486,9,2.96176288966282,1068.78671479433,3802.69908925408
49,12,913,126,1,0,6,6.46,-10,3.93,121.82,121.75,-61.05,-116.33,22.4,452.15,0.0154,-4.5435,-0.0015,-5.4644,0.4174,-149.9,0.32,85,0,0.3049,1,-0.0024,"LA - Temple & Hope",357,24611,34.21,-116.83,13,9.5,34.059,-118.246,0.025373,0.058047,"S427",452.157142518647,0.32,34.059,-118.246,938.906793997517,3778.90955909279,9,1.37746629385185,1068.78671479433,3802.69908925408
49,13,914,126,1,0,6,6.46,-10,3.93,117.38,117.32,-58.74,-112.55,22.4,332.28,0.0164,-4.7805,0.413,-5.2158,0.4174,-149.96,0.32,85,0,0.4301,1,0.6795,"Los Angeles - 7-story Univ Hospital (FF)",354,24605,34.21,-116.83,13,9.5,34.062,-118.198,0.046775,0.099776,"S428",332.28,0.32,34.062,-118.198,943.326527740152,3779.45026863754,9,3.78082462465233,1068.78671479433,3802.69908925408
49,14,915,126,1,0,6,6.46,-10,3.93,82.98,82.12,82.96,3.52,22.4,473.8,0.0285,-5.3915,-0.1895,-5.4132,0.4174,90,0.08,85,0,0.2788,1,-0.3118,"Lake Cachulla",1290,12624,34.21,-116.83,13,9.5,33.628,-116.28,0.034262,0.05797,"S429",473.8,0.08,33.628,-116.28,1123.82523258611,3741.22636038792,9,0.780148072058013,1068.78671479433,3802.69908925408
49,15,916,126,1,0,6,6.46,-10,3.93,104.81,104.03,104.24,22.01,22.4,318,0.0198,-4.0653,0.5524,-4.5877,0.4174,83.78,2.18,85,0,0.441,1,0.9088,"Mecca - CVWD Yard",1282,11625,34.21,-116.83,13,9.5,33.564,-115.987,0.066135,0.21334,"S430",318,2.18,33.564,-115.987,1151.56072025984,3735.92736912681,8,1.4866504963852,1068.78671479433,3802.69908925408
49,17,918,126,1,0,6,6.46,-10,3.93,107.26,107.18,-4.09,-118.15,22.4,339.6,0.0191,-4.1247,0.3074,-5.1379,0.4174,-177.81,0.32,85,0,0.4241,1,0.5057,"Newport Bch - Irvine Ave. F.S",276,13160,34.21,-116.83,13,9.5,33.634,-117.902,0.047658,0.1129,"S432",339.6,0.32,33.634,-117.902,973.041500965163,3733.25084975105,1,2.24754746876666,1068.78671479433,3802.69908925408
49,18,919,126,1,0,6,6.46,-10,3.93,126.23,125.54,125.56,24.76,22.4,382.07,0.0144,-4.0683,0.7082,-5.2003,0.4174,83.51,0.72,85,0,0.3842,1,1.1651,"North Shore - Durmid",1280,11591,34.21,-116.83,13,9.5,33.421,-115.831,0.052073,0.095868,"S433",382.07,0.72,33.421,-115.831,1167.18729676213,3721.02326367553,8,9.45571037597347,1068.78671479433,3802.69908925408
49,19,920,126,1,0,6,6.46,-10,3.93,114.31,113.58,113.64,23.8,22.4,265.16,0.0172,-4.0708,0.7971,-4.8743,0.4174,83.36,0.52,85,0,0.4727,1,1.3114,"North Shore - Salton Sea Pk HQ",1281,11613,34.21,-116.83,13,9.5,33.504,-115.913,0.078282,0.21337,"S434",265.16,0.52,33.504,-115.913,1158.90773760134,3729.72631656002,8,3.06032595209576,1068.78671479433,3802.69908925408
49,20,921,126,1,0,6,6.46,-10,3.93,52.48,51.51,52.34,-1.07,22.4,312.47,0.0529,-3.7644,-0.2138,-4.3136,0.4174,90,0.38,85,0,0.445,1,-0.3517,"Palm Springs Airport",265,12025,34.21,-116.83,13,9.5,33.829,-116.512,0.078272,0.17093,"S204",312.47,0.38,33.829,-116.512,1100.84131398629,3762.18363909344,7,3.10524398424876,1068.78671479433,3802.69908925408
49,28,929,126,1,0,6,6.46,-10,3.93,130.29,129.61,130.44,3.2,22.4,324.5,0.0136,-4.535,1.0671,-5.2312,0.4174,90,0.44,85,0,0.4362,1,1.7556,"Salton City",1283,11628,34.21,-116.83,13,9.5,33.28,-115.984,0.075444,0.18137,"S439",324.5,0.44,33.28,-115.984,1153.98074561743,3704.3667542663,8,0.901194789652521,1068.78671479433,3802.69908925408
49,29,930,126,1,0,6,6.46,-10,3.93,33.79,33.56,-13.74,-41.77,22.4,325.83,0.0886,-3.5092,-0.4173,-3.9748,0.4174,-155.84,0.32,85,0,0.4351,1,-0.6865,"San Bernardino - 2nd & Arrowhead",1399,23522,34.21,-116.83,13,9.5,34.103,-117.288,0.10238,0.33166,"S440",325.83,0.32,34.103,-117.288,1027.17944044444,3788.33945268084,6,4.98278336604676,1068.78671479433,3802.69908925408
49,30,931,126,1,0,6,6.46,-10,3.93,35.2,34.98,-10.5,-44.51,22.4,296.97,0.0847,-3.374,-0.4776,-3.9323,0.4174,-162.54,0.34,85,0,0.4553,1,-0.7857,"San Bernardino - E & Hospitality",303,23542,34.21,-116.83,13,9.5,34.065,-117.292,0.094653,0.18754,"S412",296.97428552875,0.34,34.065,-117.292,1027.04627260833,3784.09749084897,6,1.66500028373693,1068.78671479433,3802.69908925408
49,32,933,126,1,0,6,6.46,-10,3.93,115.63,115.57,-25.03,-123.85,22.4,296.62,0.0168,-4.1401,0.1391,-4.9717,0.4174,-167.49,0.54,85,0,0.4555,1,0.2289,"Seal Beach - Office Bldg",294,14578,34.21,-116.83,13,9.5,33.757,-118.084,0.038387,0.094087,"S441",296.62,0.54,33.757,-118.084,955.485715625203,3746.08726305766,1,4.28133384781016,1068.78671479433,3802.69908925408
49,34,935,126,1,0,6,6.46,-10,3.93,38.07,37.04,37.87,-9.55,22.4,523.59,0.0775,-4.7483,0.1856,-4.4614,0.4174,90,-999,85,0,0.2201,1,0.3053,"Snow Creek",1292,12630,34.21,-116.83,13,9.5,33.888,-116.684,0.13615,0.35445,"S442",523.59,-999,33.888,-116.684,1084.48343593803,3767.74384806304,9,6.29628657691978,1068.78671479433,3802.69908925408
49,35,937,126,1,0,6,6.46,-10,3.93,76.76,76.13,48.86,-70.13,22.4,416.15,0.0319,-4.0866,-0.1889,-4.92,0.4174,140.4,-999,85,0,0.3472,1,-0.3108,"Temecula - 6th & Mercedes",277,13172,34.21,-116.83,13,9.5,33.496,-117.149,0.044297,0.079255,"S213",416.168749296048,-999,33.496,-117.149,1043.86895914131,3721.63349686578,9,51.6609415987768,1068.78671479433,3802.69908925408
49,40,6057,126,1,0,6,6.46,-10,3.93,26.47,26.18,-12.75,-34.02,22.4,362.39,0.115,-4.2082,-0.3726,-3.8343,0.4174,-151,0.32,85,0,0.4037,1,-0.613,"Highland Fire Station",1220,5161,34.21,-116.83,13,9.5,34.136,-117.213,0.12939,0.48569,"S445",362.395454511247,0.32,34.136,-117.213,1033.90174540423,3792.39672445503,6,0.627221576974224,1068.78671479433,3802.69908925408
49,42,6059,126,1,0,6,6.46,-10,3.93,29.06,27.96,28.79,8.18,22.4,396.41,0.1043,-3.1205,-0.1929,-4.582,0.4174,90,0.02,85,0,0.3691,1,-0.3173,"Morongo Valley Fire Station",223,5071,34.21,-116.83,13,9.5,34.0486,-116.5782,0.13837,0.3242,"S201",396.406923050054,0.02,34.049,-116.578,1093.18277864536,3786.2489021266,9,5.56130304316732,1068.78671479433,3802.69908925408
49,43,6060,126,1,0,6,6.46,-10,3.93,41.89,40.87,41.7,2.47,22.4,367.84,0.0694,-3.488,0.1497,-4.0384,0.4174,90,0.82,85,0,0.3985,1,0.2463,"North Palm Springs Fire Sta #36",1241,5295,34.21,-116.83,13,9.5,33.9247,-116.5479,0.13487,0.50292,"S419",367.83555534074,0.82,33.925,-116.548,1096.8294294643,3772.64254715131,7,4.53973166535027,1068.78671479433,3802.69908925408
50,1,942,127,1,1,7,6.69,77,5,36.77,35.66,7.98,44.66,18,549.75,0.0804,-3.9003,-0.35,-4.0399,0.1969,13,0.32,40,0,0.1914,1,-0.5975,"Alhambra - Fremont School",342,24461,34.2057,-118.5539,17.5,24,34.07,-118.15,0.087741,0.2421,"S224",549.75,0.32,34.07,-118.15,947.71967397188,3780.54823760313,9,0.450730331938614,909.747722569613,3793.91202474154
50,7,948,127,1,1,7,6.69,77,5,41.41,41.11,-3.27,49.98,18,367.53,0.0707,-3.5181,-0.1761,-3.8838,0.1969,-4.57,0.32,40,0,0.3988,1,-0.3006,"Arcadia - Campus Dr",585,90093,34.2057,-118.5539,17.5,24,34.13,-118.036,0.10895,0.29401,"S227",367.53,0.32,34.13,-118.036,957.928718896948,3787.71697978137,4,2.48413362174935,909.747722569613,3793.91202474154
50,8,949,127,1,1,7,6.69,77,5,8.66,3.3,6.5,12.3,18,297.71,0.3864,-2.3425,-0.4911,-2.3526,0.1969,63,0.36,40,0,0.4548,1,-0.8383,"Arleta - Nordhoff Fire Sta",315,24087,34.2057,-118.5539,17.5,24,34.236,-118.439,0.32924,0.73795,"S228",297.708333310007,0.36,34.236,-118.439,920.194046184842,3797.7449246339,3,4.72048756589303,909.747722569613,3793.91202474154
50,11,952,127,1,1,7,6.69,77,5,18.36,12.39,15.11,21.39,18,545.66,0.1582,-3.251,0.7777,-3.6064,0.1969,51,0.1,40,0,0.1957,1,1.3276,"Beverly Hills - 12520 Mulhol",523,90014,34.2057,-118.5539,17.5,24,34.127,-118.405,0.53527,1.6004,"S231",545.66,0.1,34.127,-118.405,923.875242044317,3785.78566149036,9,1.96479294592537,909.747722569613,3793.91202474154
50,12,953,127,1,1,7,6.69,77,5,17.15,9.44,16.31,18.44,18,355.81,0.1965,-2.2671,0.3012,-3.3406,0.1969,60,0.1,40,0,0.4098,1,0.5142,"Beverly Hills - 14145 Mulhol",522,90013,34.2057,-118.5539,17.5,24,34.132,-118.439,0.43974,1.106,"S232",355.81,0.1,34.132,-118.439,920.711520873364,3786.199708954,9,1.53407792784769,909.747722569613,3793.91202474154
50,16,957,127,1,1,7,6.69,77,5,16.88,15.87,2.82,24.87,18,581.93,0.1704,-3.9366,-0.5974,-3.7545,0.1969,10,0.02,40,0,0.159,1,-1.0198,"Burbank - Howard Rd.",554,90059,34.2057,-118.5539,17.5,24,34.204,-118.302,0.14273,0.50114,"S449",581.93,0.02,34.204,-118.302,932.990004880138,3794.76777418983,9,1.18795471244992,909.747722569613,3793.91202474154
50,17,958,127,1,1,7,6.69,77,5,40.34,34.78,40.25,-36.06,18,351.4,0.0898,-2.8748,-0.2972,-3.7571,0.1969,124,0.32,40,0,0.4138,1,-0.5074,"Camarillo",364,25282,34.2057,-118.5539,17.5,24,34.208,-119.079,0.12048,0.24917,"S450",351.4,0.32,34.208,-119.079,861.315408045363,3792.17605984787,2,4.28925001763451,909.747722569613,3793.91202474154
50,18,959,127,1,1,7,6.69,77,5,14.7,0,16.91,0.69,18,267.49,0.3218,-2.2736,-0.2465,-2.5543,0.1969,90,0.38,40,0,0.4716,1,-0.4207,"Canoga Park - Topanga Can",548,90053,34.2057,-118.5539,17.5,24,34.212,-118.606,0.35968,1.0332,"S239",267.49,0.38,34.212,-118.606,904.912527921472,3794.40254005379,3,1.03540168383237,909.747722569613,3793.91202474154
50,19,960,127,1,1,7,6.69,77,5,12.44,11.39,-11.39,2.5,18,325.6,0.2203,-2.3346,0.1141,-2.7995,0.1969,-90,0.32,40,0,0.4353,1,0.1947,"Canyon Country - W Lost Cany",552,90057,34.2057,-118.5539,17.5,24,34.419,-118.426,0.40312,1.1629,"S240",325.6,0.32,34.419,-118.426,920.476101801113,3818.114244021,9,10.9408300198556,909.747722569613,3793.91202474154
50,21,962,127,1,1,7,6.69,77,5,49.81,45.44,34.44,51.51,18,160.58,0.0574,-3.7259,-0.3764,-3.1941,0.1969,39,0.52,40,0,0.501,1,-0.6425,"Carson - Water St",574,90081,34.2057,-118.5539,17.5,24,33.836,-118.24,0.088724,0.25358,"S242",160.58,0.52,33.836,-118.24,940.612488886356,3754.1775010889,1,7.92157665882667,909.747722569613,3793.91202474154
50,23,964,127,1,1,7,6.69,77,5,47.04,42.96,26.34,51.21,18,266.9,0.0613,-3.6995,-0.2019,-3.4744,0.1969,32,0.84,40,0,0.4719,1,-0.3446,"Compton - Castlegate St",571,90078,34.2057,-118.5539,17.5,24,33.899,-118.196,0.10078,0.33104,"S244",266.9,0.84,33.899,-118.196,944.361411685043,3761.36191987755,1,13.5039957703841,909.747722569613,3793.91202474154
50,25,966,127,1,1,7,6.69,77,5,53.45,53.21,-5.19,61.96,18,324.79,0.0528,-4.0865,-0.099,-4.015,0.1969,-5.6,0.32,40,0,0.4359,1,-0.169,"Covina - W Badillo",564,90070,34.2057,-118.5539,17.5,24,34.087,-117.915,0.092943,0.24573,"S246",324.79,0.32,34.087,-117.915,969.340006351637,3783.49330191198,4,3.22440894948384,909.747722569613,3793.91202474154
50,27,968,127,1,1,7,6.69,77,5,46.74,43.2,22.56,52,18,271.9,0.0617,-4.0095,0.5725,-3.4715,0.1969,28,0.88,40,0,0.4694,1,0.9772,"Downey - Co Maint Bldg",288,14368,34.2057,-118.5539,17.5,24,33.924,-118.167,0.21671,0.56897,"S248",271.9,0.88,33.924,-118.167,946.915331129906,3764.26380822066,1,10.603517941671,909.747722569613,3793.91202474154
50,29,970,127,1,1,7,6.69,77,5,44.79,44.51,-0.63,53.5,18,290.63,0.0648,-3.1511,0.145,-3.73,0.1969,-0.81,0.38,40,0,0.4592,1,0.2474,"El Monte - Fairview Av",560,90066,34.2057,-118.5539,17.5,24,34.093,-118.019,0.14843,0.46119,"S249",290.63,0.38,34.093,-118.019,959.699243525594,3783.68526173323,4,6.43382152094224,909.747722569613,3793.91202474154
50,37,978,127,1,1,7,6.69,77,5,23.07,17.82,16.83,26.82,18,347.7,0.1282,-3.032,-0.1078,-3.9415,0.1969,43,0.02,40,0,0.4171,1,-0.184,"Hollywood - Willoughby Ave",527,90018,34.2057,-118.5539,17.5,24,34.088,-118.365,0.20419,0.41832,"S452",347.7,0.02,34.088,-118.365,927.764944306155,3781.62330132797,1,0.432361334609897,909.747722569613,3793.91202474154
50,38,979,127,1,1,7,6.69,77,5,69.5,66.43,35.03,73.31,18,270.54,0.038,-3.5741,0.0432,-3.9664,0.1969,29,0.54,40,0,0.4701,1,0.0737,"Huntington Bch - Waikiki",576,90083,34.2057,-118.5539,17.5,24,33.727,-118.044,0.083306,0.21983,"S408",270.54,0.54,33.727,-118.044,959.355849031767,3742.93429842622,1,3.81139875930319,909.747722569613,3793.91202474154
50,39,980,127,1,1,7,6.69,77,5,77.45,74.7,38.82,80.85,18,315.52,0.0329,-4.022,0.1881,-4.2778,0.1969,28,0.4,40,0,0.4428,1,0.321,"Huntington Beach - Lake St",278,13197,34.2057,-118.5539,17.5,24,33.662,-117.997,0.078858,0.17353,"S256",315.513333192467,0.4,33.662,-117.997,964.066894362711,3735.92791059247,1,1.56962021588596,909.747722569613,3793.91202474154
50,40,981,127,1,1,7,6.69,77,5,42.2,37.18,29.86,44.37,18,316.02,0.0692,-3.7142,-0.2975,-3.6371,0.1969,40,0.58,40,0,0.4425,1,-0.5078,"Inglewood - Union Oil",285,14196,34.2057,-118.5539,17.5,24,33.905,-118.279,0.096938,0.21645,"S257",316.02,0.58,33.905,-118.279,936.646717038304,3761.67097987571,1,12.2733566723536,909.747722569613,3793.91202474154
50,41,983,127,1,1,7,6.69,77,5,5.43,0,2.11,3.15,18,525.79,0.477,-1.2125,0.0877,-2.5266,0.1969,90,0.32,40,0,0.2177,1,0.1497,"Jensen Filter Plant Generator Building",1153,655,34.2057,-118.5539,17.5,24,34.313,-118.498,0.76045,1.5223,"S453",525.793333312201,0.32,34.313,-118.498,914.375338798572,3806.05006039044,9,2.37542548329085,909.747722569613,3793.91202474154
50,42,984,127,1,1,7,6.69,77,5,41.17,36.39,26.66,44.43,18,301,0.0712,-3.6838,0.2162,-3.5147,0.1969,37,0.74,40,0,0.4527,1,0.369,"LA - 116th St School",290,14403,34.2057,-118.5539,17.5,24,33.929,-118.26,0.16985,0.42701,"S258",301,0.74,33.929,-118.26,938.282270091887,3764.41666313217,1,10.8991543074808,909.747722569613,3793.91202474154
50,43,985,127,1,1,7,6.69,77,5,29.88,23.5,24.08,31.8,18,297.07,0.0996,-2.976,0.0263,-3.4453,0.1969,47,0.32,40,0,0.4552,1,0.0449,"LA - Baldwin Hills",318,24157,34.2057,-118.5539,17.5,24,34.009,-118.361,0.18746,0.49674,"S259",297.074999789625,0.32,34.009,-118.361,928.532859759514,3772.86988559313,1,8.14038325394554,909.747722569613,3793.91202474154
50,44,986,127,1,1,7,6.69,77,5,22.5,12.92,23.99,20.64,18,416.58,0.157,-3.1255,-0.3788,-3.3884,0.1969,64,0.32,40,0,0.3467,1,-0.6467,"LA - Brentwood VA Hospital",109,638,34.2057,-118.5539,17.5,24,34.063,-118.463,0.17847,0.383,"S454",416.589999879978,0.32,34.063,-118.463,918.836752304172,3778.44112883562,9,0.547907248474273,909.747722569613,3793.91202474154
50,45,987,127,1,1,7,6.69,77,5,28.3,20.36,28.27,26.81,18,321.91,0.1052,-2.9942,0.5289,-3.3071,0.1969,58,0.58,40,0,0.4381,1,0.9029,"LA - Centinela St",549,90054,34.2057,-118.5539,17.5,24,34.001,-118.431,0.32505,0.89623,"S260",321.91,0.58,34.001,-118.431,922.10102393146,3771.69030529565,1,4.69714845153134,909.747722569613,3793.91202474154
50,46,988,127,1,1,7,6.69,77,5,23.41,15.53,21.78,24.16,18,277.98,0.1265,-2.7274,0.0157,-3.1835,0.1969,55,0.32,40,0,0.4663,1,0.0268,"LA - Century City CC North",333,24389,34.2057,-118.5539,17.5,24,34.063,-118.418,0.23216,0.66229,"S261",277.98,0.32,34.063,-118.418,922.994264728899,3778.62683394087,1,0.931505340527059,909.747722569613,3793.91202474154
50,47,989,127,1,1,7,6.69,77,5,20.45,9.87,22.7,17.88,18,740.05,0.2177,-3.2369,-0.4128,-3.7569,0.1969,69,0.32,40,0,0.0555,1,-0.7048,"LA - Chalon Rd",524,90015,34.2057,-118.5539,17.5,24,34.086,-118.481,0.20143,0.4211,"S263",740.05,0.32,34.086,-118.481,917.06071362519,3780.92056014608,9,3.43725692008375,909.747722569613,3793.91202474154
50,48,990,127,1,1,7,6.69,77,5,36.62,35.03,10.61,44.03,18,365.22,0.0807,-3.8512,0.6146,-3.7718,0.1969,17,0.32,40,0,0.401,1,1.0492,"LA - City Terrace",353,24592,34.2057,-118.5539,17.5,24,34.053,-118.171,0.26944,0.89155,"S426",365.22,0.32,34.053,-118.171,945.868682694138,3778.56875037486,9,2.96176288966282,909.747722569613,3793.91202474154
50,49,991,127,1,1,7,6.69,77,5,30.7,28.98,9.82,37.98,18,366.71,0.0969,-4.0783,0.2149,-3.6229,0.1969,19,0.32,40,0,0.3996,1,0.3668,"LA - Cypress Ave",535,90033,34.2057,-118.5539,17.5,24,34.088,-118.222,0.21574,0.43144,"S264",366.71,0.32,34.088,-118.222,940.973702804698,3782.23280225593,9,5.07574725654436,909.747722569613,3793.91202474154
50,50,993,127,1,1,7,6.69,77,5,27.26,25.66,8.36,34.66,18,329.06,0.1092,-3.6198,0.0827,-3.4886,0.1969,18,0.26,40,0,0.4326,1,0.1413,"LA - Fletcher Dr",536,90034,34.2057,-118.5539,17.5,24,34.115,-118.244,0.2159,0.52505,"S265",329.06,0.26,34.115,-118.244,938.801689319887,3785.13542863915,9,2.24375618216854,909.747722569613,3793.91202474154
50,51,995,127,1,1,7,6.69,77,5,24.03,19.73,15.37,28.73,18,316.46,0.1234,-3.1816,0.3991,-3.3008,0.1969,38,0.32,40,0,0.4421,1,0.6813,"LA - Hollywood Stor FF",326,24303,34.2057,-118.5539,17.5,24,34.09,-118.339,0.32937,0.92154,"S11",316.46,0.32,34.09,-118.339,930.156315689499,3781.95476635018,1,0.942811477833974,909.747722569613,3793.91202474154
50,52,996,127,1,1,7,6.69,77,5,20.81,12.42,20.17,21.3,18,255,0.1443,-3.668,0.0404,-3.0037,0.1969,59,0.32,40,0,0.4773,1,0.0689,"LA - N Faring Rd",525,90016,34.2057,-118.5539,17.5,24,34.089,-118.435,0.27013,0.75911,"S266",255,0.32,34.089,-118.435,921.294515007443,3781.44275313469,9,2.07256141372418,909.747722569613,3793.91202474154
50,56,1000,127,1,1,7,6.69,77,5,31.33,27.82,16.46,36.82,18,304.68,0.095,-3.4777,-0.2418,-3.4934,0.1969,31,0.32,40,0,0.4503,1,-0.4129,"LA - Pico & Sentous",358,24612,34.2057,-118.5539,17.5,24,34.043,-118.271,0.13989,0.28534,"S455",304.686666520799,0.32,34.043,-118.271,936.679014250303,3777.02591751834,1,0.222842358267544,909.747722569613,3793.91202474154
50,58,1003,127,1,1,7,6.69,77,5,27.01,21.17,20.3,30.09,18,308.71,0.1102,-3.2575,0.7817,-3.2695,0.1969,44,0.5,40,0,0.4476,1,1.3344,"LA - Saturn St",584,90091,34.2057,-118.5539,17.5,24,34.046,-118.355,0.44289,1.0179,"S271",308.71,0.5,34.046,-118.355,928.900814422665,3777.00265379795,1,4.47176488577768,909.747722569613,3793.91202474154
