"i","j","recID","eqid","region","SOF","magBin","mag","rake","ZTOR","Rrup","RJB","RX","RY","FLen","VS30","rockPGA","lnY","intra.Resid","Median","eventTerm","srcSiteA","z1","dip","Z1_1D","Z1_Ref","iregion.i.","epsilon_within","Station.Name","Station.Sequence.Number","Station.ID..No.","Hypocenter.Latitude..deg.","Hypocenter.Longitude..deg.","Hypocenter.Depth..km.","Fault.Rupture.Width..km.","Station.Latitude","Station.Longitude","PGA..g.","T0.200S","STATID","VS30_gmean","Z1_mean","Lat_stat","Lon_stat","X_stat","Y_stat","Basin_ID","D_basin","X_eq","Y_eq"
67,60,1829,158,1,0,7,7.13,1,0,104.95,104.95,-103.6,-5.84,44,358.92,0.0321,-3.0123,0.6539,-4.1016,0.3929,-80.81,0.32,82,0,0.4069,1,1.1758,"San Bernardino - Mont. Mem Pk",1247,5328,34.5981,-116.2645,14.8,16.2,34.047,-117.277,0.10936,0.17288,"S530",358.911428434961,0.32,34.047,-117.277,1028.54523704312,3782.17568278081,9,0.125764445290207,1118.12363271072,3849.16206715708
67,61,1830,158,1,0,7,7.13,1,0,104.67,104.67,-104.23,12.96,44,495.59,0.0322,-4.3722,-0.2068,-4.2904,0.3929,-84.75,0.32,82,0,0.2527,1,-0.3718,"San Bernardino - N Verdemont Sch",1255,5371,34.5981,-116.2645,14.8,16.2,34.205,-117.365,0.04041,0.080291,"S531",495.596363613018,0.32,34.205,-117.365,1019.43661399072,3799.27327910318,6,0.55375821094359,1118.12363271072,3849.16206715708
67,62,1831,158,1,0,7,7.13,1,0,92.71,92.71,-92.19,-46.54,44,447.22,0.0382,-4.4035,-0.0783,-4.1465,0.3929,-96.08,-999,82,0,0.3108,1,-0.1408,"San Jacinto - Soboba",270,12204,34.5981,-116.2645,14.8,16.2,33.797,-116.88,0.056041,0.12301,"S208",447.22,-999,33.797,-116.88,1066.92279718386,3756.52873183446,9,26.5134036129374,1118.12363271072,3849.16206715708
67,63,1832,158,1,0,7,7.13,1,0,87.2,87.2,-86.36,-7.32,44,564.93,0.0414,-4.2068,-0.1058,-4.5723,0.3929,-82.04,0.02,82,0,0.1756,1,-0.1902,"Seven Oaks Dam Project Office",1243,5300,34.5981,-116.2645,14.8,16.2,34.1105,-117.099,0.054201,0.18428,"S532",594.890535476906,0.02,34.11,-117.099,1044.60042245241,3790.11303157627,9,2.15500483975784,1118.12363271072,3849.16206715708
67,64,1833,158,1,0,7,7.13,1,0,72.88,72.88,-71.69,-46.07,44,523.59,0.052,-4.5051,-1.1986,-4.0975,0.3929,-100.35,-999,82,0,0.2201,1,-2.1556,"Snow Creek",1292,12630,34.5981,-116.2645,14.8,16.2,33.888,-116.684,0.022203,0.042166,"S442",523.59,-999,33.888,-116.684,1084.48343593803,3767.74384806304,9,6.29628657691978,1118.12363271072,3849.16206715708
67,65,1834,158,1,0,7,7.13,1,0,191.59,191.59,-172.92,70.84,44,420.81,0.0113,-4.3622,0.4678,-5.0386,0.3929,-64.49,0.1,82,0,0.3418,1,0.8412,"Sylmar - County Hospital Grounds",1429,24763,34.5981,-116.2645,14.8,16.2,34.327,-118.444,0.030352,0.054472,"S497",420.804999970295,0.1,34.327,-118.444,919.279623783126,3807.82634272483,9,0.622651949573569,1118.12363271072,3849.16206715708
67,66,1835,158,1,0,7,7.13,1,0,134.11,134.11,-132.52,-64.01,44,416.15,0.0219,-3.9027,0.396,-4.4,0.3929,-98.83,-999,82,0,0.3472,1,0.7121,"Temecula - 6th & Mercedes",277,13172,34.5981,-116.2645,14.8,16.2,33.496,-117.149,0.054751,0.10023,"S213",416.168749296048,-999,33.496,-117.149,1043.86895914131,3721.63349686578,9,51.6609415987768,1118.12363271072,3849.16206715708
67,67,1836,158,1,0,7,7.13,1,0,42.06,42.06,-13.5,-62.17,44,635.01,0.0947,-4.0717,-0.7166,-4.0485,0.3929,-161.27,0.02,82,0,0.114,1,-1.2887,"Twentynine Palms",297,22161,34.5981,-116.2645,14.8,16.2,34.021,-116.009,0.063209,0.13792,"S414",635.01,0.02,34.021,-116.009,1146.04700372155,3786.60222132964,9,34.8044453428495,1118.12363271072,3849.16206715708
67,68,1837,158,1,0,7,7.13,1,0,135.77,135.77,-122.59,56.48,44,386.88,0.0215,-4.6475,0.4271,-4.3418,0.3929,-64.54,-999,82,0,0.3792,1,0.768,"Valyermo Forest Fire Station",1214,5031,34.5981,-116.2645,14.8,16.2,34.4435,-117.853,0.056815,0.15923,"S533",386.887999875934,-999,34.444,-117.853,973.057682816896,3823.42469929191,9,33.0256706755862,1118.12363271072,3849.16206715708
67,69,1838,158,1,0,7,7.13,1,0,62.91,62.91,-62.64,-37.45,44,425.02,0.0618,-3.809,-0.6363,-4.0683,0.3929,-95.27,0.1,82,0,0.337,1,-1.1443,"Whitewater Trout Farm",224,5072,34.5981,-116.2645,14.8,16.2,33.99,-116.656,0.052736,0.16982,"S214",425.01749994853,0.1,33.99,-116.656,1086.37491239148,3779.24003977043,9,4.15050106227951,1118.12363271072,3849.16206715708
67,70,1840,158,1,0,7,7.13,1,0,169.83,169.83,-166.54,24.75,44,298.68,0.0144,-3.0376,0.7464,-4.3408,0.3929,-78.7,0.4,82,0,0.4542,1,1.3422,"Whittier Narrows Dam downstream",98,289,34.5981,-116.2645,14.8,16.2,34.02,-118.053,0.059158,0.098217,"S25",298.68,0.4,34.02,-118.053,956.951345678403,3775.4268605099,9,0.408876109750224,1118.12363271072,3849.16206715708
67,72,1842,158,1,0,7,7.13,1,0,118.71,118.71,-112.39,38.96,44,399.84,0.0267,-4.6687,0.0656,-4.253,0.3929,-71.22,-999,82,0,0.3654,1,0.118,"Wrightwood Post Office",1237,5282,34.5981,-116.2645,14.8,16.2,34.36,-117.629,0.048059,0.12875,"S534",399.819999499775,-999,34.36,-117.629,994.162330417349,3815.1684143642,9,21.9307561973266,1118.12363271072,3849.16206715708
67,73,3780,158,1,0,7,7.13,1,0,175.39,175.39,-169.98,33.69,44,549.75,0.0135,-4.2131,0.1725,-4.8462,0.3929,-75.73,0.32,82,0,0.1914,1,0.3102,"Alhambra - Fremont School",342,24461,34.5981,-116.2645,14.8,16.2,34.07,-118.15,0.02386,0.053052,"S224",549.75,0.32,34.07,-118.15,947.71967397188,3780.54823760313,9,0.450730331938614,1118.12363271072,3849.16206715708
67,74,3781,158,1,0,7,7.13,1,0,162.36,162.36,-158.88,0.41,44,283.54,0.0156,-3.2965,0.1343,-4.2144,0.3929,-78.12,0.46,82,0,0.4632,1,0.2415,"Anaheim - Kraemer & La Palma",1652,13883,34.5981,-116.2645,14.8,16.2,33.853,-117.857,0.035669,0.065308,"S535",283.526666039624,0.46,33.853,-117.857,976.005510062375,3757.77726546981,1,0.804480509951182,1118.12363271072,3849.16206715708
67,75,3782,158,1,0,7,7.13,1,0,159.02,159.02,-155.93,-1.21,44,359.47,0.0163,-3.3485,0.5391,-4.4764,0.3929,-78.69,0.32,82,0,0.4064,1,0.9695,"Anaheim - Lakeview & Riverdale",1318,13849,34.5981,-116.2645,14.8,16.2,33.854,-117.817,0.050113,0.14465,"S536",359.484999687052,0.32,33.854,-117.817,979.705895624118,3758.07485689687,1,0.288313811928064,1118.12363271072,3849.16206715708
67,76,3783,158,1,0,7,7.13,1,0,89.67,89.67,-89.67,-37.93,44,315.21,0.0399,-2.6574,-0.1367,-3.7862,0.3929,-90,-999,82,0,0.443,1,-0.2459,"Beaumont - 6th & Maple",1298,12919,34.5981,-116.2645,14.8,16.2,33.93,-116.972,0.064355,0.14744,"S537",315.21,-999,33.93,-116.972,1057.51875096999,3770.80108533564,9,19.0628341417148,1118.12363271072,3849.16206715708
67,77,3787,158,1,0,7,7.13,1,0,137.69,137.69,-132.93,-13.02,44,334.85,0.021,-4.461,-0.2319,-4.2882,0.3929,-83.63,0.32,82,0,0.428,1,-0.417,"Corona - California Ave",1653,13726,34.5981,-116.2645,14.8,16.2,33.8556,-117.54,0.030421,0.046607,"S538",334.866665837177,0.32,33.856,-117.54,1005.36027130496,3759.62883799966,5,0.442364514714427,1118.12363271072,3849.16206715708
67,78,3788,158,1,0,7,7.13,1,0,180.96,180.96,-173.88,39.62,44,370.69,0.0127,-5.0739,0.0002,-4.6229,0.3929,-73.92,0.32,82,0,0.3957,1,0.0003,"Cypress Park - San Fernando & Division",1654,24813,34.5981,-116.2645,14.8,16.2,34.096,-118.23,0.022556,0.043358,"S539",370.69499996628,0.32,34.096,-118.23,940.193180489643,3783.08639872622,9,4.64308231970163,1118.12363271072,3849.16206715708
67,79,3789,158,1,0,7,7.13,1,0,177.8,177.8,-175.44,18.98,44,274.73,0.0131,-3.7715,0.3431,-4.1716,0.3929,-80.65,0.66,82,0,0.468,1,0.617,"Downey - Florence & I605",1655,14828,34.5981,-116.2645,14.8,16.2,33.939,-118.098,0.037452,0.099707,"S540",274.719999635984,0.66,33.939,-118.098,953.221997791321,3766.23279846545,1,7.25179006321936,1118.12363271072,3849.16206715708
67,80,3790,158,1,0,7,7.13,1,0,163,163,-158.45,5.09,44,376.96,0.0155,-3.4008,0.283,-4.416,0.3929,-76.44,0.52,82,0,0.3894,1,0.5088,"Fullerton - CSU Fullerton Grnds",1323,13878,34.5981,-116.2645,14.8,16.2,33.889,-117.886,0.036348,0.068092,"S541",376.983999490687,0.52,33.889,-117.886,973.119324070772,3761.6405164157,1,3.09921898014971,1118.12363271072,3849.16206715708
67,81,3791,158,1,0,7,7.13,1,0,171.89,171.89,-169.35,-5.26,44,283.73,0.014,-3.3742,-0.0355,-4.2239,0.3929,-80.14,0.54,82,0,0.4631,1,-0.0638,"Garden Grove - Hwy 22 & Harbor",1656,13884,34.5981,-116.2645,14.8,16.2,33.766,-117.918,0.027064,0.055721,"S542",283.719999647531,0.54,33.766,-117.918,970.832094175834,3747.83497012968,1,9.9729380666793,1118.12363271072,3849.16206715708
67,82,3792,158,1,0,7,7.13,1,0,187.99,187.99,-179.54,44.01,44,413.39,0.0117,-4.3334,0.4252,-4.7342,0.3929,-72.76,0.32,82,0,0.3503,1,0.7646,"Hollywood - Franklin & Bronson",1657,24810,34.5981,-116.2645,14.8,16.2,34.103,-118.316,0.030483,0.058358,"S543",413.394999969763,0.32,34.103,-118.316,932.214421256142,3783.49532501466,1,0.255374195862365,1118.12363271072,3849.16206715708
67,83,3793,158,1,0,7,7.13,1,0,191.32,191.32,-182.54,44.99,44,412.25,0.0113,-4.616,-0.25,-5.3494,0.3929,-72.57,0.02,82,0,0.3516,1,-0.4496,"Hollywood - Sunset & Fairfax",1413,24809,34.5981,-116.2645,14.8,16.2,34.097,-118.352,0.014999,0.031877,"S544",412.274999242011,0.02,34.097,-118.352,928.920165105704,3782.67708511094,1,0.362991152610829,1118.12363271072,3849.16206715708
67,84,3794,158,1,0,7,7.13,1,0,171.92,171.92,-162.63,46.99,44,366.69,0.014,-5.2134,-0.0555,-4.84,0.3929,-71.08,0.1,82,0,0.3996,1,-0.0998,"JPL BLDG #179 W ARR,GND CLEAN",1658,5410,34.5981,-116.2645,14.8,16.2,34.199,-118.1737,0.023669,0.056094,"S545",366.69,0.1,34.199,-118.174,944.823624140108,3794.76557126425,9,0.805599784070435,1118.12363271072,3849.16206715708
67,85,3795,158,1,0,7,7.13,1,0,184.51,184.51,-178.13,36.96,44,337.71,0.0122,-4.3999,-0.0008,-4.5712,0.3929,-74.88,0.32,82,0,0.4256,1,-0.0014,"Los Angeles - 1st & Figueroa",1659,24839,34.5981,-116.2645,14.8,16.2,34.058,-118.252,0.022588,0.045687,"S546",337.706666633765,0.32,34.058,-118.252,938.357540867928,3778.77273069098,9,1.32610590335854,1118.12363271072,3849.16206715708
67,86,3796,158,1,0,7,7.13,1,0,191.94,191.94,-184.01,42.17,44,320.88,0.0112,-4.0674,-0.013,-4.5691,0.3929,-73.47,0.32,82,0,0.4389,1,-0.0233,"Los Angeles - 3rd & La Brea LADOT",1660,24851,34.5981,-116.2645,14.8,16.2,34.07,-118.346,0.021068,0.032051,"S547",320.897142780824,0.32,34.07,-118.346,929.611050553724,3779.70491448607,1,3.00849879166329,1118.12363271072,3849.16206715708
67,87,3797,158,1,0,7,7.13,1,0,186.54,186.54,-179.22,40.24,44,439.6,0.0119,-4.6597,0.2383,-4.7629,0.3929,-73.9,0.32,82,0,0.3198,1,0.4285,"Los Angeles - Beverly Blvd & Virgil",1431,24853,34.5981,-116.2645,14.8,16.2,34.077,-118.286,0.024924,0.07923,"S548",439.6,0.32,34.077,-118.286,935.118399486262,3780.73649338921,9,0.642574510807728,1118.12363271072,3849.16206715708
67,88,3798,158,1,0,7,7.13,1,0,177.39,177.39,-169.36,42.94,44,418.83,0.0132,-5.0648,-0.0433,-4.6856,0.3929,-72.7,0.32,82,0,0.3441,1,-0.0778,"Los Angeles - Colorado & Eagle Rock",1418,24814,34.5981,-116.2645,14.8,16.2,34.14,-118.21,0.021256,0.066835,"S549",418.83,0.32,34.14,-118.21,941.810845598945,3788.05808155658,9,2.47646349225856,1118.12363271072,3849.16206715708
67,90,3800,158,1,0,7,7.13,1,0,186.39,186.39,-180.39,35.44,44,305.01,0.0119,-4.0163,-0.2009,-4.4981,0.3929,-75.41,0.32,82,0,0.4501,1,-0.3613,"Los Angeles - Olive & Pico",1425,24838,34.5981,-116.2645,14.8,16.2,34.037,-118.263,0.018975,0.026135,"S550",305.003333296904,0.32,34.037,-118.263,937.449269956045,3776.39406070572,1,0.195559534555405,1118.12363271072,3849.16206715708
67,91,3802,158,1,0,7,7.13,1,0,188.12,188.12,-181.48,37.75,44,312.69,0.0117,-4.3546,-0.2791,-4.528,0.3929,-74.73,0.32,82,0,0.4448,1,-0.5019,"Los Angeles - Vermont & Pico",1420,24816,34.5981,-116.2645,14.8,16.2,34.049,-118.29,0.016976,0.030118,"S551",312.69,0.32,34.049,-118.29,934.892328885108,3777.6108777391,1,0.946788208666501,1118.12363271072,3849.16206715708
67,92,3804,158,1,0,7,7.13,1,0,193.38,193.38,-186.19,39.5,44,333.75,0.0111,-4.0701,-0.2615,-4.4898,0.3929,-74.33,0.52,82,0,0.4289,1,-0.4703,"Los Angeles - Washington & La Brea",1662,24818,34.5981,-116.2645,14.8,16.2,34.041,-118.348,0.015911,0.039867,"S552",333.783332501096,0.52,34.041,-118.348,929.572985491433,3776.47702166608,1,5.21190432351508,1118.12363271072,3849.16206715708
67,93,3805,158,1,0,7,7.13,1,0,160.61,160.61,-158.03,21.84,44,336.6,0.016,-3.491,0.2868,-4.4351,0.3929,-79.72,0.32,82,0,0.4265,1,0.5158,"La Puente - Amar & Hacienda",1380,23843,34.5981,-116.2645,14.8,16.2,34.036,-117.95,0.039367,0.091295,"S553",336.6,0.32,34.036,-117.95,966.386699339835,3777.66952395898,4,0.449933871197356,1118.12363271072,3849.16206715708
67,94,3807,158,1,0,7,7.13,1,0,194.88,194.88,-178.14,66.58,44,328.43,0.0109,-3.6058,0.2127,-4.5745,0.3929,-66.08,0.36,82,0,0.4331,1,0.3826,"Mission Hills - Sepulveda & San Fernando",1663,24800,34.5981,-116.2645,14.8,16.2,34.273,-118.464,0.02537,0.037279,"S554",328.414999657446,0.36,34.273,-118.464,917.705657116573,3801.7491564512,3,0.39917202691836,1118.12363271072,3849.16206715708
67,95,3809,158,1,0,7,7.13,1,0,180.41,180.41,-179.81,-21.22,44,277.83,0.0128,-3.6485,-0.0096,-4.4009,0.3929,-85.33,0.32,82,0,0.4664,1,-0.0173,"Newport Beach - Balboa & Medina",3015,13876,34.5981,-116.2645,14.8,16.2,33.604,-117.906,0.025507,0.050109,"S555",277.814999595054,0.32,33.604,-117.906,972.834380960854,3729.90124589789,1,0.795877902858708,1118.12363271072,3849.16206715708
67,96,3810,158,1,0,7,7.13,1,0,179.05,179.05,-178.52,-21.86,44,361.56,0.013,-4.05,0.294,-4.5943,0.3929,-85.58,0.32,82,0,0.4045,1,0.5287,"Newport Beach - Balboa Island",1664,13877,34.5981,-116.2645,14.8,16.2,33.605,-117.89,0.031185,0.053565,"S556",361.573332841667,0.32,33.605,-117.89,974.315565046721,3730.0857526605,1,0.674665598159345,1118.12363271072,3849.16206715708
67,97,3811,158,1,0,7,7.13,1,0,191.26,191.26,-178.5,56.6,44,303.1,0.0113,-4.2284,0.2821,-4.5036,0.3929,-68.96,0.34,82,0,0.4514,1,0.5072,"North Hollywood - Laurel Canyon & Sherman",1419,24815,34.5981,-116.2645,14.8,16.2,34.199,-118.396,0.029255,0.073296,"S557",303.1,0.34,34.199,-118.396,924.344674355833,3793.81617325545,3,3.74115102158106,1118.12363271072,3849.16206715708
67,98,3812,158,1,0,7,7.13,1,0,164.52,164.52,-162.53,-7.82,44,314.88,0.0153,-3.6975,0.2396,-4.4039,0.3929,-81.09,0.32,82,0,0.4433,1,0.4308,"Orange - Hwy 22/Hwy 55 Grounds",3014,13875,34.5981,-116.2645,14.8,16.2,33.777,-117.834,0.036932,0.077562,"S558",314.886666525524,0.32,33.777,-117.834,978.561085657064,3749.44476079647,1,2.2149527841354,1118.12363271072,3849.16206715708
67,99,3813,158,1,0,7,7.13,1,0,172.72,172.72,-169.52,24.07,44,261.45,0.0139,-4.1097,-0.3827,-4.1684,0.3929,-78.95,0.52,82,0,0.4744,1,-0.6883,"Pico Rivera - Durfee & Whittier",1427,24841,34.5981,-116.2645,14.8,16.2,34.002,-118.077,0.019586,0.042519,"S559",261.474998804857,0.52,34.002,-118.077,954.828717925023,3773.32108251106,1,1.29777839003803,1118.12363271072,3849.16206715708
67,100,3814,158,1,0,7,7.13,1,0,145.81,145.81,-144.23,17.29,44,368.88,0.019,-4.5606,-0.0287,-4.4146,0.3929,-81.56,0.32,82,0,0.3975,1,-0.0516,"Pomona - Orange Grove & Fairplex",1379,23837,34.5981,-116.2645,14.8,16.2,34.063,-117.784,0.032737,0.075235,"S560",368.886666546185,0.32,34.063,-117.784,981.579809244421,3781.43951528703,5,0.464968897254948,1118.12363271072,3849.16206715708
67,101,3815,158,1,0,7,7.13,1,0,128.94,128.94,-127.7,-9.09,44,334.99,0.0234,-4.4077,-0.1369,-4.2292,0.3929,-82.07,0.32,82,0,0.4279,1,-0.2463,"Riverside - Hole & La Sierra",1340,13913,34.5981,-116.2645,14.8,16.2,33.919,-117.488,0.037329,0.18566,"S561",334.992499972015,0.32,33.919,-117.488,1009.80234395665,3766.88415010866,9,5.79888939762547,1118.12363271072,3849.16206715708
67,102,3816,158,1,0,7,7.13,1,0,114.1,114.1,-113.15,-9.49,44,340.65,0.0283,-4.0436,-0.0138,-4.1341,0.3929,-82.6,0.32,82,0,0.4232,1,-0.0248,"Riverside - I215 & 3rd",1341,13915,34.5981,-116.2645,14.8,16.2,33.979,-117.344,0.050681,0.10499,"S562",340.674999082703,0.32,33.979,-117.344,1022.76838473218,3774.27656082396,9,6.80025056427953,1118.12363271072,3849.16206715708
67,103,3817,158,1,0,7,7.13,1,0,117.4,117.4,-117.25,-18.53,44,581.8,0.0271,-4.3547,-0.2467,-4.5996,0.3929,-87.06,-999,82,0,0.1591,1,-0.4436,"Riverside - Van Buren&Trautwein",1342,13916,34.5981,-116.2645,14.8,16.2,33.895,-117.32,0.030375,0.11036,"S563",581.8,-999,33.895,-117.32,1025.50750910552,3765.06877352451,9,16.3977174820135,1118.12363271072,3849.16206715708
67,104,3818,158,1,0,7,7.13,1,0,125.7,125.7,-123.66,-3.83,44,329.84,0.0244,-4.3994,-0.5066,-4.194,0.3929,-79.67,0.32,82,0,0.432,1,-0.911,"Riverside - Limonite & Downey",1344,13921,34.5981,-116.2645,14.8,16.2,33.975,-117.486,0.026995,0.048209,"S564",329.814999431511,0.32,33.975,-117.486,1009.65222183926,3773.11412059836,9,2.3938380069827,1118.12363271072,3849.16206715708
67,105,3820,158,1,0,7,7.13,1,0,171.66,171.66,-165.39,37.11,44,379.43,0.0141,-4.734,-0.3538,-4.5885,0.3929,-74.47,0.32,82,0,0.3869,1,-0.6362,"San Marino - SW Academy",338,24401,34.5981,-116.2645,14.8,16.2,34.115,-118.13,0.017327,0.049787,"S310",379.43,0.32,34.115,-118.13,949.32897751427,3785.63258625348,4,2.30680529237886,1118.12363271072,3849.16206715708
67,106,3823,158,1,0,7,7.13,1,0,190.67,190.67,-180.44,49.51,44,365.47,0.0114,-4.7483,0.5401,-4.664,0.3929,-71.14,0.32,82,0,0.4007,1,0.9714,"Universal City - Hwy 101 & Lankershim",1436,24865,34.5981,-116.2645,14.8,16.2,34.139,-118.364,0.034988,0.08757,"S565",365.492499769141,0.32,34.139,-118.364,927.599815533768,3787.28929245019,3,0.126857573533938,1118.12363271072,3849.16206715708
67,107,3824,158,1,0,7,7.13,1,0,196.24,196.24,-183.2,57.38,44,304.04,0.0107,-3.6306,0.2419,-4.5465,0.3929,-69,0.32,82,0,0.4507,1,0.435,"Van Nuys - Civic Center Grounds",1438,24867,34.5981,-116.2645,14.8,16.2,34.184,-118.447,0.026625,0.046405,"S566",304.04,0.32,34.184,-118.447,919.714905786511,3791.93925635344,3,3.90988789676371,1118.12363271072,3849.16206715708
69,2,1869,161,1,0,5,4.53,11,7.91,41.84,41.09,-19.14,-37.19,1.8,432.47,0.008,-7.4611,0.0334,-8.5669,0.5968,-152.23,0.32,90,0,0.3283,1,0.0446,"Colton - Kaiser Medical Clinic",1254,5341,34.2895,-116.9458,9.1,1.5,34.058,-117.305,0.01352,0.035626,"S582",432.484999739875,0.32,34.058,-117.305,1025.88787497811,3783.25268803061,6,1.08384531282635,1057.56950567238,3810.88876399569
69,3,1870,161,1,0,5,4.53,11,7.91,43.08,42.34,-35.93,-23.19,1.8,526.24,0.0076,-8.5898,-0.4384,-8.734,0.5968,-121.96,0.32,90,0,0.2172,1,-0.5862,"Devore - Devore Water Company",1232,5265,34.2895,-116.9458,9.1,1.5,34.235,-117.407,0.0070962,0.011752,"S514",526.222856770544,0.32,34.235,-117.407,1015.37695451982,3802.39139796235,9,3.88789026444082,1057.56950567238,3810.88876399569
69,4,1871,161,1,0,5,4.53,11,7.91,23.16,21.77,11.72,-19.2,1.8,436.14,0.0191,-7.8141,-0.1662,-7.794,0.5968,147.43,-999,90,0,0.3239,1,-0.2223,"Forest Falls Post Office",1218,5075,34.2895,-116.9458,9.1,1.5,34.088,-116.919,0.024775,0.03934,"S416",436.14,-999,34.088,-116.919,1061.38141966354,3788.64758101559,9,14.8771606767293,1057.56950567238,3810.88876399569
69,8,1875,161,1,0,5,4.53,11,7.91,30.19,29.14,-15.09,-25.78,1.8,362.39,0.0131,-7.7969,-0.0923,-8.0174,0.5968,-148.8,0.32,90,0,0.4037,1,-0.1235,"Highland Fire Station",1220,5161,34.2895,-116.9458,9.1,1.5,34.136,-117.213,0.020514,0.049391,"S445",362.395454511247,0.32,34.136,-117.213,1033.90174540423,3792.39672445503,6,0.627221576974224,1057.56950567238,3810.88876399569
69,10,1877,161,1,0,5,4.53,11,7.91,90.54,90.19,86.63,-25.52,1.8,292.12,0.0021,-7.8092,0.8372,-8.8969,0.5968,106.16,1.58,90,0,0.4583,1,1.1196,"Indio - Jackson Road",1240,5294,34.2895,-116.9458,9.1,1.5,33.7462,-116.2163,0.0095967,0.013318,"S417",292.12,1.58,33.746,-116.216,1128.91152538214,3754.73498967103,7,0.970612463993085,1057.56950567238,3810.88876399569
69,13,1881,161,1,0,5,4.53,11,7.91,49.85,49.22,-42.1,-26.27,1.8,414.03,0.006,-8.1736,0.2895,-8.7552,0.5968,-121.2,-999,90,0,0.3496,1,0.3872,"Lytle Creek Fire Station",1266,5409,34.2895,-116.9458,9.1,1.5,34.233,-117.482,0.013399,0.024462,"S523",414.012856876674,-999,34.233,-117.482,1008.47009190542,3801.79063031426,9,7.19727004489511,1057.56950567238,3810.88876399569
