"i","j","recID","eqid","region","SOF","magBin","mag","rake","ZTOR","Rrup","RJB","RX","RY","FLen","VS30","rockPGA","lnY","intra.Resid","Median","eventTerm","srcSiteA","z1","dip","Z1_1D","Z1_Ref","iregion.i.","epsilon_within","Station.Name","Station.Sequence.Number","Station.ID..No.","Hypocenter.Latitude..deg.","Hypocenter.Longitude..deg.","Hypocenter.Depth..km.","Fault.Rupture.Width..km.","Station.Latitude","Station.Longitude","PGA..g.","T0.200S","STATID","VS30_gmean","Z1_mean","Lat_stat","Lon_stat","X_stat","Y_stat","Basin_ID","D_basin","X_eq","Y_eq"
49,41,6058,126,1,0,6,6.46,-10,3.93,50.33,49.35,50.05,14.57,22.4,388.63,0.0557,-1.3546,0.1458,-1.9175,0.4174,86,0.14,85,0,0.3774,1,0.2398,"Fun Valley",221,5069,34.21,-116.83,13,9.5,33.925,-116.389,0.10813,0.28094,"S193",388.63,0.14,33.925,-116.389,1111.5617875567,3773.58397215335,9,3.4881997428606,1068.78671479433,3802.69908925408
49,42,6059,126,1,0,6,6.46,-10,3.93,29.06,27.96,28.79,8.18,22.4,396.41,0.1043,-1.2731,-0.1929,-1.338,0.4174,90,0.02,85,0,0.3691,1,-0.3173,"Morongo Valley Fire Station",223,5071,34.21,-116.83,13,9.5,34.0486,-116.5782,0.13837,0.3242,"S201",396.406923050054,0.02,34.049,-116.578,1093.18277864536,3786.2489021266,9,5.56130304316732,1068.78671479433,3802.69908925408
49,43,6060,126,1,0,6,6.46,-10,3.93,41.89,40.87,41.7,2.47,22.4,367.84,0.0694,-1.0904,0.1497,-1.6828,0.4174,90,0.82,85,0,0.3985,1,0.2463,"North Palm Springs Fire Sta #36",1241,5295,34.21,-116.83,13,9.5,33.9247,-116.5479,0.13487,0.50292,"S419",367.83555534074,0.82,33.925,-116.548,1096.8294294643,3772.64254715131,7,4.53973166535027,1068.78671479433,3802.69908925408
50,1,942,127,1,1,7,6.69,77,5,36.77,35.66,7.98,44.66,18,549.75,0.0804,-1.3381,-0.35,-1.4259,0.1969,13,0.32,40,0,0.1914,1,-0.5975,"Alhambra - Fremont School",342,24461,34.2057,-118.5539,17.5,24,34.07,-118.15,0.087741,0.2421,"S224",549.75,0.32,34.07,-118.15,947.71967397188,3780.54823760313,9,0.450730331938614,909.747722569613,3793.91202474154
50,2,943,127,1,1,7,6.69,77,5,68.93,65.84,72.11,-47.06,18,501.75,0.0385,-1.8568,-0.157,-2.1517,0.1969,118,-999,40,0,0.2454,1,-0.268,"Anacapa Island",363,25169,34.2057,-118.5539,17.5,24,34.016,-119.362,0.053635,0.18546,"S446",501.75,-999,34.016,-119.362,835.983496227391,3769.90202066738,9,19.0687400932535,909.747722569613,3793.91202474154
50,3,944,127,1,1,7,6.69,77,5,68.62,66.32,21.97,75.23,18,269.29,0.0387,-2.1523,-0.1769,-1.7998,0.1969,18,0.62,40,0,0.4707,1,-0.302,"Anaheim - W Ball Rd",581,90088,34.2057,-118.5539,17.5,24,33.817,-117.951,0.068092,0.17007,"S226",269.29,0.62,33.817,-117.951,967.493416737382,3753.34720069215,1,9.66633233855313,909.747722569613,3793.91202474154
50,6,947,127,1,1,7,6.69,77,5,39.73,39.41,-1.86,48.37,18,330.5,0.074,-1.5288,-0.4222,-1.2752,0.1969,-2.7,0.32,40,0,0.4315,1,-0.7207,"Arcadia - Arcadia Av",590,90099,34.2057,-118.5539,17.5,24,34.127,-118.059,0.09158,0.24482,"S400",330.5,0.32,34.127,-118.059,955.821164544059,3787.28062300844,4,4.03812191440553,909.747722569613,3793.91202474154
50,7,948,127,1,1,7,6.69,77,5,41.41,41.11,-3.27,49.98,18,367.53,0.0707,-1.4907,-0.1761,-1.3598,0.1969,-4.57,0.32,40,0,0.3988,1,-0.3006,"Arcadia - Campus Dr",585,90093,34.2057,-118.5539,17.5,24,34.13,-118.036,0.10895,0.29401,"S227",367.53,0.32,34.13,-118.036,957.928718896948,3787.71697978137,4,2.48413362174935,909.747722569613,3793.91202474154
50,8,949,127,1,1,7,6.69,77,5,8.66,3.3,6.5,12.3,18,297.71,0.3864,-0.5859,-0.4911,-0.1031,0.1969,63,0.36,40,0,0.4548,1,-0.8383,"Arleta - Nordhoff Fire Sta",315,24087,34.2057,-118.5539,17.5,24,34.236,-118.439,0.32924,0.73795,"S228",297.708333310007,0.36,34.236,-118.439,920.194046184842,3797.7449246339,3,4.72048756589303,909.747722569613,3793.91202474154
50,9,950,127,1,1,7,6.69,77,5,47.98,47.72,-3.5,56.59,18,544.68,0.0599,-1.0741,0.2708,-1.7271,0.1969,-4.21,0.38,40,0,0.1968,1,0.4622,"Baldwin Park - N Holly",563,90069,34.2057,-118.5539,17.5,24,34.1,-117.974,0.1249,0.31845,"S229",544.68,0.38,34.1,-117.974,963.81795723836,3784.6665483875,4,4.59659025913156,909.747722569613,3793.91202474154
50,10,951,127,1,1,7,6.69,77,5,44.1,41.27,18.26,50.27,18,267.13,0.0659,-1.5232,-0.5061,-1.3051,0.1969,24,0.78,40,0,0.4718,1,-0.864,"Bell Gardens - Jaboneria",586,90094,34.2057,-118.5539,17.5,24,33.965,-118.158,0.080332,0.20962,"S230",267.13,0.78,33.965,-118.158,947.532999583355,3768.85525906458,1,6.21679985688093,909.747722569613,3793.91202474154
50,11,952,127,1,1,7,6.69,77,5,18.36,12.39,15.11,21.39,18,545.66,0.1582,0.1053,0.7777,-0.7486,0.1969,51,0.1,40,0,0.1957,1,1.3276,"Beverly Hills - 12520 Mulhol",523,90014,34.2057,-118.5539,17.5,24,34.127,-118.405,0.53527,1.6004,"S231",545.66,0.1,34.127,-118.405,923.875242044317,3785.78566149036,9,1.96479294592537,909.747722569613,3793.91202474154
50,12,953,127,1,1,7,6.69,77,5,17.15,9.44,16.31,18.44,18,355.81,0.1965,0.0167,0.3012,-0.4847,0.1969,60,0.1,40,0,0.4098,1,0.5142,"Beverly Hills - 14145 Mulhol",522,90013,34.2057,-118.5539,17.5,24,34.132,-118.439,0.43974,1.106,"S232",355.81,0.1,34.132,-118.439,920.711520873364,3786.199708954,9,1.53407792784769,909.747722569613,3793.91202474154
50,13,954,127,1,1,7,6.69,77,5,19.74,19.1,-8.68,26.01,18,550.11,0.1482,-0.5743,-0.091,-0.8148,0.1969,-27.03,0.04,40,0,0.191,1,-0.1554,"Big Tujunga, Angeles Nat F",556,90061,34.2057,-118.5539,17.5,24,34.286,-118.225,0.20949,0.57563,"S233",550.11,0.04,34.286,-118.225,939.664761319895,3804.2026146319,9,11.0623224723706,909.747722569613,3793.91202474154
50,14,955,127,1,1,7,6.69,77,5,65.43,64.63,9.94,73.63,18,322.75,0.0411,-1.6626,0.2161,-1.8285,0.1969,9,0.52,40,0,0.4375,1,0.3689,"Brea - S Flower Av",580,90087,34.2057,-118.5539,17.5,24,33.916,-117.896,0.10082,0.24514,"S234",322.75,0.52,33.916,-117.896,972.043875215493,3764.59252178888,1,1.02351914686886,909.747722569613,3793.91202474154
50,15,956,127,1,1,7,6.69,77,5,61.96,59.35,22.46,68.21,18,270.96,0.0441,-1.6155,0.2867,-1.6766,0.1969,21,0.76,40,0,0.4699,1,0.4894,"Buena Park - La Palma",579,90086,34.2057,-118.5539,17.5,24,33.847,-118.018,0.12253,0.31497,"S325",270.96,0.76,33.847,-118.018,961.122107328497,3756.37495438366,1,11.1239684314248,909.747722569613,3793.91202474154
50,16,957,127,1,1,7,6.69,77,5,16.88,15.87,2.82,24.87,18,581.93,0.1704,-1.1505,-0.5974,-0.6995,0.1969,10,0.02,40,0,0.159,1,-1.0198,"Burbank - Howard Rd.",554,90059,34.2057,-118.5539,17.5,24,34.204,-118.302,0.14273,0.50114,"S449",581.93,0.02,34.204,-118.302,932.990004880138,3794.76777418983,9,1.18795471244992,909.747722569613,3793.91202474154
50,17,958,127,1,1,7,6.69,77,5,40.34,34.78,40.25,-36.06,18,351.4,0.0898,-1.6589,-0.2972,-1.135,0.1969,124,0.32,40,0,0.4138,1,-0.5074,"Camarillo",364,25282,34.2057,-118.5539,17.5,24,34.208,-119.079,0.12048,0.24917,"S450",351.4,0.32,34.208,-119.079,861.315408045363,3792.17605984787,2,4.28925001763451,909.747722569613,3793.91202474154
50,18,959,127,1,1,7,6.69,77,5,14.7,0,16.91,0.69,18,267.49,0.3218,-0.0761,-0.2465,-0.2571,0.1969,90,0.38,40,0,0.4716,1,-0.4207,"Canoga Park - Topanga Can",548,90053,34.2057,-118.5539,17.5,24,34.212,-118.606,0.35968,1.0332,"S239",267.49,0.38,34.212,-118.606,904.912527921472,3794.40254005379,3,1.03540168383237,909.747722569613,3793.91202474154
50,19,960,127,1,1,7,6.69,77,5,12.44,11.39,-11.39,2.5,18,325.6,0.2203,-0.1669,0.1141,-0.4046,0.1969,-90,0.32,40,0,0.4353,1,0.1947,"Canyon Country - W Lost Cany",552,90057,34.2057,-118.5539,17.5,24,34.419,-118.426,0.40312,1.1629,"S240",325.6,0.32,34.419,-118.426,920.476101801113,3818.114244021,9,10.9408300198556,909.747722569613,3793.91202474154
50,20,961,127,1,1,7,6.69,77,5,50.38,46.05,38.18,50.58,18,305.14,0.0566,-1.5904,-0.2448,-1.491,0.1969,43,0.42,40,0,0.45,1,-0.4179,"Carson - Catskill Ave",538,90040,34.2057,-118.5539,17.5,24,33.812,-118.27,0.087389,0.164,"S241",305.14,0.42,33.812,-118.27,937.955824420258,3751.384571162,1,4.10084191001566,909.747722569613,3793.91202474154
50,21,962,127,1,1,7,6.69,77,5,49.81,45.44,34.44,51.51,18,160.58,0.0574,-1.1783,-0.3764,-1.3164,0.1969,39,0.52,40,0,0.501,1,-0.6425,"Carson - Water St",574,90081,34.2057,-118.5539,17.5,24,33.836,-118.24,0.088724,0.25358,"S242",160.58,0.52,33.836,-118.24,940.612488886356,3754.1775010889,1,7.92157665882667,909.747722569613,3793.91202474154
50,23,964,127,1,1,7,6.69,77,5,47.04,42.96,26.34,51.21,18,266.9,0.0613,-1.1931,-0.2019,-1.3684,0.1969,32,0.84,40,0,0.4719,1,-0.3446,"Compton - Castlegate St",571,90078,34.2057,-118.5539,17.5,24,33.899,-118.196,0.10078,0.33104,"S244",266.9,0.84,33.899,-118.196,944.361411685043,3761.36191987755,1,13.5039957703841,909.747722569613,3793.91202474154
50,24,965,127,1,1,7,6.69,77,5,57.51,57.29,-6.52,65.92,18,346.62,0.0483,-1.904,-0.3194,-1.7031,0.1969,-6.53,0.32,40,0,0.418,1,-0.5453,"Covina - S Grand Ave",562,90068,34.2057,-118.5539,17.5,24,34.078,-117.871,0.06685,0.1259,"S245",346.62,0.32,34.078,-117.871,973.455465068024,3782.69751252934,9,0.79784079079417,909.747722569613,3793.91202474154
50,25,966,127,1,1,7,6.69,77,5,53.45,53.21,-5.19,61.96,18,324.79,0.0528,-1.6577,-0.099,-1.585,0.1969,-5.6,0.32,40,0,0.4359,1,-0.169,"Covina - W Badillo",564,90070,34.2057,-118.5539,17.5,24,34.087,-117.915,0.092943,0.24573,"S246",324.79,0.32,34.087,-117.915,969.340006351637,3783.49330191198,4,3.22440894948384,909.747722569613,3793.91202474154
50,26,967,127,1,1,7,6.69,77,5,48.87,45.68,21.46,54.58,18,245.06,0.0587,-1.395,0.1742,-1.3791,0.1969,25,0.84,40,0,0.4813,1,0.2973,"Downey - Birchdale",572,90079,34.2057,-118.5539,17.5,24,33.92,-118.137,0.14627,0.35906,"S247",245.06,0.84,33.92,-118.137,949.71308395691,3763.95113274995,1,10.4896395129194,909.747722569613,3793.91202474154
50,27,968,127,1,1,7,6.69,77,5,46.74,43.2,22.56,52,18,271.9,0.0617,-0.9304,0.5725,-1.3682,0.1969,28,0.88,40,0,0.4694,1,0.9772,"Downey - Co Maint Bldg",288,14368,34.2057,-118.5539,17.5,24,33.924,-118.167,0.21671,0.56897,"S248",271.9,0.88,33.924,-118.167,946.915331129906,3764.26380822066,1,10.603517941671,909.747722569613,3793.91202474154
50,28,969,127,1,1,7,6.69,77,5,48.63,48.37,-9.93,56.34,18,459.14,0.059,-1.9385,-0.5413,-1.6479,0.1969,-11.85,0.32,40,0,0.2965,1,-0.924,"Duarte - Mel Canyon Rd.",561,90067,34.2057,-118.5539,17.5,24,34.15,-117.939,0.058711,0.17081,"S406",459.14,0.32,34.15,-117.939,966.775160683524,3790.37859504504,9,0.707383035115431,909.747722569613,3793.91202474154
50,29,970,127,1,1,7,6.69,77,5,44.79,44.51,-0.63,53.5,18,290.63,0.0648,-1.2945,0.145,-1.3484,0.1969,-0.81,0.38,40,0,0.4592,1,0.2474,"El Monte - Fairview Av",560,90066,34.2057,-118.5539,17.5,24,34.093,-118.019,0.14843,0.46119,"S249",290.63,0.38,34.093,-118.019,959.699243525594,3783.68526173323,4,6.43382152094224,909.747722569613,3793.91202474154
50,31,972,127,1,1,7,6.69,77,5,82.32,82.01,5.1,91.01,18,367.54,0.0302,-1.861,0.5549,-2.2214,0.1969,4,-999,40,0,0.3988,1,0.9473,"Featherly Park - Maint",274,13122,34.2057,-118.5539,17.5,24,33.869,-117.709,0.097983,0.25781,"S250",367.54,-999,33.869,-117.709,989.626455739907,3760.25164904744,9,7.35951926249234,909.747722569613,3793.91202474154
50,32,973,127,1,1,7,6.69,77,5,66.64,63.73,27.53,72.07,18,301.11,0.0402,-1.4876,0.2806,-1.8168,0.1969,24,0.76,40,0,0.4527,1,0.479,"Garden Grove - Santa Rita",578,90085,34.2057,-118.5539,17.5,24,33.79,-118.012,0.10772,0.25979,"S326",301.11,0.76,33.79,-118.012,961.985431707634,3750.07293303734,1,10.962430750184,909.747722569613,3793.91202474154
50,33,974,127,1,1,7,6.69,77,5,22.21,21.64,-0.29,30.64,18,371.07,0.1329,-0.4212,0.1515,-0.7959,0.1969,-0.76,0.1,40,0,0.3953,1,0.2586,"Glendale - Las Palmas",558,90063,34.2057,-118.5539,17.5,24,34.2,-118.231,0.26006,0.92122,"S253",371.07,0.1,34.2,-118.231,939.560078220891,3794.62853508057,9,4.18708525244312,909.747722569613,3793.91202474154
50,34,975,127,1,1,7,6.69,77,5,53.94,53.71,-11.47,61.47,18,362.31,0.0522,-1.763,-0.3931,-1.6481,0.1969,-12.33,0.32,40,0,0.4038,1,-0.6711,"Glendora - N Oakbank",559,90065,34.2057,-118.5539,17.5,24,34.137,-117.883,0.065776,0.18706,"S254",362.31,0.32,34.137,-117.883,972.017661334788,3789.19346787798,4,0.41156968037782,909.747722569613,3793.91202474154
50,35,976,127,1,1,7,6.69,77,5,57.02,56.55,5.31,65.56,18,337,0.0489,-1.7838,-0.4007,-1.6788,0.1969,5,0.32,40,0,0.4262,1,-0.684,"Hacienda Heights - Colima",567,90073,34.2057,-118.5539,17.5,24,33.99,-117.943,0.062913,0.24003,"S255",337,0.32,33.99,-117.943,967.286653303196,3772.59367570811,9,4.49961962027247,909.747722569613,3793.91202474154
50,36,977,127,1,1,7,6.69,77,5,144.71,144.62,-16.21,152.71,18,290.93,0.0122,-2.4381,0.6916,-3.0774,0.1969,-6.43,-999,40,0,0.459,1,1.1807,"Hemet - Ryan Airfield",283,13660,34.2057,-118.5539,17.5,24,33.731,-117.023,0.051703,0.095068,"S451",290.93,-999,33.731,-117.023,1054.08418035159,3748.41387218334,9,37.1229873021889,909.747722569613,3793.91202474154
50,37,978,127,1,1,7,6.69,77,5,23.07,17.82,16.83,26.82,18,347.7,0.1282,-0.8082,-0.1078,-0.8126,0.1969,43,0.02,40,0,0.4171,1,-0.184,"Hollywood - Willoughby Ave",527,90018,34.2057,-118.5539,17.5,24,34.088,-118.365,0.20419,0.41832,"S452",347.7,0.02,34.088,-118.365,927.764944306155,3781.62330132797,1,0.432361334609897,909.747722569613,3793.91202474154
50,38,979,127,1,1,7,6.69,77,5,69.5,66.43,35.03,73.31,18,270.54,0.038,-1.4878,0.0432,-1.8183,0.1969,29,0.54,40,0,0.4701,1,0.0737,"Huntington Bch - Waikiki",576,90083,34.2057,-118.5539,17.5,24,33.727,-118.044,0.083306,0.21983,"S408",270.54,0.54,33.727,-118.044,959.355849031767,3742.93429842622,1,3.81139875930319,909.747722569613,3793.91202474154
50,39,980,127,1,1,7,6.69,77,5,77.45,74.7,38.82,80.85,18,315.52,0.0329,-1.9198,0.1881,-2.0444,0.1969,28,0.4,40,0,0.4428,1,0.321,"Huntington Beach - Lake St",278,13197,34.2057,-118.5539,17.5,24,33.662,-117.997,0.078858,0.17353,"S256",315.513333192467,0.4,33.662,-117.997,964.066894362711,3735.92791059247,1,1.56962021588596,909.747722569613,3793.91202474154
50,40,981,127,1,1,7,6.69,77,5,42.2,37.18,29.86,44.37,18,316.02,0.0692,-1.3595,-0.2975,-1.3188,0.1969,40,0.58,40,0,0.4425,1,-0.5078,"Inglewood - Union Oil",285,14196,34.2057,-118.5539,17.5,24,33.905,-118.279,0.096938,0.21645,"S257",316.02,0.58,33.905,-118.279,936.646717038304,3761.67097987571,1,12.2733566723536,909.747722569613,3793.91202474154
50,41,983,127,1,1,7,6.69,77,5,5.43,0,2.11,3.15,18,525.79,0.477,0.2978,0.0877,0.2444,0.1969,90,0.32,40,0,0.2177,1,0.1497,"Jensen Filter Plant Generator Building",1153,655,34.2057,-118.5539,17.5,24,34.313,-118.498,0.76045,1.5223,"S453",525.793333312201,0.32,34.313,-118.498,914.375338798572,3806.05006039044,9,2.37542548329085,909.747722569613,3793.91202474154
50,42,984,127,1,1,7,6.69,77,5,41.17,36.39,26.66,44.43,18,301,0.0712,-1.0442,0.2162,-1.277,0.1969,37,0.74,40,0,0.4527,1,0.369,"LA - 116th St School",290,14403,34.2057,-118.5539,17.5,24,33.929,-118.26,0.16985,0.42701,"S258",301,0.74,33.929,-118.26,938.282270091887,3764.41666313217,1,10.8991543074808,909.747722569613,3793.91202474154
50,43,985,127,1,1,7,6.69,77,5,29.88,23.5,24.08,31.8,18,297.07,0.0996,-0.5395,0.0263,-0.9875,0.1969,47,0.32,40,0,0.4552,1,0.0449,"LA - Baldwin Hills",318,24157,34.2057,-118.5539,17.5,24,34.009,-118.361,0.18746,0.49674,"S259",297.074999789625,0.32,34.009,-118.361,928.532859759514,3772.86988559313,1,8.14038325394554,909.747722569613,3793.91202474154
50,44,986,127,1,1,7,6.69,77,5,22.5,12.92,23.99,20.64,18,416.58,0.157,-0.999,-0.3788,-0.6859,0.1969,64,0.32,40,0,0.3467,1,-0.6467,"LA - Brentwood VA Hospital",109,638,34.2057,-118.5539,17.5,24,34.063,-118.463,0.17847,0.383,"S454",416.589999879978,0.32,34.063,-118.463,918.836752304172,3778.44112883562,9,0.547907248474273,909.747722569613,3793.91202474154
50,45,987,127,1,1,7,6.69,77,5,28.3,20.36,28.27,26.81,18,321.91,0.1052,0.106,0.5289,-0.9601,0.1969,58,0.58,40,0,0.4381,1,0.9029,"LA - Centinela St",549,90054,34.2057,-118.5539,17.5,24,34.001,-118.431,0.32505,0.89623,"S260",321.91,0.58,34.001,-118.431,922.10102393146,3771.69030529565,1,4.69714845153134,909.747722569613,3793.91202474154
50,46,988,127,1,1,7,6.69,77,5,23.41,15.53,21.78,24.16,18,277.98,0.1265,-0.59,0.0157,-0.7968,0.1969,55,0.32,40,0,0.4663,1,0.0268,"LA - Century City CC North",333,24389,34.2057,-118.5539,17.5,24,34.063,-118.418,0.23216,0.66229,"S261",277.98,0.32,34.063,-118.418,922.994264728899,3778.62683394087,1,0.931505340527059,909.747722569613,3793.91202474154
50,47,989,127,1,1,7,6.69,77,5,20.45,9.87,22.7,17.88,18,740.05,0.2177,-0.9325,-0.4128,-0.5613,0.1969,69,0.32,40,0,0.0555,1,-0.7048,"LA - Chalon Rd",524,90015,34.2057,-118.5539,17.5,24,34.086,-118.481,0.20143,0.4211,"S263",740.05,0.32,34.086,-118.481,917.06071362519,3780.92056014608,9,3.43725692008375,909.747722569613,3793.91202474154
50,48,990,127,1,1,7,6.69,77,5,36.62,35.03,10.61,44.03,18,365.22,0.0807,-0.2611,0.6146,-1.2324,0.1969,17,0.32,40,0,0.401,1,1.0492,"LA - City Terrace",353,24592,34.2057,-118.5539,17.5,24,34.053,-118.171,0.26944,0.89155,"S426",365.22,0.32,34.053,-118.171,945.868682694138,3778.56875037486,9,2.96176288966282,909.747722569613,3793.91202474154
50,49,991,127,1,1,7,6.69,77,5,30.7,28.98,9.82,37.98,18,366.71,0.0969,-0.7644,0.2149,-1.067,0.1969,19,0.32,40,0,0.3996,1,0.3668,"LA - Cypress Ave",535,90033,34.2057,-118.5539,17.5,24,34.088,-118.222,0.21574,0.43144,"S264",366.71,0.32,34.088,-118.222,940.973702804698,3782.23280225593,9,5.07574725654436,909.747722569613,3793.91202474154
50,50,993,127,1,1,7,6.69,77,5,27.26,25.66,8.36,34.66,18,329.06,0.1092,-0.9717,0.0827,-0.9343,0.1969,18,0.26,40,0,0.4326,1,0.1413,"LA - Fletcher Dr",536,90034,34.2057,-118.5539,17.5,24,34.115,-118.244,0.2159,0.52505,"S265",329.06,0.26,34.115,-118.244,938.801689319887,3785.13542863915,9,2.24375618216854,909.747722569613,3793.91202474154
50,51,995,127,1,1,7,6.69,77,5,24.03,19.73,15.37,28.73,18,316.46,0.1234,-0.2626,0.3991,-0.828,0.1969,38,0.32,40,0,0.4421,1,0.6813,"LA - Hollywood Stor FF",326,24303,34.2057,-118.5539,17.5,24,34.09,-118.339,0.32937,0.92154,"S11",316.46,0.32,34.09,-118.339,930.156315689499,3781.95476635018,1,0.942811477833974,909.747722569613,3793.91202474154
50,52,996,127,1,1,7,6.69,77,5,20.81,12.42,20.17,21.3,18,255,0.1443,-0.6474,0.0404,-0.7098,0.1969,59,0.32,40,0,0.4773,1,0.0689,"LA - N Faring Rd",525,90016,34.2057,-118.5539,17.5,24,34.089,-118.435,0.27013,0.75911,"S266",255,0.32,34.089,-118.435,921.294515007443,3781.44275313469,9,2.07256141372418,909.747722569613,3793.91202474154
50,53,997,127,1,1,7,6.69,77,5,31.16,30.19,6.04,39.19,18,364.91,0.0955,-0.8924,-0.0679,-1.079,0.1969,11,0.32,40,0,0.4013,1,-0.116,"LA - N Figueroa St",534,90032,34.2057,-118.5539,17.5,24,34.111,-118.189,0.15967,0.47203,"S267",364.91,0.32,34.111,-118.189,943.901525711786,3784.92970056109,9,3.03642721636167,909.747722569613,3793.91202474154
50,54,998,127,1,1,7,6.69,77,5,26.73,23.4,14.11,32.4,18,315.06,0.1113,-0.16,0.5407,-0.9095,0.1969,31,0.32,40,0,0.4432,1,0.923,"LA - N Westmoreland",530,90021,34.2057,-118.5539,17.5,24,34.082,-118.298,0.35068,0.98662,"S268",315.06,0.32,34.082,-118.298,933.98424278343,3781.24043410878,1,0.443928139738118,909.747722569613,3793.91202474154
50,55,999,127,1,1,7,6.69,77,5,37.36,35.43,12.46,44.43,18,349.43,0.079,-0.0936,1.2227,-1.2353,0.1969,19,0.38,40,0,0.4156,1,2.0872,"LA - Obregon Park",337,24400,34.2057,-118.5539,17.5,24,34.037,-118.178,0.48514,1.0642,"S269",349.419999713806,0.38,34.037,-118.178,945.305688424754,3776.76174946919,9,1.86929405994365,909.747722569613,3793.91202474154
50,56,1000,127,1,1,7,6.69,77,5,31.33,27.82,16.46,36.82,18,304.68,0.095,-1.2865,-0.2418,-1.0323,0.1969,31,0.32,40,0,0.4503,1,-0.4129,"LA - Pico & Sentous",358,24612,34.2057,-118.5539,17.5,24,34.043,-118.271,0.13989,0.28534,"S455",304.686666520799,0.32,34.043,-118.271,936.679014250303,3777.02591751834,1,0.222842358267544,909.747722569613,3793.91202474154
50,57,1001,127,1,1,7,6.69,77,5,33.99,29.52,20.44,38.45,18,285.28,0.0873,-0.7264,0.4312,-1.0862,0.1969,35,0.72,40,0,0.4623,1,0.736,"LA - S Grand Ave",531,90022,34.2057,-118.5539,17.5,24,34.005,-118.279,0.25935,0.59952,"S270",285.28,0.72,34.005,-118.279,936.134610237232,3772.77294439047,1,4.02513021406878,909.747722569613,3793.91202474154
