"i","j","recID","eqid","region","SOF","magBin","mag","rake","ZTOR","Rrup","RJB","RX","RY","FLen","VS30","rockPGA","lnY","intra.Resid","Median","eventTerm","srcSiteA","z1","dip","Z1_1D","Z1_Ref","iregion.i.","epsilon_within","Station.Name","Station.Sequence.Number","Station.ID..No.","Hypocenter.Latitude..deg.","Hypocenter.Longitude..deg.","Hypocenter.Depth..km.","Fault.Rupture.Width..km.","Station.Latitude","Station.Longitude","PGA..g.","T0.200S","STATID","VS30_gmean","Z1_mean","Lat_stat","Lon_stat","X_stat","Y_stat","Basin_ID","D_basin","X_eq","Y_eq"
59,3,6876,146,1,0,6,6.1,0,5,29.4,28.97,-28.26,10.39,8,425.02,0.0794,-4.7218,0.4407,-4.8781,0.4814,-77,0.1,90,0,0.337,1,0.6861,"Whitewater Trout Farm",224,5072,33.96,-116.3167,12.4,10.5,33.99,-116.656,0.20971,0.57979,"S214",425.01749994853,0.1,33.99,-116.656,1086.37491239148,3779.24003977043,9,4.15050106227951,1118.00685769743,3777.91041449783
59,4,6877,146,1,0,6,6.1,0,5,25.53,25.04,0.59,-29.03,8,292.12,0.0932,-3.1533,0.5637,-3.7386,0.4814,179,1.58,90,0,0.4583,1,0.8775,"Indio - Jackson Road",1240,5294,33.96,-116.3167,12.4,10.5,33.7462,-116.2163,0.31403,0.51762,"S417",292.12,1.58,33.746,-116.216,1128.91152538214,3754.73498967103,7,0.970612463993085,1118.00685769743,3777.91041449783
59,5,6878,146,1,0,6,6.1,0,5,21.97,21.4,-21.4,0.14,8,367.84,0.1101,-4.1855,-0.1685,-3.9863,0.4814,-90,0.82,90,0,0.3985,1,-0.2622,"North Palm Springs Fire Sta #36",1241,5295,33.96,-116.3167,12.4,10.5,33.9247,-116.5479,0.15593,0.45636,"S419",367.83555534074,0.82,33.925,-116.548,1096.8294294643,3772.64254715131,7,4.53973166535027,1118.00685769743,3777.91041449783
67,1,1759,158,1,0,7,7.13,1,0,176.59,176.59,-174.82,15.32,44,276.39,0.0133,-4.5075,-0.1369,-4.1534,0.3929,-81.88,0.7,82,0,0.4671,1,-0.2461,"12440 Imperial Hwy, North Grn",1229,5239,34.5981,-116.2645,14.8,16.2,33.915,-118.066,0.023437,0.037472,"S507",276.39,0.7,33.915,-118.066,956.311766553361,3763.7102851475,1,6.99003695281214,1118.12363271072,3849.16206715708
67,2,1761,158,1,0,7,7.13,1,0,166.11,166.11,-158.61,41.55,44,375.16,0.015,-4.7875,0.2089,-4.549,0.3929,-72.72,0.32,82,0,0.3912,1,0.3756,"Altadena - Eaton Canyon",339,24402,34.5981,-116.2645,14.8,16.2,34.177,-118.096,0.032527,0.069092,"S225",375.16,0.32,34.177,-118.096,952.137281552686,3792.6671296679,4,0.318539074852186,1118.12363271072,3849.16206715708
67,4,1763,158,1,0,7,7.13,1,0,89.98,89.98,-74.21,-82.96,44,724.89,0.0397,-3.9178,-0.4578,-4.5802,0.3929,-124.44,0.0075,82,0,0.0617,1,-0.8232,"Anza - Pinyon Flat",203,5044,34.5981,-116.2645,14.8,16.2,33.607,-116.453,0.032374,0.06807,"S89",724.891999988964,0.0075,33.607,-116.453,1107.88631327739,3737.85601585438,9,11.0798815693917,1118.12363271072,3849.16206715708
67,5,1764,158,1,0,7,7.13,1,0,102.4,102.4,-96.61,-70.53,44,480.22,0.0332,-4.6346,-0.4072,-4.2986,0.3929,-109.36,-999,82,0,0.2711,1,-0.7323,"Anza - Tripp Flats Training",1223,5222,34.5981,-116.2645,14.8,16.2,33.6022,-116.756,0.034251,0.08336,"S508",480.215999933362,-999,33.602,-116.756,1079.74221498855,3735.5521499589,9,28.3146546210926,1118.12363271072,3849.16206715708
67,6,1765,158,1,0,7,7.13,1,0,193.8,193.8,-178.97,61.98,44,297.71,0.011,-3.9806,0.0985,-4.4968,0.3929,-67.44,0.36,82,0,0.4548,1,0.1771,"Arleta - Nordhoff Fire Sta",315,24087,34.5981,-116.2645,14.8,16.2,34.236,-118.439,0.02388,0.045385,"S228",297.708333310007,0.36,34.236,-118.439,920.194046184842,3797.7449246339,3,4.72048756589303,1118.12363271072,3849.16206715708
67,8,1767,158,1,0,7,7.13,1,0,83.43,83.43,-83.16,-42,44,667.42,0.0439,-4.3271,-1.0966,-4.4388,0.3929,-94.63,-999,82,0,0.0919,1,-1.9721,"Banning - Twin Pines Road",1295,12674,34.5981,-116.2645,14.8,16.2,33.869,-116.824,0.019856,0.04435,"S509",667.42,-999,33.869,-116.824,1071.635922416,3764.84073517817,9,19.458680713791,1118.12363271072,3849.16206715708
67,10,1769,158,1,0,7,7.13,1,0,195.87,195.87,-187.09,44.86,44,460.09,0.0108,-4.6412,-0.1513,-4.8353,0.3929,-72.78,0.32,82,0,0.2953,1,-0.2722,"Beverly Hills Pac Bell Bsmt",1263,5402,34.5981,-116.2645,14.8,16.2,34.0762,-118.3959,0.014983,0.028507,"S510",460.096666642517,0.32,34.076,-118.396,924.961756233529,3780.16146908355,1,0.541514978531818,1118.12363271072,3849.16206715708
67,11,1770,158,1,0,7,7.13,1,0,61.85,61.85,-60.96,-4.43,44,406.7,0.063,-3.4657,0.4701,-3.7258,0.3929,-80.25,-999,82,0,0.3578,1,0.8453,"Big Bear Lake - Fire Station",1389,22791,34.5981,-116.2645,14.8,16.2,34.241,-116.872,0.16623,0.39297,"S511",406.7,-999,34.241,-116.872,1064.70142746225,3805.90882963374,9,26.1871703710957,1118.12363271072,3849.16206715708
67,12,1771,158,1,0,7,7.13,1,0,120.69,120.69,-38.86,-138.23,44,257.03,0.026,-2.9302,-0.2284,-3.6537,0.3929,-161.22,0.94,82,0,0.4764,1,-0.4107,"Bombay Beach Fire Station",1234,5271,34.5981,-116.2645,14.8,16.2,33.3527,-115.733,0.041807,0.07603,"S512",257.005454284998,0.94,33.353,-115.733,1176.85760018628,3714.09788012833,8,8.80920535062899,1118.12363271072,3849.16206715708
67,13,1772,158,1,0,7,7.13,1,0,187.73,187.73,-175.8,54.39,44,422.33,0.0118,-4.1232,0.4509,-4.7313,0.3929,-69.46,0.34,82,0,0.3401,1,0.8108,"Burbank Airport",1260,5398,34.5981,-116.2645,14.8,16.2,34.1949,-118.354,0.030979,0.063439,"S513",422.304999852007,0.34,34.195,-118.354,928.239169372763,3793.54827004574,3,1.64282154392299,1118.12363271072,3849.16206715708
67,14,1773,158,1,0,7,7.13,1,0,77.01,77.01,-76.86,-39.05,44,376.91,0.0486,-3.5231,-0.7462,-3.8301,0.3929,-93.59,-999,82,0,0.3895,1,-1.3419,"Cabazon",225,5073,34.5981,-116.2645,14.8,16.2,33.9176,-116.7833,0.039222,0.079988,"S189",376.91,-999,33.918,-116.783,1075.10563905666,3770.51577946264,9,15.6938469024446,1118.12363271072,3849.16206715708
67,15,1776,158,1,0,7,7.13,1,0,56.4,56.4,-53.9,-46.32,44,359,0.0699,-3.931,-0.4437,-3.5782,0.3929,-107.12,0.34,82,0,0.4069,1,-0.798,"Desert Hot Springs",267,12149,34.5981,-116.2645,14.8,16.2,33.962,-116.509,0.076543,0.14986,"S192",359,0.34,33.962,-116.509,1100.18159323679,3776.98371512629,7,1.41227143299073,1118.12363271072,3849.16206715708
67,16,1777,158,1,0,7,7.13,1,0,106.17,106.17,-105.16,17.6,44,526.24,0.0315,-4.0987,-0.0967,-4.3643,0.3929,-82.1,0.32,82,0,0.2172,1,-0.1738,"Devore - Devore Water Company",1232,5265,34.5981,-116.2645,14.8,16.2,34.235,-117.407,0.043179,0.077571,"S514",526.222856770544,0.32,34.235,-117.407,1015.37695451982,3802.39139796235,9,3.88789026444082,1118.12363271072,3849.16206715708
67,17,1780,158,1,0,7,7.13,1,0,149.43,149.43,-147.11,-4.41,44,367.54,0.0182,-3.8032,0.2248,-4.3811,0.3929,-79.89,-999,82,0,0.3988,1,0.4042,"Featherly Park - Maint",274,13122,34.5981,-116.2645,14.8,16.2,33.869,-117.709,0.040537,0.065773,"S250",367.54,-999,33.869,-117.709,989.626455739907,3760.25164904744,9,7.35951926249234,1118.12363271072,3849.16206715708
67,18,1782,158,1,0,7,7.13,1,0,74.92,74.92,-74.92,-27.18,44,436.14,0.0503,-4.1395,-0.3852,-3.9463,0.3929,-90,-999,82,0,0.3239,1,-0.6927,"Forest Falls Post Office",1218,5075,34.5981,-116.2645,14.8,16.2,34.088,-116.919,0.055178,0.13407,"S416",436.14,-999,34.088,-116.919,1061.38141966354,3788.64758101559,9,14.8771606767293,1118.12363271072,3849.16206715708
67,20,1784,158,1,0,7,7.13,1,0,118.5,118.5,-30.19,-137.08,44,384.66,0.0267,-3.5107,0.437,-4.1486,0.3929,-165.24,0.5,82,0,0.3816,1,0.7858,"Frink",1284,11684,34.5981,-116.2645,14.8,16.2,33.398,-115.657,0.071575,0.16921,"S515",384.66,0.5,33.398,-115.657,1183.59675935663,3719.60312600301,8,1.7523957804543,1118.12363271072,3849.16206715708
67,21,1785,158,1,0,7,7.13,1,0,54.68,54.68,-47.72,-54.98,44,388.63,0.0723,-4.1239,-0.2952,-3.8227,0.3929,-119.21,0.14,82,0,0.3774,1,-0.5308,"Fun Valley",221,5069,34.5981,-116.2645,14.8,16.2,33.925,-116.389,0.08924,0.16944,"S193",388.63,0.14,33.925,-116.389,1111.5617875567,3773.58397215335,9,3.4881997428606,1118.12363271072,3849.16206715708
67,22,1786,158,1,0,7,7.13,1,0,61.21,61.21,-61.21,-27.66,44,624.94,0.0638,-3.8423,-0.0488,-4.1256,0.3929,-90,-999,82,0,0.1217,1,-0.0878,"Heart Bar State Park",1561,"22T04",34.5981,-116.2645,14.8,16.2,34.161,-116.799,0.083916,0.27513,"S516",624.94,-999,34.161,-116.799,1071.9810048085,3797.42850934279,9,26.6133317338941,1118.12363271072,3849.16206715708
67,24,1788,158,1,0,7,7.13,1,0,104.55,104.55,-104.06,-48.88,44,328.09,0.0322,-4.8409,-0.0221,-3.9545,0.3929,-95.53,-999,82,0,0.4334,1,-0.0398,"Hemet Fire Station",272,12331,34.5981,-116.2645,14.8,16.2,33.729,-116.979,0.057868,0.11094,"S9",328.0927272425,-999,33.729,-116.979,1058.18187091981,3748.43001980908,9,38.0538905410939,1118.12363271072,3849.16206715708
67,25,1789,158,1,0,7,7.13,1,0,89.87,89.87,-86.6,29.83,44,358.36,0.0398,-3.5471,-0.1441,-3.91,0.3929,-74.52,-999,82,0,0.4075,1,-0.2591,"Hesperia - 4th & Palm",1400,23583,34.5981,-116.2645,14.8,16.2,34.405,-117.313,0.060817,0.087775,"S424",358.375999464258,-999,34.405,-117.313,1022.98882112793,3821.75747328469,9,22.0930954584896,1118.12363271072,3849.16206715708
67,26,1790,158,1,0,7,7.13,1,0,184.03,184.03,-182.32,-11.76,44,315.52,0.0123,-3.6041,0.0855,-4.4595,0.3929,-82.19,0.4,82,0,0.4428,1,0.1538,"Huntington Beach - Lake St",278,13197,34.5981,-116.2645,14.8,16.2,33.662,-117.997,0.025487,0.059047,"S256",315.513333192467,0.4,33.662,-117.997,964.066894362711,3735.92791059247,1,1.56962021588596,1118.12363271072,3849.16206715708
67,27,1791,158,1,0,7,7.13,1,0,73.55,73.55,-44.93,-85.09,44,339.02,0.0514,-3.0473,0.0062,-3.4444,0.3929,-142.35,1.16,82,0,0.4245,1,0.0111,"Indio - Coachella Canal",266,12026,34.5981,-116.2645,14.8,16.2,33.717,-116.155,0.090829,0.16077,"S197",339.02,1.16,33.717,-116.155,1134.79174061941,3751.88693567321,9,0.667664221205795,1118.12363271072,3849.16206715708
67,28,1792,158,1,0,7,7.13,1,0,74,74,-49.88,-82.45,44,282.14,0.051,-2.2177,0.0179,-3.0657,0.3929,-137.62,2.28,82,0,0.464,1,0.0323,"Indio - Riverside Co Fair Grnds",1289,12543,34.5981,-116.2645,14.8,16.2,33.715,-116.221,0.097842,0.15382,"S425",282.14,2.28,33.715,-116.221,1128.6746636344,3751.25798570244,8,0.56215928892574,1118.12363271072,3849.16206715708
67,29,1793,158,1,0,7,7.13,1,0,196.78,196.78,-177.75,71.85,44,525.79,0.0107,-3.6323,0.8198,-4.9342,0.3929,-64.59,0.32,82,0,0.2177,1,1.4743,"Jensen Filter Plant Generator Building",1153,655,34.5981,-116.2645,14.8,16.2,34.313,-118.498,0.036891,0.05152,"S453",525.793333312201,0.32,34.313,-118.498,914.375338798572,3806.05006039044,9,2.37542548329085,1118.12363271072,3849.16206715708
67,30,1794,158,1,0,7,7.13,1,0,31.06,31.06,-28.22,-38.36,44,379.32,0.1259,-3.0352,-0.3267,-3.1334,0.3929,-114.7,-999,82,0,0.387,1,-0.5874,"Joshua Tree",298,22170,34.5981,-116.2645,14.8,16.2,34.13,-116.314,0.14652,0.35629,"S198",379.32,-999,34.13,-116.314,1117.01669939547,3796.82427395701,9,24.3404949421387,1118.12363271072,3849.16206715708
67,31,1795,158,1,0,7,7.13,1,0,50.42,50.42,-31.94,-64.3,44,686.12,0.0788,-3.869,-0.2951,-4.2176,0.3929,-140.7,0.02,82,0,0.0809,1,-0.5307,"Joshua Tree N.M. - Keys View",1294,12647,34.5981,-116.2645,14.8,16.2,33.925,-116.172,0.078407,0.2113,"S518",686.12,0.02,33.925,-116.172,1131.67108450951,3774.90632186666,9,17.2647710197722,1118.12363271072,3849.16206715708
67,32,1797,158,1,0,7,7.13,1,0,177.94,177.94,-172.68,32.98,44,365.22,0.0131,-4.0537,0.5146,-4.5957,0.3929,-76.02,0.32,82,0,0.401,1,0.9253,"LA - City Terrace",353,24592,34.5981,-116.2645,14.8,16.2,34.053,-118.171,0.039265,0.094559,"S426",365.22,0.32,34.053,-118.171,945.868682694138,3778.56875037486,9,2.96176288966282,1118.12363271072,3849.16206715708
67,33,1799,158,1,0,7,7.13,1,0,179.29,179.29,-174.3,31.76,44,349.43,0.0129,-4.1414,0.2668,-4.528,0.3929,-76.45,0.38,82,0,0.4156,1,0.4797,"LA - Obregon Park",337,24400,34.5981,-116.2645,14.8,16.2,34.037,-118.178,0.030662,0.071845,"S269",349.419999713806,0.38,34.037,-118.178,945.305688424754,3776.76174946919,9,1.86929405994365,1118.12363271072,3849.16206715708
67,34,1800,158,1,0,7,7.13,1,0,186.79,186.79,-180.54,36.35,44,304.68,0.0119,-4.0644,-0.452,-4.4993,0.3929,-75.13,0.32,82,0,0.4503,1,-0.8128,"LA - Pico & Sentous",358,24612,34.5981,-116.2645,14.8,16.2,34.043,-118.271,0.014689,0.0246,"S455",304.686666520799,0.32,34.043,-118.271,936.679014250303,3777.02591751834,1,0.222842358267544,1118.12363271072,3849.16206715708
67,35,1801,158,1,0,7,7.13,1,0,183.96,183.96,-177.63,36.79,44,452.15,0.0123,-4.3973,0.1105,-4.7644,0.3929,-74.92,0.32,82,0,0.3049,1,0.1988,"LA - Temple & Hope",357,24611,34.5981,-116.2645,14.8,16.2,34.059,-118.246,0.022322,0.048476,"S427",452.157142518647,0.32,34.059,-118.246,938.906793997517,3778.90955909279,9,1.37746629385185,1118.12363271072,3849.16206715708
67,36,1803,158,1,0,7,7.13,1,0,194.67,194.67,-189.21,6.94,44,322,0.0109,-3.3445,-0.1892,-4.5198,0.3929,-76.4,0.42,82,0,0.4381,1,-0.3402,"LB - City Hall",293,14560,34.5981,-116.2645,14.8,16.2,33.768,-118.196,0.017132,0.024716,"S460",322,0.42,33.768,-118.196,945.041996916923,3746.81777110706,1,2.89156795500447,1118.12363271072,3849.16206715708
67,37,1804,158,1,0,7,7.13,1,0,172.58,172.58,-162.76,48.53,44,399.8,0.0139,-4.9692,-0.0695,-4.9041,0.3929,-70.58,0.1,82,0,0.3654,1,-0.1249,"La Canada - Wald Residence",1265,5408,34.5981,-116.2645,14.8,16.2,34.2096,-118.186,0.02226,0.055589,"S519",399.8,0.1,34.21,-118.186,943.658770564486,3795.93439423654,9,2.39998089387034,1118.12363271072,3849.16206715708
67,41,1808,158,1,0,7,7.13,1,0,177.48,177.48,-171.7,35.01,44,330.03,0.0132,-4.2059,0.5662,-4.515,0.3929,-75.34,0.32,82,0,0.4319,1,1.0181,"Los Angeles - Acosta Residence",1259,5396,34.5981,-116.2645,14.8,16.2,34.073,-118.117,0.043415,0.088358,"S522",330.014999659106,0.32,34.073,-118.117,950.752822842908,3781.02676268052,4,1.25246299036718,1118.12363271072,3849.16206715708
67,42,1809,158,1,0,7,7.13,1,0,112.26,112.26,-110.69,20.6,44,414.03,0.029,-4.5604,0.0238,-4.2372,0.3929,-80.39,-999,82,0,0.3496,1,0.0427,"Lytle Creek Fire Station",1266,5409,34.5981,-116.2645,14.8,16.2,34.233,-117.482,0.049699,0.13234,"S523",414.012856876674,-999,34.233,-117.482,1008.47009190542,3801.79063031426,9,7.19727004489511,1118.12363271072,3849.16206715708
67,43,1810,158,1,0,7,7.13,1,0,91.96,91.96,-43.1,-107.04,44,318,0.0386,-2.8548,0.2747,-3.4207,0.3929,-152.05,2.18,82,0,0.441,1,0.494,"Mecca - CVWD Yard",1282,11625,34.5981,-116.2645,14.8,16.2,33.564,-115.987,0.093619,0.23386,"S430",318,2.18,33.564,-115.987,1151.56072025984,3735.92736912681,8,1.4866504963852,1118.12363271072,3849.16206715708
67,44,1811,158,1,0,7,7.13,1,0,91.15,91.15,-90.67,-10.71,44,351.31,0.0391,-3.7916,-0.3966,-3.9655,0.3929,-84.13,0.32,82,0,0.4139,1,-0.7131,"Mentone Fire Station #9",1221,5162,34.5981,-116.2645,14.8,16.2,34.067,-117.117,0.046565,0.075932,"S524",351.305999965842,0.32,34.067,-117.117,1043.21293272401,3785.23955071814,6,0.521097856715528,1118.12363271072,3849.16206715708
67,45,1812,158,1,0,7,7.13,1,0,84.87,84.87,-84.64,-12.6,44,387.12,0.0429,-3.9188,-0.2505,-3.9767,0.3929,-85.78,0.32,82,0,0.379,1,-0.4505,"Mill Creek Ranger Station",1219,5076,34.5981,-116.2645,14.8,16.2,34.079,-117.045,0.056344,0.16477,"S525",387.11249987891,0.32,34.079,-117.045,1049.79210509665,3786.95941395221,9,3.16566207237871,1118.12363271072,3849.16206715708
67,46,1813,158,1,0,7,7.13,1,0,53.21,53.21,-52.97,-35.09,44,396.41,0.0744,-3.3774,-0.4285,-4.2172,0.3929,-95.48,0.02,82,0,0.3691,1,-0.7707,"Morongo Valley Fire Station",223,5071,34.5981,-116.2645,14.8,16.2,34.0486,-116.5782,0.079991,0.18968,"S201",396.406923050054,0.02,34.049,-116.578,1093.18277864536,3786.2489021266,9,5.56130304316732,1118.12363271072,3849.16206715708
67,47,1814,158,1,0,7,7.13,1,0,198.13,198.13,-175.03,80.4,44,269.14,0.0105,-4.6057,-0.1504,-4.3892,0.3929,-62.05,0.42,82,0,0.4708,1,-0.2705,"Newhall - Fire Sta",324,24279,34.5981,-116.2645,14.8,16.2,34.387,-118.533,0.018559,0.048649,"S293",269.129999442621,0.42,34.387,-118.533,910.789343189345,3814.12208343641,9,9.62481281214998,1118.12363271072,3849.16206715708
67,48,1816,158,1,0,7,7.13,1,0,61.86,61.86,-59.29,-48.27,44,367.84,0.063,-3.0653,-0.5093,-3.4533,0.3929,-106.58,0.82,82,0,0.3985,1,-0.9158,"North Palm Springs Fire Sta #36",1241,5295,34.5981,-116.2645,14.8,16.2,33.9247,-116.5479,0.064289,0.17423,"S419",367.83555534074,0.82,33.925,-116.548,1096.8294294643,3772.64254715131,7,4.53973166535027,1118.12363271072,3849.16206715708
67,49,1817,158,1,0,7,7.13,1,0,110.72,110.72,-41.41,-127.48,44,382.07,0.0296,-3.0736,0.1959,-3.9948,0.3929,-158.04,0.72,82,0,0.3842,1,0.3522,"North Shore - Durmid",1280,11591,34.5981,-116.2645,14.8,16.2,33.421,-115.831,0.062505,0.11812,"S433",382.07,0.72,33.421,-115.831,1167.18729676213,3721.02326367553,8,9.45571037597347,1118.12363271072,3849.16206715708
67,50,1818,158,1,0,7,7.13,1,0,186.31,186.31,-170.18,64.91,44,508.08,0.012,-4.1886,0.5345,-4.8594,0.3929,-65.99,0.32,82,0,0.238,1,0.9611,"Pacoima Kagel Canyon",316,24088,34.5981,-116.2645,14.8,16.2,34.296,-118.375,0.03154,0.063076,"S299",508.082222183345,0.32,34.296,-118.375,925.791506668452,3804.67258290396,9,1.81566550641537,1118.12363271072,3849.16206715708
67,52,1820,158,1,0,7,7.13,1,0,171.89,171.89,-164.44,41.21,44,430.69,0.014,-5.0664,0.4196,-4.9464,0.3929,-73.07,0.1,82,0,0.3303,1,0.7546,"Pasadena - Fair Oaks & Walnut",1426,24691,34.5981,-116.2645,14.8,16.2,34.149,-118.15,0.035278,0.068617,"S526",430.69,0.1,34.149,-118.15,947.302306627816,3789.3194739422,4,0.534557496167668,1118.12363271072,3849.16206715708
67,53,1821,158,1,0,7,7.13,1,0,143.36,143.36,-142.13,15.08,44,384.44,0.0196,-4.1382,0.0576,-4.4284,0.3929,-82.5,0.32,82,0,0.3818,1,0.1036,"Pomona - 4th & Locust FF",302,23525,34.5981,-116.2645,14.8,16.2,34.056,-117.748,0.036101,0.070638,"S306",384.428571003863,0.32,34.056,-117.748,984.947090523483,3780.83286104091,5,1.32278512208011,1118.12363271072,3849.16206715708
67,54,1822,158,1,0,7,7.13,1,0,123.79,123.79,-122.45,-7.82,44,389.95,0.025,-4.3695,-0.5287,-4.3055,0.3929,-81.57,0.32,82,0,0.376,1,-0.9508,"Riverside Airport",275,13123,34.5981,-116.2645,14.8,16.2,33.951,-117.446,0.024722,0.088076,"S207",389.970832554262,0.32,33.951,-117.446,1013.49854325885,3770.64876021556,9,6.7397208843987,1118.12363271072,3849.16206715708
67,55,1823,158,1,0,7,7.13,1,0,123.25,123.25,-62.27,-134.57,44,324.5,0.0251,-3.22,0.0189,-4.0858,0.3929,-149.65,0.44,82,0,0.4362,1,0.0339,"Salton City",1283,11628,34.5981,-116.2645,14.8,16.2,33.28,-115.984,0.047096,0.13409,"S439",324.5,0.44,33.28,-115.984,1153.98074561743,3704.3667542663,8,0.901194789652521,1118.12363271072,3849.16206715708
67,56,1825,158,1,0,7,7.13,1,0,105.2,105.2,-103.43,-3.49,44,296.97,0.032,-2.7618,0.0756,-3.9478,0.3929,-79.49,0.34,82,0,0.4553,1,0.136,"San Bernardino - E & Hospitality",303,23542,34.5981,-116.2645,14.8,16.2,34.065,-117.292,0.065818,0.1005,"S412",296.97428552875,0.34,34.065,-117.292,1027.04627260833,3784.09749084897,6,1.66500028373693,1118.12363271072,3849.16206715708
67,57,1826,158,1,0,7,7.13,1,0,103.62,103.62,-101.41,-1.14,44,279.46,0.0327,-2.7265,-0.3206,-3.9004,0.3929,-78.15,0.32,82,0,0.4655,1,-0.5765,"San Bernardino - Fire Sta. #10",1253,5339,34.5981,-116.2645,14.8,16.2,34.091,-117.289,0.045925,0.13037,"S527",279.473332697236,0.32,34.091,-117.289,1027.16176973581,3787.00124516141,6,4.07192456075155,1118.12363271072,3849.16206715708
67,58,1827,158,1,0,7,7.13,1,0,101.71,101.71,-98.37,3.75,44,322.53,0.0336,-3.7549,-0.2342,-3.9909,0.3929,-75.29,0.32,82,0,0.4377,1,-0.4212,"San Bernardino - Fire Sta. #4",1252,5337,34.5981,-116.2645,14.8,16.2,34.14,-117.294,0.048842,0.1027,"S528",322.516666322151,0.32,34.14,-117.294,1026.39461852872,3792.41852233003,6,3.86538407681358,1118.12363271072,3849.16206715708
67,59,1828,158,1,0,7,7.13,1,0,108.02,108.02,-104.9,2.55,44,325.97,0.0307,-3.6409,-0.3181,-4.0513,0.3929,-76.19,0.32,82,0,0.435,1,-0.5721,"San Bernardino - Fire Sta. #9",1249,5330,34.5981,-116.2645,14.8,16.2,34.103,-117.349,0.041081,0.083107,"S529",325.984999654892,0.32,34.103,-117.349,1021.54270645346,3788.02502178734,6,0.450792057432281,1118.12363271072,3849.16206715708
