"i","j","recID","eqid","region","SOF","magBin","mag","rake","ZTOR","Rrup","RJB","RX","RY","FLen","VS30","rockPGA","lnY","intra.Resid","Median","eventTerm","srcSiteA","z1","dip","Z1_1D","Z1_Ref","iregion.i.","epsilon_within","Station.Name","Station.Sequence.Number","Station.ID..No.","Hypocenter.Latitude..deg.","Hypocenter.Longitude..deg.","Hypocenter.Depth..km.","Fault.Rupture.Width..km.","Station.Latitude","Station.Longitude","PGA..g.","T0.200S","STATID","VS30_gmean","Z1_mean","Lat_stat","Lon_stat","X_stat","Y_stat","Basin_ID","D_basin","X_eq","Y_eq"
48,58,890,125,1,0,7,7.28,0,0,150.1,150.1,-149.13,9.52,71.8,339.06,0.0187,-2.1982,0.4681,-2.9161,0.2992,-83.49,0.62,90,0,0.4245,1,0.8418,"Santa Fe Springs - E.Joslin",570,90077,34.2,-116.436,7,15,33.944,-118.087,0.056124,0.13237,"S311",339.06,0.62,33.944,-118.087,954.213317081021,3766.83675533406,1,6.10240397662044,1105.23669257943,3803.86990309112
48,59,891,125,1,0,7,7.28,0,0,50.85,50.85,-40.94,-51.2,71.8,659.09,0.0773,-2.069,-0.8521,-1.7374,0.2992,-126.4,-999,90,0,0.0972,1,-1.5324,"Silent Valley - Poppet Flat",271,12206,34.2,-116.436,7,15,33.851,-116.852,0.04557,0.091937,"S211",659.09,-999,33.851,-116.852,1069.1605638679,3762.68443369407,9,22.3236925977208,1105.23669257943,3803.86990309112
48,60,892,125,1,0,7,7.28,0,0,163.54,163.54,-151.94,50.72,71.8,320.93,0.016,-2.8965,0.0082,-3.0573,0.2992,-68.28,0.36,90,0,0.4389,1,0.0147,"Sun Valley - Roscoe Blvd",515,90006,34.2,-116.436,7,15,34.221,-118.421,0.031231,0.056779,"S314",320.93,0.36,34.221,-118.421,921.92866161195,3796.15436223675,3,4.74926982077174,1105.23669257943,3803.86990309112
48,61,893,125,1,0,7,7.28,0,0,158.25,158.25,-147.11,50.04,71.8,393.67,0.017,-3.369,-0.3585,-3.1228,0.2992,-68.37,0.4,90,0,0.372,1,-0.6446,"Sun Valley - Sunland",517,90008,34.2,-116.436,7,15,34.235,-118.366,0.020981,0.039375,"S315",393.67,0.4,34.235,-118.366,926.929793014171,3797.93841925952,9,0.549429768375011,1105.23669257943,3803.86990309112
48,62,894,125,1,0,7,7.28,0,0,151.53,151.53,-140.25,51.09,71.8,402.16,0.0184,-3.1578,-0.0439,-3.0473,0.2992,-67.76,0.1,90,0,0.3628,1,-0.0789,"Sunland - Mt Gleason Ave",553,90058,34.2,-116.436,7,15,34.269,-118.303,0.030805,0.051392,"S316",402.16,0.1,34.269,-118.303,932.564181279687,3801.979805025,9,3.77932196151113,1105.23669257943,3803.86990309112
48,63,895,125,1,0,7,7.28,0,0,175.65,175.65,-164.23,48.88,71.8,257.21,0.014,-2.4961,0.5725,-3.069,0.2992,-69.23,0.32,90,0,0.4763,1,1.0295,"Tarzana - Cedar Hill",340,24436,34.2,-116.436,7,15,34.16,-118.534,0.05225,0.1234,"S319",257.21,0.32,34.16,-118.534,911.805673334943,3788.91944262774,3,0.146783680421362,1105.23669257943,3803.86990309112
48,64,896,125,1,0,7,7.28,0,0,136.72,136.72,-131.62,-23.28,71.8,303.09,0.0219,-2.551,-0.0564,-2.6656,0.2992,-105.71,0.32,90,0,0.4514,1,-0.1013,"Tustin - E Sycamore",582,90089,34.2,-116.436,7,15,33.7278,-117.824,0.0405,0.10858,"S413",303.09,0.32,33.728,-117.824,979.762285414825,3744.05008232815,1,2.92385691359696,1105.23669257943,3803.86990309112
48,65,897,125,1,0,7,7.28,0,0,41.43,41.43,37.99,-57.01,71.8,635.01,0.0944,-1.486,-0.6607,-1.5001,0.2992,114,0.02,90,0,0.114,1,-1.1882,"Twentynine Palms",297,22161,34.2,-116.436,7,15,34.021,-116.009,0.067687,0.20579,"S414",635.01,0.02,34.021,-116.009,1146.04700372155,3786.60222132964,9,34.8044453428495,1105.23669257943,3803.86990309112
48,66,898,125,1,0,7,7.28,0,0,132.94,132.94,-130.23,-13.96,71.8,416.93,0.0229,-2.752,-0.2335,-2.8164,0.2992,-101.59,0.32,90,0,0.3463,1,-0.4198,"Villa Park - Serrano Ave",583,90090,34.2,-116.436,7,15,33.821,-117.818,0.030987,0.074467,"S323",416.93,0.32,33.821,-117.818,979.798312586285,3754.40557955498,9,0.510091000848359,1105.23669257943,3803.86990309112
48,67,899,125,1,0,7,7.28,0,0,132.32,132.32,-130.96,16.57,71.8,334.69,0.0231,-2.6331,0.08,-2.6674,0.2992,-81.79,0.34,90,0,0.4281,1,0.1438,"West Covina - S Orange Ave",565,90071,34.2,-116.436,7,15,34.064,-117.952,0.046907,0.072774,"S324",334.69,0.34,34.064,-117.952,966.048033960579,3780.76951189694,4,3.09386738737235,1105.23669257943,3803.86990309112
48,69,3752,125,1,0,7,7.28,0,0,45.34,45.34,-45.21,-24.1,71.8,436.14,0.0866,-1.198,-0.2461,-1.4009,0.2992,-94.33,-999,90,0,0.3239,1,-0.4426,"Forest Falls Post Office",1218,5075,34.2,-116.436,7,15,34.088,-116.919,0.10786,0.29492,"S416",436.14,-999,34.088,-116.919,1061.38141966354,3788.64758101559,9,14.8771606767293,1105.23669257943,3803.86990309112
48,70,3753,125,1,0,7,7.28,0,0,25.02,25.02,2.3,-58.31,71.8,388.63,0.1463,-0.8828,-0.1105,-0.8694,0.2992,175,0.14,90,0,0.3774,1,-0.1987,"Fun Valley",221,5069,34.2,-116.436,7,15,33.925,-116.389,0.21019,0.68311,"S193",388.63,0.14,33.925,-116.389,1111.5617875567,3773.58397215335,9,3.4881997428606,1105.23669257943,3803.86990309112
48,71,3754,125,1,0,7,7.28,0,0,48.84,48.84,16.92,-79.98,71.8,292.12,0.0805,-1.1975,0.4538,-1.3171,0.2992,160,1.58,90,0,0.4583,1,0.8161,"Indio - Jackson Road",1240,5294,34.2,-116.436,7,15,33.7462,-116.2163,0.2325,0.397,"S417",292.12,1.58,33.746,-116.216,1128.91152538214,3754.73498967103,7,0.970612463993085,1105.23669257943,3803.86990309112
48,73,3757,125,1,0,7,7.28,0,0,26.95,26.95,-12.34,-54.66,71.8,367.84,0.1377,-1.1759,-0.5149,-0.9098,0.2992,-152.75,0.82,90,0,0.3985,1,-0.9259,"North Palm Springs Fire Sta #36",1241,5295,34.2,-116.436,7,15,33.9247,-116.5479,0.13359,0.3228,"S419",367.83555534074,0.82,33.925,-116.548,1096.8294294643,3772.64254715131,7,4.53973166535027,1105.23669257943,3803.86990309112
48,74,3758,125,1,0,7,7.28,0,0,36.93,36.93,0.99,-68.77,71.8,333.89,0.1049,-1.108,-0.5473,-1.1217,0.2992,178,1.6,90,0,0.4288,1,-0.9842,"Thousand Palms Post Office",1651,5068,34.2,-116.436,7,15,33.8166,-116.3945,0.10457,0.30149,"S420",333.892499971922,1.6,33.817,-116.394,1111.87335136079,3761.54916289325,7,1.99056900719552,1105.23669257943,3803.86990309112
48,75,3759,125,1,0,7,7.28,0,0,27.05,27.05,-21.79,-45.14,71.8,425.02,0.1373,-1.2089,-0.472,-0.9493,0.2992,-126.32,0.1,90,0,0.337,1,-0.8488,"Whitewater Trout Farm",224,5072,34.2,-116.436,7,15,33.99,-116.656,0.134,0.31327,"S214",425.01749994853,0.1,33.99,-116.656,1086.37491239148,3779.24003977043,9,4.15050106227951,1105.23669257943,3803.86990309112
48,76,3760,125,1,0,7,7.28,0,0,45.48,45.48,-45.48,-9.28,71.8,430.36,0.0863,-0.7523,0.2444,-1.3979,0.2992,-90,-999,90,0,0.3307,1,0.4396,"Big Bear Lake - Civic Center",1388,22561,34.2,-116.436,7,15,34.238,-116.935,0.17983,0.40685,"S421",430.36,-999,34.238,-116.935,1058.90782109958,3805.22610210958,9,21.9777014240378,1105.23669257943,3803.86990309112
49,1,901,126,1,0,6,6.46,-10,3.93,8.3,7.31,-7.31,-6.63,22.4,430.36,0.3259,0.3608,0.105,-0.415,0.4174,-90,-999,85,0,0.3307,1,0.1728,"Big Bear Lake - Civic Center",1388,22561,34.21,-116.83,13,9.5,34.238,-116.935,0.52458,1.1121,"S421",430.36,-999,34.238,-116.935,1058.90782109958,3805.22610210958,9,21.9777014240378,1068.78671479433,3802.69908925408
49,2,902,126,1,0,6,6.46,-10,3.93,40.54,39.52,40.35,7.84,22.4,359,0.0721,-0.9489,0.4941,-1.6383,0.4174,90,0.34,85,0,0.4069,1,0.8128,"Desert Hot Springs",267,12149,34.21,-116.83,13,9.5,33.962,-116.509,0.2029,0.44942,"S192",359,0.34,33.962,-116.509,1100.18159323679,3776.98371512629,7,1.41227143299073,1068.78671479433,3802.69908925408
49,3,903,126,1,0,6,6.46,-10,3.93,112.02,111.27,112.1,5.82,22.4,370.6,0.0178,-2.1985,0.3764,-3.0914,0.4174,90,0.26,85,0,0.3958,1,0.6193,"Desert Shores",1291,12626,34.21,-116.83,13,9.5,33.426,-116.078,0.045514,0.083323,"S422",370.6,0.26,33.426,-116.078,1144.11805229002,3720.01127567215,8,0.49976271787259,1068.78671479433,3802.69908925408
49,5,905,126,1,0,6,6.46,-10,3.93,78.91,78.81,-14.99,-88.46,22.4,367.54,0.0307,-2.3772,-0.434,-2.4966,0.4174,-169.04,-999,85,0,0.3988,1,-0.714,"Featherly Park - Maint",274,13122,34.21,-116.83,13,9.5,33.869,-117.709,0.035154,0.076788,"S250",367.54,-999,33.869,-117.709,989.626455739907,3760.25164904744,9,7.35951926249234,1068.78671479433,3802.69908925408
49,6,906,126,1,0,6,6.46,-10,3.93,48.39,47.6,36.72,-42.36,22.4,328.09,0.0585,-1.5927,-0.1501,-1.7976,0.4174,130.41,-999,85,0,0.4334,1,-0.2469,"Hemet Fire Station",272,12331,34.21,-116.83,13,9.5,33.729,-116.979,0.0897,0.16844,"S9",328.0927272425,-999,33.729,-116.979,1058.18187091981,3748.43001980908,9,38.0538905410939,1068.78671479433,3802.69908925408
49,7,907,126,1,0,6,6.46,-10,3.93,44.65,44.48,-42.51,-24.07,22.4,358.36,0.0644,-1.5343,-0.4373,-1.7427,0.4174,-107.13,-999,85,0,0.4075,1,-0.7195,"Hesperia - 4th & Palm",1400,23583,34.21,-116.83,13,9.5,34.405,-117.313,0.072829,0.2389,"S424",358.375999464258,-999,34.405,-117.313,1022.98882112793,3821.75747328469,9,22.0930954584896,1068.78671479433,3802.69908925408
49,8,908,126,1,0,6,6.46,-10,3.93,81.84,80.98,81.39,19.01,22.4,339.02,0.0291,-2.198,-0.0755,-2.5061,0.4174,84.24,1.16,85,0,0.4245,1,-0.1242,"Indio - Coachella Canal",266,12026,34.21,-116.83,13,9.5,33.717,-116.155,0.049464,0.12782,"S197",339.02,1.16,33.717,-116.155,1134.79174061941,3751.88693567321,9,0.667664221205795,1068.78671479433,3802.69908925408
49,9,909,126,1,0,6,6.46,-10,3.93,78.21,77.33,78.1,13.84,22.4,282.14,0.0311,-1.5133,0.0596,-2.3398,0.4174,87.76,2.28,85,0,0.464,1,0.0981,"Indio - Riverside Co Fair Grnds",1289,12543,34.21,-116.83,13,9.5,33.715,-116.221,0.064832,0.2213,"S425",282.14,2.28,33.715,-116.221,1128.6746636344,3751.25798570244,8,0.56215928892574,1068.78671479433,3802.69908925408
49,10,910,126,1,0,6,6.46,-10,3.93,41.87,40.99,35.24,33.32,22.4,379.32,0.0695,-1.9977,-0.6128,-1.6945,0.4174,57.71,-999,85,0,0.387,1,-1.0081,"Joshua Tree",298,22170,34.21,-116.83,13,9.5,34.13,-116.314,0.063395,0.1809,"S198",379.32,-999,34.13,-116.314,1117.01669939547,3796.82427395701,9,24.3404949421387,1068.78671479433,3802.69908925408
49,11,912,126,1,0,6,6.46,-10,3.93,115.01,114.94,-56.47,-111.12,22.4,365.22,0.017,-2.2805,0.4994,-3.1316,0.4174,-150.58,0.32,85,0,0.401,1,0.8216,"LA - City Terrace",353,24592,34.21,-116.83,13,9.5,34.053,-118.171,0.050804,0.16079,"S426",365.22,0.32,34.053,-118.171,945.868682694138,3778.56875037486,9,2.96176288966282,1068.78671479433,3802.69908925408
49,12,913,126,1,0,6,6.46,-10,3.93,121.82,121.75,-61.05,-116.33,22.4,452.15,0.0154,-2.9389,-0.0015,-3.3837,0.4174,-149.9,0.32,85,0,0.3049,1,-0.0024,"LA - Temple & Hope",357,24611,34.21,-116.83,13,9.5,34.059,-118.246,0.025373,0.058047,"S427",452.157142518647,0.32,34.059,-118.246,938.906793997517,3778.90955909279,9,1.37746629385185,1068.78671479433,3802.69908925408
49,13,914,126,1,0,6,6.46,-10,3.93,117.38,117.32,-58.74,-112.55,22.4,332.28,0.0164,-2.7143,0.413,-3.11,0.4174,-149.96,0.32,85,0,0.4301,1,0.6795,"Los Angeles - 7-story Univ Hospital (FF)",354,24605,34.21,-116.83,13,9.5,34.062,-118.198,0.046775,0.099776,"S428",332.28,0.32,34.062,-118.198,943.326527740152,3779.45026863754,9,3.78082462465233,1068.78671479433,3802.69908925408
49,14,915,126,1,0,6,6.46,-10,3.93,82.98,82.12,82.96,3.52,22.4,473.8,0.0285,-2.2859,-0.1895,-2.7282,0.4174,90,0.08,85,0,0.2788,1,-0.3118,"Lake Cachulla",1290,12624,34.21,-116.83,13,9.5,33.628,-116.28,0.034262,0.05797,"S429",473.8,0.08,33.628,-116.28,1123.82523258611,3741.22636038792,9,0.780148072058013,1068.78671479433,3802.69908925408
49,15,916,126,1,0,6,6.46,-10,3.93,104.81,104.03,104.24,22.01,22.4,318,0.0198,-1.9997,0.5524,-2.8749,0.4174,83.78,2.18,85,0,0.441,1,0.9088,"Mecca - CVWD Yard",1282,11625,34.21,-116.83,13,9.5,33.564,-115.987,0.066135,0.21334,"S430",318,2.18,33.564,-115.987,1151.56072025984,3735.92736912681,8,1.4866504963852,1068.78671479433,3802.69908925408
49,16,917,126,1,0,6,6.46,-10,3.93,67.85,67.74,-45.41,-61.33,22.4,444.74,0.0379,-2.5873,-0.4907,-2.3839,0.4174,-137.9,-999,85,0,0.3137,1,-0.8073,"Mt Baldy - Elementary Sch",305,23572,34.21,-116.83,13,9.5,34.233,-117.661,0.038136,0.084221,"S431",444.74,-999,34.233,-117.661,991.957788840112,3800.90785838813,9,8.83266091495526,1068.78671479433,3802.69908925408
49,17,918,126,1,0,6,6.46,-10,3.93,107.26,107.18,-4.09,-118.15,22.4,339.6,0.0191,-2.4292,0.3074,-2.9566,0.4174,-177.81,0.32,85,0,0.4241,1,0.5057,"Newport Bch - Irvine Ave. F.S",276,13160,34.21,-116.83,13,9.5,33.634,-117.902,0.047658,0.1129,"S432",339.6,0.32,33.634,-117.902,973.041500965163,3733.25084975105,1,2.24754746876666,1068.78671479433,3802.69908925408
49,18,919,126,1,0,6,6.46,-10,3.93,126.23,125.54,125.56,24.76,22.4,382.07,0.0144,-2.1972,0.7082,-3.343,0.4174,83.51,0.72,85,0,0.3842,1,1.1651,"North Shore - Durmid",1280,11591,34.21,-116.83,13,9.5,33.421,-115.831,0.052073,0.095868,"S433",382.07,0.72,33.421,-115.831,1167.18729676213,3721.02326367553,8,9.45571037597347,1068.78671479433,3802.69908925408
49,19,920,126,1,0,6,6.46,-10,3.93,114.31,113.58,113.64,23.8,22.4,265.16,0.0172,-1.6275,0.7971,-2.9213,0.4174,83.36,0.52,85,0,0.4727,1,1.3114,"North Shore - Salton Sea Pk HQ",1281,11613,34.21,-116.83,13,9.5,33.504,-115.913,0.078282,0.21337,"S434",265.16,0.52,33.504,-115.913,1158.90773760134,3729.72631656002,8,3.06032595209576,1068.78671479433,3802.69908925408
49,20,921,126,1,0,6,6.46,-10,3.93,52.48,51.51,52.34,-1.07,22.4,312.47,0.0529,-1.7806,-0.2138,-1.871,0.4174,90,0.38,85,0,0.445,1,-0.3517,"Palm Springs Airport",265,12025,34.21,-116.83,13,9.5,33.829,-116.512,0.078272,0.17093,"S204",312.47,0.38,33.829,-116.512,1100.84131398629,3762.18363909344,7,3.10524398424876,1068.78671479433,3802.69908925408
49,21,922,126,1,0,6,6.46,-10,3.93,95.94,95.86,-79.03,-65.21,22.4,624.01,0.0229,-2.6026,-0.0664,-3.1523,0.4174,-124.47,-999,85,0,0.1224,1,-0.1092,"Pear Blossom - Pallet Creek",1401,23584,34.21,-116.83,13,9.5,34.458,-117.909,0.030615,0.071884,"S435",624.01,-999,34.458,-117.909,967.827475543867,3824.71828623221,9,34.2426868381766,1068.78671479433,3802.69908925408
49,22,923,126,1,0,6,6.46,-10,3.93,64.16,64.04,-59.12,-35.57,22.4,333.41,0.0409,-2.1596,-0.2999,-2.1503,0.4174,-112.6,-999,85,0,0.4292,1,-0.4934,"Phelan - Wilson Ranch",310,23597,34.21,-116.83,13,9.5,34.467,-117.52,0.055419,0.11066,"S436",333.41,-999,34.467,-117.52,1003.55759057868,3827.59105178826,9,31.5653137014641,1068.78671479433,3802.69908925408
49,23,924,126,1,0,6,6.46,-10,3.93,95.86,95.08,89.38,-45.46,22.4,442.7,0.0229,-1.7757,0.4634,-2.9255,0.4174,111.17,-999,85,0,0.3162,1,0.7624,"Puerta La Cruz",268,12168,34.21,-116.83,13,9.5,33.324,-116.683,0.059625,0.12559,"S205",442.7,-999,33.324,-116.683,1088.41665768996,3705.07045930079,9,49.1912652280984,1068.78671479433,3802.69908925408
49,24,925,126,1,0,6,6.46,-10,3.93,59.87,59.74,-35.23,-59.34,22.4,509.1,0.0448,-2.3873,-0.4719,-2.2865,0.4174,-143.86,0.02,85,0,0.2368,1,-0.7764,"Rancho Cucamonga - Deer Can",311,23598,34.21,-116.83,13,9.5,34.169,-117.579,0.043321,0.11874,"S437",509.1,0.02,34.169,-117.579,999.901035016063,3794.20042760489,9,0.590128912721065,1068.78671479433,3802.69908925408
49,25,926,126,1,0,6,6.46,-10,3.93,59.75,59.62,-29.07,-63.16,22.4,390.18,0.0449,-2.1362,-0.5821,-2.1362,0.4174,-150.82,0.32,85,0,0.3758,1,-0.9576,"Rancho Cucamonga - Law and Justince Center FF, Foothill and Haven",301,23497,34.21,-116.83,13,9.5,34.104,-117.574,0.042608,0.15651,"S206",390.183999917989,0.32,34.104,-117.574,1000.74744173866,3787.00577958706,5,5.95979130735482,1068.78671479433,3802.69908925408
49,26,927,126,1,0,6,6.46,-10,3.93,53.1,52.95,-8.35,-63.41,22.4,389.95,0.0522,-2.1921,-0.7009,-1.9848,0.4174,-170.93,0.32,85,0,0.376,1,-1.1531,"Riverside Airport",275,13123,34.21,-116.83,13,9.5,33.951,-117.446,0.043625,0.14425,"S207",389.970832554262,0.32,33.951,-117.446,1013.49854325885,3770.64876021556,9,6.7397208843987,1068.78671479433,3802.69908925408
49,27,928,126,1,0,6,6.46,-10,3.93,64.71,63.92,52.84,-48.2,22.4,564.11,0.0404,-0.5402,1.0544,-2.4579,0.4174,125.11,-999,85,0,0.1765,1,1.7346,"Sage - Fire Station",1293,12636,34.21,-116.83,13,9.5,33.58,-116.931,0.17189,0.19599,"S438",564.11,-999,33.58,-116.931,1063.61366542083,3732.13623625569,9,42.7337429024458,1068.78671479433,3802.69908925408
49,28,929,126,1,0,6,6.46,-10,3.93,130.29,129.61,130.44,3.2,22.4,324.5,0.0136,-1.9517,1.0671,-3.3003,0.4174,90,0.44,85,0,0.4362,1,1.7556,"Salton City",1283,11628,34.21,-116.83,13,9.5,33.28,-115.984,0.075444,0.18137,"S439",324.5,0.44,33.28,-115.984,1153.98074561743,3704.3667542663,8,0.901194789652521,1068.78671479433,3802.69908925408
49,29,930,126,1,0,6,6.46,-10,3.93,33.79,33.56,-13.74,-41.77,22.4,325.83,0.0886,-1.1688,-0.4173,-1.4268,0.4174,-155.84,0.32,85,0,0.4351,1,-0.6865,"San Bernardino - 2nd & Arrowhead",1399,23522,34.21,-116.83,13,9.5,34.103,-117.288,0.10238,0.33166,"S440",325.83,0.32,34.103,-117.288,1027.17944044444,3788.33945268084,6,4.98278336604676,1068.78671479433,3802.69908925408
49,30,931,126,1,0,6,6.46,-10,3.93,35.2,34.98,-10.5,-44.51,22.4,296.97,0.0847,-1.6718,-0.4776,-1.4433,0.4174,-162.54,0.34,85,0,0.4553,1,-0.7857,"San Bernardino - E & Hospitality",303,23542,34.21,-116.83,13,9.5,34.065,-117.292,0.094653,0.18754,"S412",296.97428552875,0.34,34.065,-117.292,1027.04627260833,3784.09749084897,6,1.66500028373693,1068.78671479433,3802.69908925408
49,31,932,126,1,0,6,6.46,-10,3.93,44.82,44,34.91,-38.94,22.4,330.74,0.0641,-1.9392,-0.7566,-1.7158,0.4174,128.58,-999,85,0,0.4313,1,-1.2447,"San Jacinto - Valley Cemetary",269,12202,34.21,-116.83,13,9.5,33.76,-116.96,0.053602,0.088017,"S209",330.72999954644,-999,33.76,-116.96,1059.74332993115,3751.97791875473,9,34.967078821804,1068.78671479433,3802.69908925408
49,32,933,126,1,0,6,6.46,-10,3.93,115.63,115.57,-25.03,-123.85,22.4,296.62,0.0168,-2.5367,0.1391,-3.0106,0.4174,-167.49,0.54,85,0,0.4555,1,0.2289,"Seal Beach - Office Bldg",294,14578,34.21,-116.83,13,9.5,33.757,-118.084,0.038387,0.094087,"S441",296.62,0.54,33.757,-118.084,955.485715625203,3746.08726305766,1,4.28133384781016,1068.78671479433,3802.69908925408
49,33,934,126,1,0,6,6.46,-10,3.93,35.41,34.43,32.35,-24.92,22.4,659.09,0.0841,-1.7404,-0.547,-1.7676,0.4174,113.18,-999,85,0,0.0972,1,-0.8999,"Silent Valley - Poppet Flat",271,12206,34.21,-116.83,13,9.5,33.851,-116.852,0.066623,0.13623,"S211",659.09,-999,33.851,-116.852,1069.1605638679,3762.68443369407,9,22.3236925977208,1068.78671479433,3802.69908925408
49,34,935,126,1,0,6,6.46,-10,3.93,38.07,37.04,37.87,-9.55,22.4,523.59,0.0775,-1.1702,0.1856,-1.7327,0.4174,90,-999,85,0,0.2201,1,0.3053,"Snow Creek",1292,12630,34.21,-116.83,13,9.5,33.888,-116.684,0.13615,0.35445,"S442",523.59,-999,33.888,-116.684,1084.48343593803,3767.74384806304,9,6.29628657691978,1068.78671479433,3802.69908925408
49,35,937,126,1,0,6,6.46,-10,3.93,76.76,76.13,48.86,-70.13,22.4,416.15,0.0319,-2.4178,-0.1889,-2.5272,0.4174,140.4,-999,85,0,0.3472,1,-0.3108,"Temecula - 6th & Mercedes",277,13172,34.21,-116.83,13,9.5,33.496,-117.149,0.044297,0.079255,"S213",416.168749296048,-999,33.496,-117.149,1043.86895914131,3721.63349686578,9,51.6609415987768,1068.78671479433,3802.69908925408
49,36,938,126,1,0,6,6.46,-10,3.93,59.99,59.33,38.7,-56.76,22.4,537.95,0.0446,-2.1883,0.0456,-2.3218,0.4174,139.73,-999,85,0,0.2041,1,0.075,"Winchester Bergman Ran",280,13199,34.21,-116.83,13,9.5,33.64,-117.094,0.069818,0.093741,"S215",537.95,-999,33.64,-117.094,1048.07334705529,3737.92285021343,9,45.8107051693343,1068.78671479433,3802.69908925408
49,37,939,126,1,0,6,6.46,-10,3.93,59.2,59.07,-46.57,-47.41,22.4,506,0.0454,-1.6656,-0.1474,-2.2675,0.4174,-127.97,-999,85,0,0.2404,1,-0.2425,"Wrightwood - Nielson Ranch",306,23573,34.21,-116.83,13,9.5,34.314,-117.545,0.058927,0.13647,"S443",506,-999,34.314,-117.545,1002.17446498979,3810.47307290891,9,16.2359006308493,1068.78671479433,3802.69908925408
49,38,940,126,1,0,6,6.46,-10,3.93,70.94,70.83,-57.58,-52.28,22.4,476.64,0.0356,-1.4725,0.3549,-2.49,0.4174,-125.62,-999,85,0,0.2754,1,0.5839,"Wrightwood - Swarthout",307,23574,34.21,-116.83,13,9.5,34.369,-117.658,0.081199,0.23021,"S444",476.64,-999,34.369,-117.658,991.438583022502,3816.02661000954,9,23.6853077303195,1068.78671479433,3802.69908925408
49,40,6057,126,1,0,6,6.46,-10,3.93,26.47,26.18,-12.75,-34.02,22.4,362.39,0.115,-1.2089,-0.3726,-1.2313,0.4174,-151,0.32,85,0,0.4037,1,-0.613,"Highland Fire Station",1220,5161,34.21,-116.83,13,9.5,34.136,-117.213,0.12939,0.48569,"S445",362.395454511247,0.32,34.136,-117.213,1033.90174540423,3792.39672445503,6,0.627221576974224,1068.78671479433,3802.69908925408
