"i","j","recID","eqid","region","SOF","magBin","mag","rake","ZTOR","Rrup","RJB","RX","RY","FLen","VS30","rockPGA","lnY","intra.Resid","Median","eventTerm","srcSiteA","z1","dip","Z1_1D","Z1_Ref","iregion.i.","epsilon_within","Station.Name","Station.Sequence.Number","Station.ID..No.","Hypocenter.Latitude..deg.","Hypocenter.Longitude..deg.","Hypocenter.Depth..km.","Fault.Rupture.Width..km.","Station.Latitude","Station.Longitude","PGA..g.","T0.200S","STATID","VS30_gmean","Z1_mean","Lat_stat","Lon_stat","X_stat","Y_stat","Basin_ID","D_basin","X_eq","Y_eq"
108,22,5844,280,1,0,7,7.2,0,0.61,130.97,130.97,-115.39,149.57,125,403.47,0.0172,-5.3852,0.4454,-5.4112,0.0168,-62,-999,50,0,0.3614,1,0.8009,"San Diego - 8th & J St",2981,3145,32.3,-115.267,5.5,14.4,32.71,-117.158,0.046042,0.090512,"S832",403.47,-999,32.71,-117.158,1047.91088151398,3634.26492558906,9,110.259206252528,1228.98840318327,3600.07469698593
108,23,5845,280,1,0,7,7.2,0,0.61,132.11,132.11,-115.35,151.84,125,427.13,0.0169,-5.4328,0.1941,-5.4626,0.0168,-61,-999,50,0,0.3345,1,0.3491,"San Diego - I5 & Laurel",2982,3146,32.3,-115.267,5.5,14.4,32.73,-117.169,0.034537,0.064206,"S833",427.13,-999,32.73,-117.169,1046.75506593542,3636.42975543357,9,110.396081136609,1228.98840318327,3600.07469698593
108,24,5846,280,1,0,7,7.2,0,0.61,127.38,127.37,-112.57,146.61,125,371.81,0.0179,-5.4198,0.3308,-5.3272,0.0168,-62,-999,50,0,0.3946,1,0.5949,"San Diego - Hwy 15 & Ocean",2983,3147,32.3,-115.267,5.5,14.4,32.702,-117.12,0.044524,0.098851,"S834",371.81,-999,32.702,-117.12,1051.52950561875,3633.57412756626,9,107.314111840991,1228.98840318327,3600.07469698593
108,25,5847,280,1,0,7,7.2,0,0.61,123.83,123.83,-107.6,146.8,125,413.94,0.0188,-5.6819,0.3525,-5.3942,0.0168,-60,-999,50,0,0.3497,1,0.634,"San Diego - 54th & College",2984,3148,32.3,-115.267,5.5,14.4,32.735,-117.08,0.045458,0.078192,"S835",413.94,-999,32.735,-117.08,1055.08147197852,3637.45030100395,9,102.416166349407,1228.98840318327,3600.07469698593
108,26,5848,280,1,0,7,7.2,0,0.61,140.73,140.73,-119.45,162.28,125,395.25,0.0152,-5.463,0.1626,-5.4434,0.0168,-58,-999,50,0,0.3703,1,0.2924,"Pacific Beach - Mission",2985,3150,32.3,-115.267,5.5,14.4,32.795,-117.255,0.031259,0.073915,"S836",395.25,-999,32.795,-117.255,1038.28661043073,3643.20788978927,9,106.636636762462,1228.98840318327,3600.07469698593
108,27,5849,280,1,0,7,7.2,0,0.61,133.67,133.66,-111.4,159.55,125,375.61,0.0166,-5.5468,0.0057,-5.3677,0.0168,-56,-999,50,0,0.3908,1,0.0103,"San Diego - Balboa",2986,3151,32.3,-115.267,5.5,14.4,32.822,-117.175,0.029534,0.087485,"S837",375.61,-999,32.822,-117.175,1045.62717068776,3646.61936146444,9,107.679486060582,1228.98840318327,3600.07469698593
108,28,5850,280,1,0,7,7.2,0,0.61,116.84,116.84,-102.65,140.35,125,441.78,0.0205,-5.8559,0.2612,-5.4077,0.0168,-61,-999,50,0,0.3173,1,0.4698,"Spring Valley - Jamacha",2987,3152,32.3,-115.267,5.5,14.4,32.71,-117.007,0.043383,0.14414,"S838",441.78,-999,32.71,-117.007,1062.09421127848,3635.05936909756,9,97.0665412441812,1228.98840318327,3600.07469698593
108,29,5851,280,1,0,7,7.2,0,0.61,125.58,125.58,-108.12,149.36,125,374.5,0.0183,-5.638,0.0492,-5.3234,0.0168,-59,-999,50,0,0.3919,1,0.0885,"San Diego - 45th & Orange",2988,3154,32.3,-115.267,5.5,14.4,32.754,-117.097,0.034268,0.064851,"S839",374.5,-999,32.754,-117.097,1053.36707645714,3639.4718361157,9,103.118061708303,1228.98840318327,3600.07469698593
108,30,5852,280,1,0,7,7.2,0,0.61,132.44,132.44,-104.12,164.97,125,385.54,0.0168,-5.5345,-0.2538,-5.3823,0.0168,-52,-999,50,0,0.3806,1,-0.4564,"San Diego - Mira Mesa",2989,3156,32.3,-115.267,5.5,14.4,32.915,-117.142,0.022655,0.060395,"S840",385.54,-999,32.915,-117.142,1048.14739900067,3657.12306782032,9,102.187061336116,1228.98840318327,3600.07469698593
108,31,5853,280,1,0,7,7.2,0,0.61,139.41,139.41,-113.11,167.12,125,477.44,0.0155,-5.4144,0.6502,-5.5882,0.0168,-54,-999,50,0,0.2744,1,1.1692,"La Jolla - UCSD Hospital Grnds",2990,3234,32.3,-115.267,5.5,14.4,32.877,-117.227,0.047047,0.16431,"S841",477.44,-999,32.877,-117.227,1040.414393587,3652.46081258876,9,100.72884269155,1228.98840318327,3600.07469698593
108,32,5854,280,1,0,7,7.2,0,0.61,124.41,124.4,-93.82,162.02,125,351.77,0.0186,-5.4494,0.1037,-5.2671,0.0168,-49,-999,50,0,0.4135,1,0.1864,"Poway - Community Rd",2991,3260,32.3,-115.267,5.5,14.4,32.954,-117.042,0.036711,0.088622,"S842",351.77,-999,32.954,-117.042,1057.27252615481,3661.9831348906,9,92.2782572391498,1228.98840318327,3600.07469698593
108,33,5855,280,1,0,7,7.2,0,0.61,131.83,131.83,-113.77,153.45,125,516.97,0.017,-5.544,0.4151,-5.6139,0.0168,-60,-999,50,0,0.2277,1,0.7465,"San Diego - UCSD Hospital Grnds",1665,3746,32.3,-115.267,5.5,14.4,32.754,-117.164,0.03951,0.076331,"S843",516.97,-999,32.754,-117.164,1047.0771746906,3639.12198381269,9,109.020782921618,1228.98840318327,3600.07469698593
108,34,5856,280,1,0,7,7.2,0,0.61,141.04,140.94,133.19,75.16,125,224.32,0.0152,-5.7365,-0.191,-4.9918,0.0168,67,-999,50,0,0.4883,1,-0.3435,"Blythe - Fire Station",2992,10021,32.3,-115.267,5.5,14.4,33.61,-114.715,0.027651,0.057095,"S844",224.32,-999,33.61,-114.715,1269.62248165224,3749.84584728605,9,67.856477110053,1228.98840318327,3600.07469698593
108,35,5857,280,1,0,7,7.2,0,0.61,66.91,66.71,48.7,93.62,125,212,0.0428,-4.9188,0.0734,-4.3958,0.0168,45,0.7,50,0,0.4917,1,0.132,"Niland Fire Station",263,11023,32.3,-115.267,5.5,14.4,33.239,-115.512,0.096722,0.27804,"S74",212,0.7,33.239,-115.512,1198.40266380686,3702.88485086288,8,11.2719870528651,1228.98840318327,3600.07469698593
108,36,5858,280,1,0,7,7.2,0,0.61,95.87,95.72,27.13,139.75,125,387.53,0.0273,-4.0079,0.0494,-5.1344,0.0168,16,0.52,50,0,0.3786,1,0.0889,"North Shore - Hwy 111",2993,11217,32.3,-115.267,5.5,14.4,33.511,-115.92,0.049674,0.11077,"S845",387.514999709689,0.52,33.511,-115.92,1158.20224705391,3730.45999050361,8,2.52074752617552,1228.98840318327,3600.07469698593
108,37,5859,280,1,0,7,7.2,0,0.61,42.61,42.29,29.85,84.32,125,193.67,0.0688,-3.5603,0.1581,-3.6696,0.0168,42,1.5,50,0,0.4959,1,0.2843,"Westmorland Fire Sta",264,11369,32.3,-115.267,5.5,14.4,33.037,-115.623,0.15935,0.40354,"S79",193.67,1.5,33.037,-115.623,1189.61704946035,3679.67365859876,8,28.051285630522,1228.98840318327,3600.07469698593
108,38,5860,280,1,0,7,7.2,0,0.61,84.7,84.54,30.36,127.28,125,382.07,0.0321,-4.0634,0.0953,-5.0051,0.0168,21,0.72,50,0,0.3842,1,0.1715,"North Shore - Durmid",1280,11591,32.3,-115.267,5.5,14.4,33.421,-115.831,0.061252,0.12011,"S433",382.07,0.72,33.421,-115.831,1167.18729676213,3721.02326367553,8,9.45571037597347,1228.98840318327,3600.07469698593
108,39,5861,280,1,0,7,7.2,0,0.61,102.96,102.82,24.01,147.96,125,318,0.0247,-4.0051,-0.303,-4.8569,0.0168,13,2.18,50,0,0.441,1,-0.5449,"Mecca - CVWD Yard",1282,11625,32.3,-115.267,5.5,14.4,33.564,-115.987,0.034519,0.10362,"S430",318,2.18,33.564,-115.987,1151.56072025984,3735.92736912681,8,1.4866504963852,1228.98840318327,3600.07469698593
108,40,5862,280,1,0,7,7.2,0,0.61,81.59,81.42,33.86,122.09,125,491.44,0.0337,-4.3171,-0.0696,-5.1293,0.0168,24,0.74,50,0,0.2577,1,-0.1252,"Bombay Beach - Bertram",2994,11627,32.3,-115.267,5.5,14.4,33.397,-115.776,0.049166,0.083326,"S846",491.44,0.74,33.397,-115.776,1172.5028503828,3718.71082842029,8,8.39256144750265,1228.98840318327,3600.07469698593
108,41,5863,280,1,0,7,7.2,0,0.61,72.63,72.44,10.83,125.15,125,324.5,0.0389,-4.5501,0.6713,-4.8582,0.0168,9,0.44,50,0,0.4362,1,1.2072,"Salton City",1283,11628,32.3,-115.267,5.5,14.4,33.28,-115.984,0.13855,0.39365,"S439",324.5,0.44,33.28,-115.984,1153.98074561743,3704.3667542663,8,0.901194789652521,1228.98840318327,3600.07469698593
108,42,5864,280,1,0,7,7.2,0,0.61,81.8,81.63,43.93,115.04,125,384.66,0.0336,-5.0366,-0.5767,-5.0345,0.0168,32,0.5,50,0,0.3816,1,-1.0371,"Frink",1284,11684,32.3,-115.267,5.5,14.4,33.398,-115.657,0.032839,0.049684,"S515",384.66,0.5,33.398,-115.657,1183.59675935663,3719.60312600301,8,1.7523957804543,1228.98840318327,3600.07469698593
108,43,5865,280,1,0,7,7.2,0,0.61,148.45,148.45,-7.34,200.29,125,312.47,0.0139,-5.5794,0.2042,-5.3122,0.0168,-3,0.38,50,0,0.445,1,0.3672,"Palm Springs Airport",265,12025,32.3,-115.267,5.5,14.4,33.829,-116.512,0.032819,0.097937,"S204",312.47,0.38,33.829,-116.512,1100.84131398629,3762.18363909344,7,3.10524398424876,1228.98840318327,3600.07469698593
108,44,5866,280,1,0,7,7.2,0,0.61,120.34,120.23,13.4,168.39,125,263,0.0196,-4.7255,0.0124,-4.6369,0.0168,6,2.88,50,0,0.4737,1,0.0223,"Coachella - 6th & Palm",1285,12076,32.3,-115.267,5.5,14.4,33.678,-116.178,0.040778,0.084951,"S613",263,2.88,33.678,-116.178,1132.94267971593,3747.40892564812,8,3.88557540067202,1228.98840318327,3600.07469698593
108,45,5867,280,1,0,7,7.2,0,0.61,141.51,141.51,-57.35,196.41,125,407.49,0.0151,-4.9251,0.6839,-5.4716,0.0168,-24,-999,50,0,0.3569,1,1.2299,"Radec - Sage & Cottonwood School",1286,12092,32.3,-115.267,5.5,14.4,33.482,-116.911,0.05084,0.0929,"S631",407.4966666394,-999,33.482,-116.911,1066.11542146619,3721.35655391556,9,47.9846421728564,1228.98840318327,3600.07469698593
108,46,5868,280,1,0,7,7.2,0,0.61,168.48,168.48,-46.64,223.63,125,306.76,0.011,-4.4885,0.8632,-5.366,0.0168,-16,-999,50,0,0.4489,1,1.5522,"San Jacinto CDF Fire Station 25",1287,12102,32.3,-115.267,5.5,14.4,33.787,-116.959,0.051148,0.10155,"S635",306.786666087166,-999,33.787,-116.959,1059.65963652508,3754.98335946572,9,33.3849367164209,1228.98840318327,3600.07469698593
108,47,5869,280,1,0,7,7.2,0,0.61,144.89,144.88,-3.75,196.14,125,301,0.0145,-5.4758,0.3443,-5.1634,0.0168,-1,0.86,50,0,0.4527,1,0.6192,"Cathedral City - Ramon",2995,12108,32.3,-115.267,5.5,14.4,33.815,-116.461,0.040004,0.13596,"S847",301,0.86,33.815,-116.461,1105.67140021751,3760.92824463243,7,2.87326040693908,1228.98840318327,3600.07469698593
108,48,5870,280,1,0,7,7.2,0,0.61,150.78,150.78,-28.21,205.85,125,632.54,0.0135,-5.1836,0.8486,-5.8671,0.0168,-11,-999,50,0,0.1159,1,1.526,"Idyllwild - Hwy 243 & Pine Crest",1288,12116,32.3,-115.267,5.5,14.4,33.747,-116.715,0.044324,0.16718,"S616",632.519999683804,-999,33.747,-116.715,1082.57082021709,3751.89767395224,9,16.727109267299,1228.98840318327,3600.07469698593
108,50,5872,280,1,0,7,7.2,0,0.61,152.55,152.55,-53.67,207.86,125,592.15,0.0132,-5.1782,-0.9266,-5.8224,0.0168,-21,-999,50,0,0.1495,1,-1.6664,"Sage - Fire Station A",2996,12188,32.3,-115.267,5.5,14.4,33.605,-116.938,0.007501,0.019211,"S848",592.174999472284,-999,33.605,-116.938,1062.79942246364,3734.87578593415,9,41.9152688294943,1228.98840318327,3600.07469698593
108,51,5873,280,1,0,7,7.2,0,0.61,166.31,166.31,-48.03,221.53,125,330.74,0.0113,-4.9673,0.2669,-5.417,0.0168,-17,-999,50,0,0.4313,1,0.48,"San Jacinto - Valley Cemetary",269,12202,32.3,-115.267,5.5,14.4,33.76,-116.96,0.02777,0.062881,"S209",330.72999954644,-999,33.76,-116.96,1059.74332993115,3751.97791875473,9,34.967078821804,1228.98840318327,3600.07469698593
108,52,5874,280,1,0,7,7.2,0,0.61,167.65,167.65,-34.64,222.32,125,659.09,0.0111,-4.9297,-0.6957,-5.9744,0.0168,-12,-999,50,0,0.0972,1,-1.2511,"Silent Valley - Poppet Flat",271,12206,32.3,-115.267,5.5,14.4,33.851,-116.852,0.0076737,0.025979,"S211",659.09,-999,33.851,-116.852,1069.1605638679,3762.68443369407,9,22.3236925977208,1228.98840318327,3600.07469698593
108,53,5875,280,1,0,7,7.2,0,0.61,165.71,165.71,-49.11,220.94,125,304.55,0.0114,-5.0435,0.6901,-5.3485,0.0168,-17,-999,50,0,0.4504,1,1.241,"Hemet - 1-story Library",2997,12266,32.3,-115.267,5.5,14.4,33.748,-116.966,0.043767,0.1184,"S849",304.55,-999,33.748,-116.966,1059.26481596784,3750.6118726834,9,36.0299511549125,1228.98840318327,3600.07469698593
108,54,5876,280,1,0,7,7.2,0,0.61,129.12,129.12,-59.49,183.29,125,465,0.0175,-4.7036,-0.1634,-5.5152,0.0168,-27,-999,50,0,0.2894,1,-0.2939,"Palomar",3079,"plm",32.3,-115.267,5.5,14.4,33.354,-116.863,0.024022,0.050888,"S665",465,-999,33.354,-116.863,1071.42711591673,3707.39740066144,9,56.2708001907698,1228.98840318327,3600.07469698593
108,55,5877,280,1,0,7,7.2,0,0.61,165,165,-51.11,220.2,125,328.09,0.0115,-5.1006,0.6578,-5.405,0.0168,-18,-999,50,0,0.4334,1,1.183,"Hemet Fire Station",272,12331,32.3,-115.267,5.5,14.4,33.729,-116.979,0.04176,0.086566,"S9",328.0927272425,-999,33.729,-116.979,1058.18187091981,3748.43001980908,9,38.0538905410939,1228.98840318327,3600.07469698593
108,56,5878,280,1,0,7,7.2,0,0.61,125.62,125.51,11.55,173.9,125,282.14,0.0183,-4.9161,-0.0023,-4.7663,0.0168,5,2.28,50,0,0.464,1,-0.0041,"Indio - Riverside Co Fair Grnds",1289,12543,32.3,-115.267,5.5,14.4,33.715,-116.221,0.036719,0.069458,"S425",282.14,2.28,33.715,-116.221,1128.6746636344,3751.25798570244,8,0.56215928892574,1228.98840318327,3600.07469698593
108,57,5879,280,1,0,7,7.2,0,0.61,168.42,168.42,-46.56,223.57,125,306.76,0.011,-4.4861,0.8033,-5.3658,0.0168,-16,-999,50,0,0.4489,1,1.4446,"San Jacinto - CDF Fire Station",273,12673,32.3,-115.267,5.5,14.4,33.787,-116.958,0.048216,0.090209,"S481",306.76,-999,33.787,-116.958,1059.75241153637,3754.98882007316,9,33.4273733709882,1228.98840318327,3600.07469698593
108,58,5880,280,1,0,7,7.2,0,0.61,125.18,125.07,9.95,174.01,125,281.74,0.0184,-4.8834,0.1738,-4.7945,0.0168,5,1.96,50,0,0.4642,1,0.3125,"Indio - Monroe & Carreon",1297,12904,32.3,-115.267,5.5,14.4,33.706,-116.235,0.043943,0.087203,"S585",281.726666035617,1.96,33.706,-116.235,1127.43987407114,3750.17171537985,8,0.626474110384015,1228.98840318327,3600.07469698593
108,59,5881,280,1,0,7,7.2,0,0.61,181.41,181.41,-40.82,235.79,125,315.21,0.0096,-4.5849,0.1423,-5.4408,0.0168,-13,-999,50,0,0.443,1,0.2559,"Beaumont - 6th & Maple",1298,12919,32.3,-115.267,5.5,14.4,33.93,-116.972,0.021361,0.037833,"S537",315.21,-999,33.93,-116.972,1057.51875096999,3770.80108533564,9,19.0628341417148,1228.98840318327,3600.07469698593
108,60,5882,280,1,0,7,7.2,0,0.61,163.19,163.19,-46.38,218.52,125,351.68,0.0117,-4.9214,0.4486,-5.4528,0.0168,-17,-999,50,0,0.4136,1,0.8067,"Hemet - Acacia & Stanford",1299,12923,32.3,-115.267,5.5,14.4,33.744,-116.931,0.033763,0.069806,"S614",351.693333206959,-999,33.744,-116.931,1062.53971011786,3750.35875630529,9,33.3283732045447,1228.98840318327,3600.07469698593
108,61,5883,280,1,0,7,7.2,0,0.61,124,123.97,2.85,175.08,125,360.32,0.0187,-5.4298,1.0419,-5.483,0.0168,1,0.08,50,0,0.4056,1,1.8736,"La Quinta - Bermudas & Durango",1300,12951,32.3,-115.267,5.5,14.4,33.671,-116.3,0.09568,0.26336,"S620",360.313333209982,0.08,33.671,-116.3,1121.65415827889,3745.88529089789,8,0.198096687162235,1228.98840318327,3600.07469698593
108,62,5884,280,1,0,7,7.2,0,0.61,135.66,135.65,0.8,186.42,125,323.54,0.0162,-5.4137,0.5983,-5.181,0.0168,0,0.8,50,0,0.4369,1,1.076,"Palm Desert - Country Club & Por",1301,12952,32.3,-115.267,5.5,14.4,33.758,-116.374,0.055972,0.090408,"S628",323.54,0.8,33.758,-116.374,1114.15266417421,3755.11061574358,7,3.72995950628261,1228.98840318327,3600.07469698593
108,63,5885,280,1,0,7,7.2,0,0.61,140,140,-0.82,190.87,125,292.32,0.0154,-5.4371,0.2279,-5.0371,0.0168,0,1,50,0,0.4581,1,0.4099,"Rancho Mirage - G Ford & B Hope",1302,12953,32.3,-115.267,5.5,14.4,33.787,-116.41,0.038194,0.10775,"S632",292.313333181287,1,33.787,-116.41,1110.60320210072,3758.11894382669,7,3.57358351534351,1228.98840318327,3600.07469698593
108,64,5886,280,1,0,7,7.2,0,0.61,130.72,130.71,2.14,181.49,125,311.18,0.0172,-5.4926,0.4036,-5.1825,0.0168,1,0.52,50,0,0.4459,1,0.7258,"Indian Wells - Hwy111 & El Dorad",1303,12966,32.3,-115.267,5.5,14.4,33.723,-116.338,0.049312,0.16042,"S619",311.186666523846,0.52,33.723,-116.338,1117.74761002254,3751.4363223793,7,0.798634713160158,1228.98840318327,3600.07469698593
108,65,5887,280,1,0,7,7.2,0,0.61,228.64,228.64,-117.42,274.82,125,345.34,0.0058,-5.0659,0.0511,-5.7207,0.0168,-31,0.32,50,0,0.4192,1,0.092,"Orange - Chapman & Esplanada",2999,13067,32.3,-115.267,5.5,14.4,33.786,-117.809,0.011404,0.017229,"S850",345.319999420827,0.32,33.786,-117.809,980.828940676367,3750.56101530809,1,0.230748752599761,1228.98840318327,3600.07469698593
108,66,5888,280,1,0,7,7.2,0,0.61,228.35,228.35,-108.08,276.85,125,484.66,0.0058,-4.8446,0.1951,-5.9334,0.0168,-28,0.32,50,0,0.2658,1,0.3508,"Anaheim - Hwy 91 & Weir Cyn Rd",1305,13068,32.3,-115.267,5.5,14.4,33.863,-117.742,0.011318,0.020628,"S696",484.679999587357,0.32,33.863,-117.742,986.603550912266,3759.42804105788,9,5.48680672837495,1228.98840318327,3600.07469698593
108,67,5889,280,1,0,7,7.2,0,0.61,230.77,230.77,-121.71,275.89,125,301.93,0.0057,-4.8922,-0.1109,-5.6301,0.0168,-32,0.32,50,0,0.4521,1,-0.1995,"Santa Ana - Grand & Santa Clara",3000,13069,32.3,-115.267,5.5,14.4,33.768,-117.85,0.010113,0.019041,"S851",301.909999668783,0.32,33.768,-117.85,977.127438264165,3748.37088331238,1,3.75057125637915,1228.98840318327,3600.07469698593
108,68,5890,280,1,0,7,7.2,0,0.61,200.62,200.62,-120.52,242.45,125,350.06,0.0078,-4.9761,0.8544,-5.5985,0.0168,-37,-999,50,0,0.415,1,1.5365,"San Juan Capistrano - I5",3001,13070,32.3,-115.267,5.5,14.4,33.485,-117.669,0.033826,0.052752,"S852",350.079999428702,-999,33.485,-117.669,995.538790706326,3717.79733656797,9,22.2297468419015,1228.98840318327,3600.07469698593
108,69,5891,280,1,0,7,7.2,0,0.61,210.47,210.47,-80.61,263.05,125,333.31,0.007,-5.3562,0.4353,-5.6323,0.0168,-23,0.32,50,0,0.4292,1,0.7827,"Riverside - Hwy 91 & Van Buren",1306,13079,32.3,-115.267,5.5,14.4,33.917,-117.443,0.020504,0.033668,"S633",333.304999962497,0.32,33.917,-117.443,1013.98135836896,3766.88731696351,9,8.83559331032091,1228.98840318327,3600.07469698593
108,70,5892,280,1,0,7,7.2,0,0.61,201.67,201.67,-62.26,255.6,125,414.83,0.0077,-5.0736,0.6941,-5.7382,0.0168,-18,-999,50,0,0.3487,1,1.2482,"Moreno Valley - Sunny Mead & Vil",1307,13080,32.3,-115.267,5.5,14.4,33.968,-117.252,0.026356,0.061365,"S624",414.80999975893,-999,33.968,-117.252,1031.35108995081,3773.52972210689,9,7.88787323214607,1228.98840318327,3600.07469698593
108,71,5893,280,1,0,7,7.2,0,0.61,173.04,173.04,-82.83,224.27,125,576.02,0.0105,-5.2197,-0.4071,-5.8891,0.0168,-29,-999,50,0,0.1647,1,-0.7322,"Murrieta - Clinton Keith",3002,13081,32.3,-115.267,5.5,14.4,33.565,-117.264,0.010178,0.02614,"S853",576.009999913196,-999,33.565,-117.264,1032.73987720432,3728.69914694759,9,38.7495979213756,1228.98840318327,3600.07469698593
108,72,5894,280,1,0,7,7.2,0,0.61,169.07,169.07,-53.05,224.11,125,333.7,0.011,-5.1492,0.7267,-5.4359,0.0168,-18,-999,50,0,0.4289,1,1.3069,"Hemet - Cawston & Devonshire",1308,13093,32.3,-115.267,5.5,14.4,33.751,-117.015,0.042687,0.093942,"S615",333.7,-999,33.751,-117.015,1054.69743583697,3750.67920365274,9,35.1768779376831,1228.98840318327,3600.07469698593
108,73,5895,280,1,0,7,7.2,0,0.61,182.04,182.04,-59.64,236.53,125,436.06,0.0095,-5.1631,0.583,-5.703,0.0168,-19,-999,50,0,0.324,1,1.0484,"Nuevo - 11th & Lakeview",3003,13095,32.3,-115.267,5.5,14.4,33.818,-117.133,0.028481,0.053177,"S854",436.06,-999,33.818,-117.133,1043.32087426171,3757.49114132476,9,25.8120937523247,1228.98840318327,3600.07469698593
108,74,5896,280,1,0,7,7.2,0,0.61,182.33,182.33,-76.58,235.12,125,646,0.0095,-5.1215,-0.1079,-6.0185,0.0168,-25,-999,50,0,0.1061,1,-0.1941,"Canyon Lake Vacation Dr&San Joaq",1310,13096,32.3,-115.267,5.5,14.4,33.699,-117.267,0.011773,0.022257,"S612",646,-999,33.699,-117.267,1031.63314861761,3743.56932252183,9,28.805064279907,1228.98840318327,3600.07469698593
108,75,5897,280,1,0,7,7.2,0,0.61,176.72,176.72,-82.19,228.28,125,338.28,0.0101,-5.1547,0.3898,-5.4784,0.0168,-28,-999,50,0,0.4252,1,0.701,"Wildomar - Palomar",3004,13097,32.3,-115.267,5.5,14.4,33.604,-117.279,0.027824,0.062027,"S855",338.294999889148,-999,33.604,-117.279,1031.10482066038,3732.95413643528,9,34.6030256591836,1228.98840318327,3600.07469698593
108,76,5898,280,1,0,7,7.2,0,0.61,213.07,213.06,-88.12,264.71,125,354.82,0.0068,-5.2874,-0.3116,-5.686,0.0168,-24,0.32,50,0,0.4107,1,-0.5604,"Corona - Hwy 91 & McKinley",1311,13098,32.3,-115.267,5.5,14.4,33.884,-117.514,0.0091477,0.025037,"S856",354.80499989431,0.32,33.884,-117.514,1007.60307783948,3762.86738464236,9,3.24192609653382,1228.98840318327,3600.07469698593
