"i","j","recID","eqid","region","SOF","magBin","mag","rake","ZTOR","Rrup","RJB","RX","RY","FLen","VS30","rockPGA","lnY","intra.Resid","Median","eventTerm","srcSiteA","z1","dip","Z1_1D","Z1_Ref","iregion.i.","epsilon_within","Station.Name","Station.Sequence.Number","Station.ID..No.","Hypocenter.Latitude..deg.","Hypocenter.Longitude..deg.","Hypocenter.Depth..km.","Fault.Rupture.Width..km.","Station.Latitude","Station.Longitude","PGA..g.","T0.200S","STATID","VS30_gmean","Z1_mean","Lat_stat","Lon_stat","X_stat","Y_stat","Basin_ID","D_basin","X_eq","Y_eq"
43,20,3692,114,1,1,5,5.27,40,10.98,25.98,22.53,19.38,-15.35,4.1,320.57,0.0347,-1.9561,-0.1234,-1.9772,0.1639,124.58,0.32,70,0,0.4391,1,-0.1709,"Burbank - N Buena Vista",521,90012,34.06,-118.1035,13.3,3.6,34.168,-118.331,0.056982,0.19922,"S237",320.57,0.32,34.168,-118.331,930.498437212805,3790.6479342434,3,1.47918327767423,952.069417247499,3779.64314524285
43,21,3693,114,1,1,5,5.27,40,10.98,56.29,54.42,52.81,-19.19,4.1,403.72,0.0112,-3.3099,-0.6103,-3.2621,0.1639,108.19,0.1,70,0,0.3611,1,-0.8454,"Calabasas - N Las Virg",547,90052,34.06,-118.1035,13.3,3.6,34.15,-118.696,0.010477,0.031795,"S238",403.72,0.1,34.15,-118.696,896.904069798417,3787.1658104512,9,5.39594472746949,952.069417247499,3779.64314524285
43,22,3694,114,1,1,5,5.27,40,10.98,50,47.89,43.43,-24.56,4.1,267.49,0.0135,-2.7553,-0.0371,-2.8006,0.1639,117.56,0.38,70,0,0.4716,1,-0.0514,"Canoga Park - Topanga Can",548,90053,34.06,-118.1035,13.3,3.6,34.212,-118.606,0.026901,0.061469,"S239",267.49,0.38,34.212,-118.606,904.912527921472,3794.40254005379,3,1.03540168383237,952.069417247499,3779.64314524285
43,23,3695,114,1,1,5,5.27,40,10.98,49.49,47.68,23.05,-44.35,4.1,325.6,0.0137,-2.8193,0.139,-2.9084,0.1639,151.46,0.32,70,0,0.4353,1,0.1925,"Canyon Country - W Lost Cany",552,90057,34.06,-118.1035,13.3,3.6,34.419,-118.426,0.027985,0.039406,"S240",325.6,0.32,34.419,-118.426,920.476101801113,3818.114244021,9,10.9408300198556,952.069417247499,3779.64314524285
43,24,3696,114,1,1,5,5.27,40,10.98,32.57,29.84,20.79,24.53,4.1,305.14,0.0254,-3.1761,-1.1188,-2.2495,0.1639,42.7,0.42,70,0,0.45,1,-1.5498,"Carson - Catskill Ave",538,90040,34.06,-118.1035,13.3,3.6,33.812,-118.27,0.015864,0.030832,"S241",305.14,0.42,33.812,-118.27,937.955824420258,3751.384571162,1,4.10084191001566,952.069417247499,3779.64314524285
43,25,3697,114,1,1,5,5.27,40,10.98,29.09,26.14,17.6,22.39,4.1,160.58,0.0297,-2.4284,-0.3951,-1.8245,0.1639,40.79,0.52,70,0,0.501,1,-0.5474,"Carson - Water St",574,90081,34.06,-118.1035,13.3,3.6,33.836,-118.24,0.047857,0.090681,"S242",160.58,0.52,33.836,-118.24,940.612488886356,3754.1775010889,1,7.92157665882667,952.069417247499,3779.64314524285
43,26,3698,114,1,1,5,5.27,40,10.98,21.8,18.04,12.37,16.21,4.1,266.9,0.0438,-1.6771,0.0476,-1.6802,0.1639,41.06,0.84,70,0,0.4719,1,0.066,"Compton - Castlegate St",571,90078,34.06,-118.1035,13.3,3.6,33.899,-118.196,0.089323,0.19156,"S244",266.9,0.84,33.899,-118.196,944.361411685043,3761.36191987755,1,13.5039957703841,952.069417247499,3779.64314524285
43,27,3699,114,1,1,5,5.27,40,10.98,23.35,20.61,-20.61,1.01,4.1,346.62,0.04,-3.0796,-0.9679,-1.8826,0.1639,-90,0.32,70,0,0.418,1,-1.3408,"Covina - S Grand Ave",562,90068,34.06,-118.1035,13.3,3.6,34.078,-117.871,0.027537,0.053443,"S245",346.62,0.32,34.078,-117.871,973.455465068024,3782.69751252934,9,0.79784079079417,952.069417247499,3779.64314524285
43,28,3700,114,1,1,5,5.27,40,10.98,20.06,16.79,-16.79,0.38,4.1,324.79,0.0487,-2.2216,-0.3001,-1.6678,0.1639,-90,0.32,70,0,0.4359,1,-0.4156,"Covina - W Badillo",564,90070,34.06,-118.1035,13.3,3.6,34.087,-117.915,0.066662,0.1228,"S246",324.79,0.32,34.087,-117.915,969.340006351637,3783.49330191198,4,3.22440894948384,952.069417247499,3779.64314524285
43,29,3701,114,1,1,5,5.27,40,10.98,18.14,13.92,6.6,14.87,4.1,245.06,0.0554,-0.7253,0.2848,-1.4538,0.1639,27.17,0.84,70,0,0.4813,1,0.3945,"Downey - Birchdale",572,90079,34.06,-118.1035,13.3,3.6,33.92,-118.137,0.14618,0.30902,"S247",245.06,0.84,33.92,-118.137,949.71308395691,3763.95113274995,1,10.4896395129194,952.069417247499,3779.64314524285
43,30,3702,114,1,1,5,5.27,40,10.98,13.28,7.46,-7.46,-2.15,4.1,290.63,0.081,-0.8738,0.0477,-1.1971,0.1639,-91.03,0.38,70,0,0.4592,1,0.0661,"El Monte - Fairview Av",560,90066,34.06,-118.1035,13.3,3.6,34.093,-118.019,0.15512,0.46896,"S249",290.63,0.38,34.093,-118.019,959.699243525594,3783.68526173323,4,6.43382152094224,952.069417247499,3779.64314524285
43,31,3703,114,1,1,5,5.27,40,10.98,40.38,38.86,-7.75,40.07,4.1,270.54,0.0186,-2.6481,-0.0918,-2.484,0.1639,-11.5,0.54,70,0,0.4701,1,-0.1272,"Fountain Valley - Euclid",511,90002,34.06,-118.1035,13.3,3.6,33.719,-117.937,0.035039,0.084428,"S251",270.54,0.54,33.719,-117.937,969.326876583661,3742.5291499938,1,10.0014617726958,952.069417247499,3779.64314524285
43,32,3704,114,1,1,5,5.27,40,10.98,21.15,17.44,9.69,-17.26,4.1,371.07,0.0455,-0.8148,0.8723,-1.7948,0.1639,147.56,0.1,70,0,0.3953,1,1.2084,"Glendale - Las Palmas",558,90063,34.06,-118.1035,13.3,3.6,34.2,-118.231,0.18904,0.46781,"S253",371.07,0.1,34.2,-118.231,939.560078220891,3794.62853508057,9,4.18708525244312,952.069417247499,3779.64314524285
43,33,3705,114,1,1,5,5.27,40,10.98,31.18,29.19,-2.27,31.11,4.1,301.11,0.027,-2.2999,0.2127,-2.1829,0.1639,-4.47,0.76,70,0,0.4527,1,0.2947,"Garden Grove - Santa Rita",578,90085,34.06,-118.1035,13.3,3.6,33.79,-118.012,0.064981,0.11539,"S326",301.11,0.76,33.79,-118.012,961.985431707634,3750.07293303734,1,10.962430750184,952.069417247499,3779.64314524285
43,34,3706,114,1,1,5,5.27,40,10.98,23.55,20.84,-20.65,-4.74,4.1,362.31,0.0395,-2.7613,-0.9506,-1.9163,0.1639,-97.72,0.32,70,0,0.4038,1,-1.3168,"Glendora - N Oakbank",559,90065,34.06,-118.1035,13.3,3.6,34.137,-117.883,0.026968,0.061523,"S254",362.31,0.32,34.137,-117.883,972.017661334788,3789.19346787798,4,0.41156968037782,952.069417247499,3779.64314524285
43,35,3707,114,1,1,5,5.27,40,10.98,18.51,14.9,-12.39,10.28,4.1,337,0.054,-1.3599,-0.0292,-1.5914,0.1639,-56.26,0.32,70,0,0.4262,1,-0.0404,"Hacienda Heights - Colima",567,90073,34.06,-118.1035,13.3,3.6,33.99,-117.943,0.094299,0.2711,"S255",337,0.32,33.99,-117.943,967.286653303196,3772.59367570811,9,4.49961962027247,952.069417247499,3779.64314524285
43,36,3708,114,1,1,5,5.27,40,10.98,33.57,30.49,31.73,0.54,4.1,321.91,0.0243,-2.9509,-0.7461,-2.3218,0.1639,90,0.58,70,0,0.4381,1,-1.0334,"LA - Centinela St",549,90054,34.06,-118.1035,13.3,3.6,34.001,-118.431,0.021783,0.040186,"S260",321.91,0.58,34.001,-118.431,922.10102393146,3771.69030529565,1,4.69714845153134,952.069417247499,3779.64314524285
43,37,3709,114,1,1,5,5.27,40,10.98,15.84,10.22,11.06,-4.84,4.1,366.71,0.0656,-1.6577,-0.425,-1.4528,0.1639,104.39,0.32,70,0,0.3996,1,-0.5887,"LA - Cypress Ave",535,90033,34.06,-118.1035,13.3,3.6,34.088,-118.222,0.07409,0.14519,"S264",366.71,0.32,34.088,-118.222,940.973702804698,3782.23280225593,9,5.07574725654436,952.069417247499,3779.64314524285
43,38,3711,114,1,1,5,5.27,40,10.98,17.76,12.86,12.53,-8.15,4.1,329.06,0.0569,-1.3996,0.0563,-1.5346,0.1639,116.15,0.26,70,0,0.4326,1,0.078,"LA - Fletcher Dr",536,90034,34.06,-118.1035,13.3,3.6,34.115,-118.244,0.10774,0.31412,"S265",329.06,0.26,34.115,-118.244,938.801689319887,3785.13542863915,9,2.24375618216854,952.069417247499,3779.64314524285
43,39,3712,114,1,1,5,5.27,40,10.98,32.91,29.82,30.36,-8.3,4.1,255,0.025,-2.4477,-0.7313,-2.1665,0.1639,101.9,0.32,70,0,0.4773,1,-1.013,"LA - N Faring Rd",525,90016,34.06,-118.1035,13.3,3.6,34.089,-118.435,0.024365,0.059704,"S266",255,0.32,34.089,-118.435,921.294515007443,3781.44275313469,9,2.07256141372418,952.069417247499,3779.64314524285
43,40,3713,114,1,1,5,5.27,40,10.98,14.21,8,7.62,-6.84,4.1,364.91,0.0748,-1.5247,-0.3938,-1.3341,0.1639,122.36,0.32,70,0,0.4013,1,-0.5455,"LA - N Figueroa St",534,90032,34.06,-118.1035,13.3,3.6,34.111,-118.189,0.086831,0.19801,"S267",364.91,0.32,34.111,-118.189,943.901525711786,3784.92970056109,9,3.03642721636167,952.069417247499,3779.64314524285
43,41,3714,114,1,1,5,5.27,40,10.98,21.42,17.17,18.07,-5.37,4.1,315.06,0.0448,-1.4433,-0.2106,-1.7311,0.1639,100.68,0.32,70,0,0.4432,1,-0.2917,"LA - N Westmoreland",530,90021,34.06,-118.1035,13.3,3.6,34.082,-118.298,0.066625,0.1527,"S268",315.06,0.32,34.082,-118.298,933.98424278343,3781.24043410878,1,0.443928139738118,952.069417247499,3779.64314524285
43,42,3715,114,1,1,5,5.27,40,10.98,20.99,16.66,17.85,2.81,4.1,285.28,0.046,-1.3703,0.3609,-1.6642,0.1639,86.01,0.72,70,0,0.4623,1,0.4999,"LA - S Grand Ave",531,90022,34.06,-118.1035,13.3,3.6,34.005,-118.279,0.12761,0.36881,"S270",285.28,0.72,34.005,-118.279,936.134610237232,3772.77294439047,1,4.02513021406878,952.069417247499,3779.64314524285
43,43,3716,114,1,1,5,5.27,40,10.98,26.35,22.71,23.95,-2.22,4.1,308.71,0.034,-0.985,0.2263,-1.9758,0.1639,90.92,0.5,70,0,0.4476,1,0.3135,"LA - Saturn St",584,90091,34.06,-118.1035,13.3,3.6,34.046,-118.355,0.080226,0.17577,"S271",308.71,0.5,34.046,-118.355,928.900814422665,3777.00265379795,1,4.47176488577768,952.069417247499,3779.64314524285
43,44,3717,114,1,1,5,5.27,40,10.98,22.63,18.58,19.32,6.19,4.1,241.41,0.0417,-1.5392,0.438,-1.6835,0.1639,77.56,0.84,70,0,0.4826,1,0.6068,"LA - W 70th St",532,90023,34.06,-118.1035,13.3,3.6,33.976,-118.289,0.1323,0.32356,"S272",241.41,0.84,33.976,-118.289,935.358338118245,3769.51072658682,1,7.37783232870062,952.069417247499,3779.64314524285
43,45,3718,114,1,1,5,5.27,40,10.98,28.42,25.04,24.88,-10.2,4.1,1222.52,0.0307,-3.3266,-0.5308,-2.9702,0.1639,108.33,0.0037,70,0,0.0022,1,-0.7352,"LA - Wonderland Ave",526,90017,34.06,-118.1035,13.3,3.6,34.114,-118.38,0.018387,0.031368,"S273",1222.52,0.0037,34.114,-118.38,926.248695143776,3784.44682657302,9,2.51876362551997,952.069417247499,3779.64314524285
43,46,3719,114,1,1,5,5.27,40,10.98,25.18,22.08,11.04,-21.79,4.1,411.55,0.0362,-1.228,0.5371,-2.0731,0.1639,150.85,0.1,70,0,0.3524,1,0.744,"La Crescenta - New York",555,90060,34.06,-118.1035,13.3,3.6,34.238,-118.254,0.10334,0.28402,"S278",411.55,0.1,34.238,-118.254,937.241385214583,3798.74814065345,9,6.51237196747276,952.069417247499,3779.64314524285
43,47,3720,114,1,1,5,5.27,40,10.98,20.64,17.48,-8.34,17.38,4.1,338.27,0.047,-1.8712,0.0249,-1.72,0.1639,-28.5,0.56,70,0,0.4252,1,0.0345,"La Habra - Briarcliff",568,90074,34.06,-118.1035,13.3,3.6,33.921,-117.973,0.08724,0.18783,"S279",338.27,0.56,33.921,-117.973,964.888288988953,3764.79514177281,1,2.36491975104951,952.069417247499,3779.64314524285
43,48,3721,114,1,1,5,5.27,40,10.98,19.46,16.06,-15.35,6.7,4.1,339.52,0.0507,-1.7518,-0.223,-1.6524,0.1639,-72.89,0.32,70,0,0.4241,1,-0.309,"La Puente - Rimgrove Av",566,90072,34.06,-118.1035,13.3,3.6,34.026,-117.918,0.073174,0.21618,"S280",339.52,0.32,34.026,-117.918,969.400187079936,3776.70588470598,9,1.00226449745452,952.069417247499,3779.64314524285
43,49,3722,114,1,1,5,5.27,40,10.98,24.63,21.82,4.57,23.59,4.1,267.35,0.0372,-0.4683,0.7788,-1.8233,0.1639,11.96,0.82,70,0,0.4717,1,1.0788,"Lakewood - Del Amo Blvd",577,90084,34.06,-118.1035,13.3,3.6,33.846,-118.099,0.16253,0.28587,"S281",267.35,0.82,33.846,-118.099,953.623208296875,3755.90254165294,1,11.2486177971396,952.069417247499,3779.64314524285
43,50,3723,114,1,1,5,5.27,40,10.98,30.71,27.55,26.05,13.94,4.1,311.86,0.0275,-3.0685,-0.4702,-2.1818,0.1639,65.28,0.52,70,0,0.4454,1,-0.6513,"Lawndale - Osage Ave",540,90045,34.06,-118.1035,13.3,3.6,33.897,-118.346,0.033147,0.045331,"S283",311.86,0.52,33.897,-118.346,930.484980272532,3760.49917861374,1,6.76669571579872,952.069417247499,3779.64314524285
43,51,3724,114,1,1,5,5.27,40,10.98,22.61,19.11,10.9,18.51,4.1,344.72,0.0417,-2.0238,-0.3419,-1.8398,0.1639,33.45,0.82,70,0,0.4197,1,-0.4736,"LB - Orange Ave",573,90080,34.06,-118.1035,13.3,3.6,33.881,-118.176,0.054081,0.097016,"S275",344.704210429884,0.82,33.881,-118.176,946.307079268397,3759.45043440394,1,14.098768477339,952.069417247499,3779.64314524285
43,52,3726,114,1,1,5,5.27,40,10.98,34.45,31.52,30.17,14.43,4.1,351.57,0.0234,-2.8313,-0.1075,-2.4103,0.1639,67.5,0.44,70,0,0.4137,1,-0.1488,"Manhattan Beach - Manhattan",541,90046,34.06,-118.1035,13.3,3.6,33.886,-118.389,0.038741,0.054081,"S327",351.57,0.44,33.886,-118.389,926.559213694691,3759.09814790733,1,2.6026773110565,952.069417247499,3779.64314524285
43,53,3727,114,1,1,5,5.27,40,10.98,36.22,34.52,-7.66,-35.64,4.1,569.84,0.0218,-2.301,0.333,-2.791,0.1639,-167.18,-999,70,0,0.1707,1,0.4612,"Mill Creek, Angeles Nat For",557,90062,34.06,-118.1035,13.3,3.6,34.39,-118.08,0.044925,0.11491,"S289",569.84,-999,34.39,-118.08,952.466991597248,3816.38853531844,9,21.2004401354381,952.069417247499,3779.64314524285
43,54,3728,114,1,1,5,5.27,40,10.98,33.39,30.51,26.21,-19.49,4.1,326.47,0.0245,-2.4143,-0.1718,-2.3225,0.1639,123.76,0.34,70,0,0.4346,1,-0.238,"N Hollywood - Coldwater Can",518,90009,34.06,-118.1035,13.3,3.6,34.194,-118.412,0.038844,0.073212,"S292",326.47,0.34,34.194,-118.412,922.893841219136,3793.19442043658,3,5.30491652625208,952.069417247499,3779.64314524285
43,55,3729,114,1,1,5,5.27,40,10.98,42.52,40.06,35.43,-22.81,4.1,280.86,0.0172,-2.5612,-0.1852,-2.5821,0.1639,120.51,0.34,70,0,0.4647,1,-0.2566,"Northridge - 17645 Saticoy St",512,90003,34.06,-118.1035,13.3,3.6,34.209,-118.517,0.028982,0.068748,"S295",280.86,0.34,34.209,-118.517,913.134796766699,3794.42773125433,3,5.36809748879591,952.069417247499,3779.64314524285
43,56,3730,114,1,1,5,5.27,40,10.98,43.42,40.97,42.08,-4.9,4.1,191.06,0.0167,-3.2031,-1.2218,-2.3965,0.1639,94.34,0.32,70,0,0.4964,1,-1.6924,"Pacific Palisades - Sunset",544,90049,34.06,-118.1035,13.3,3.6,34.042,-118.554,0.011613,0.042118,"S298",191.06,0.32,34.042,-118.554,910.53112608935,3775.74013927167,9,4.32475873261563,952.069417247499,3779.64314524285
43,57,3731,114,1,1,5,5.27,40,10.98,36.79,34.22,25.83,-25.76,4.1,323.76,0.0213,-1.7661,0.2125,-2.4551,0.1639,132.64,0.36,70,0,0.4367,1,0.2943,"Pacoima Kagel Canyon USC",514,90005,34.06,-118.1035,13.3,3.6,34.25,-118.42,0.049526,0.16983,"S300",323.76,0.36,34.25,-118.42,921.875785314881,3799.37789656425,3,3.73028949177761,952.069417247499,3779.64314524285
43,58,3732,114,1,1,5,5.27,40,10.98,37.02,34.36,28.38,-23.04,4.1,318.16,0.0211,-2.4407,-0.2037,-2.4537,0.1639,126.6,0.36,70,0,0.4409,1,-0.2822,"Panorama City - Roscoe",516,90007,34.06,-118.1035,13.3,3.6,34.222,-118.442,0.032856,0.084915,"S301",318.16,0.36,34.222,-118.442,919.987142730467,3796.17834916943,3,6.13747931519494,952.069417247499,3779.64314524285
43,59,3733,114,1,1,5,5.27,40,10.98,14.82,9.95,-3.55,-11.32,4.1,397.27,0.0711,0.179,1.1813,-1.4134,0.1639,-159.07,0.32,70,0,0.3682,1,1.6364,"Pasadena - Old House Rd",588,90095,34.06,-118.1035,13.3,3.6,34.168,-118.078,0.38617,0.71331,"S304",397.27,0.32,34.168,-118.078,953.846688022209,3791.74804305934,4,0.633163615565942,952.069417247499,3779.64314524285
43,60,3734,114,1,1,5,5.27,40,10.98,11.06,1.3,-0.71,-3.13,4.1,401.37,0.0998,-1.1525,-0.2187,-1.1148,0.1639,-147.14,0.32,70,0,0.3637,1,-0.303,"San Gabriel - E Grand Ave",528,90019,34.06,-118.1035,13.3,3.6,34.091,-118.093,0.13171,0.25893,"S309",401.37,0.32,34.091,-118.093,952.874145655653,3783.13173207285,4,3.705603872153,952.069417247499,3779.64314524285
43,61,3735,114,1,1,5,5.27,40,10.98,15.64,11.03,1.59,13.05,4.1,339.06,0.0666,-0.1859,0.9772,-1.4078,0.1639,8.19,0.62,70,0,0.4245,1,1.3536,"Santa Fe Springs - E.Joslin",570,90077,34.06,-118.1035,13.3,3.6,33.944,-118.087,0.3132,1.1378,"S311",339.06,0.62,33.944,-118.087,954.213317081021,3766.83675533406,1,6.10240397662044,952.069417247499,3779.64314524285
43,62,3736,114,1,1,5,5.27,40,10.98,31.76,28.67,27.15,-14.23,4.1,400.44,0.0263,-1.557,0.4482,-2.3737,0.1639,114.31,0.32,70,0,0.3647,1,0.6209,"Studio City - Ventura & Coldwater Cyn Av",519,90010,34.06,-118.1035,13.3,3.6,34.146,-118.412,0.069396,0.15241,"S313",400.44,0.32,34.146,-118.412,923.134012366078,3787.86578958533,3,0.18295865263133,952.069417247499,3779.64314524285
43,63,3737,114,1,1,5,5.27,40,10.98,35.33,32.61,26.5,-22.59,4.1,320.93,0.0226,-1.6045,0.6294,-2.392,0.1639,127.9,0.36,70,0,0.4389,1,0.8718,"Sun Valley - Roscoe Blvd",515,90006,34.06,-118.1035,13.3,3.6,34.221,-118.421,0.080417,0.14191,"S314",320.93,0.36,34.221,-118.421,921.92866161195,3796.15436223675,3,4.74926982077174,952.069417247499,3779.64314524285
43,64,3738,114,1,1,5,5.27,40,10.98,32,29.2,21.24,-23.25,4.1,393.67,0.026,-1.9214,-0.1958,-2.3739,0.1639,135.04,0.4,70,0,0.372,1,-0.2712,"Sun Valley - Sunland",517,90008,34.06,-118.1035,13.3,3.6,34.235,-118.366,0.036952,0.073315,"S315",393.67,0.4,34.235,-118.366,926.929793014171,3797.93841925952,9,0.549429768375011,952.069417247499,3779.64314524285
43,65,3739,114,1,1,5,5.27,40,10.98,30.27,27.58,14.87,-25.96,4.1,402.16,0.0281,-2.1017,-0.1022,-2.309,0.1639,148.19,0.1,70,0,0.3628,1,-0.1416,"Sunland - Mt Gleason Ave",553,90058,34.06,-118.1035,13.3,3.6,34.269,-118.303,0.043754,0.090109,"S316",402.16,0.1,34.269,-118.303,932.564181279687,3801.979805025,9,3.77932196151113,952.069417247499,3779.64314524285
43,66,3740,114,1,1,5,5.27,40,10.98,41.5,39.22,26.27,-32.16,4.1,348.87,0.0179,-3.1885,-1.038,-2.6787,0.1639,138.98,0.1,70,0,0.4161,1,-1.4379,"Sylmar - Sayre St",510,90001,34.06,-118.1035,13.3,3.6,34.306,-118.437,0.011674,0.027452,"S318",348.87,0.1,34.306,-118.437,920.029210682733,3805.52406913397,3,0.746178530130172,952.069417247499,3779.64314524285
43,67,3741,114,1,1,5,5.27,40,10.98,36.47,33.78,28.43,22,4.1,289.04,0.0216,-3.3782,-0.7446,-2.3762,0.1639,54.81,0.32,70,0,0.4601,1,-1.0314,"Torrance - W 226th St",537,90038,34.06,-118.1035,13.3,3.6,33.822,-118.356,0.02027,0.036713,"S321",289.04,0.32,33.822,-118.356,929.936065644309,3752.13110927243,1,0.611594843039403,952.069417247499,3779.64314524285
43,68,3742,114,1,1,5,5.27,40,10.98,37.02,35.36,-20.54,30.77,4.1,416.93,0.0211,-2.8797,-0.1551,-2.6203,0.1639,-35.51,0.32,70,0,0.3463,1,-0.2148,"Villa Park - Serrano Ave",583,90090,34.06,-118.1035,13.3,3.6,33.821,-117.818,0.030624,0.073193,"S323",416.93,0.32,33.821,-117.818,979.798312586285,3754.40557955498,9,0.510091000848359,952.069417247499,3779.64314524285
43,69,3743,114,1,1,5,5.27,40,10.98,17.01,12.99,-12.99,2.77,4.1,334.69,0.0601,-1.8236,-0.4176,-1.4938,0.1639,-89.91,0.34,70,0,0.4281,1,-0.5785,"West Covina - S Orange Ave",565,90071,34.06,-118.1035,13.3,3.6,34.064,-117.952,0.071374,0.11854,"S324",334.69,0.34,34.064,-117.952,966.048033960579,3780.76951189694,4,3.09386738737235,952.069417247499,3779.64314524285
44,1,719,116,1,0,7,6.54,0,0,17.03,17.03,-15.15,17.79,20,208.71,0.0985,-1.2156,-0.521,-0.7474,0.1613,-62.78,1.5,90,0,0.4926,1,-0.868,"Brawley Airport",216,5060,33.0222,-115.8314,9,12,32.991,-115.513,0.12632,0.23586,"S51",208.71,1.5,32.991,-115.513,1200.29012549851,3675.2893360384,8,29.0616401576757,1170.20632249285,3676.6692368547
44,2,720,116,1,0,7,6.54,0,0,27,27,-27,8.45,20,205.78,0.063,-0.3196,0.4449,-1.0614,0.1613,-90,1.46,90,0,0.4933,1,0.7413,"Calipatria Fire Station",217,5061,33.0222,-115.8314,9,12,33.1266,-115.516,0.23735,0.42759,"S53",205.78,1.46,33.127,-115.516,1198.92461157595,3690.39859912134,8,21.3356945849613,1170.20632249285,3676.6692368547
44,3,721,116,1,0,7,6.54,0,0,18.2,18.2,5.18,27.45,20,192.05,0.0926,-0.4642,0.2372,-0.7867,0.1613,17,1.4,90,0,0.4962,1,0.3952,"El Centro Imp. Co. Cent",152,1335,33.0222,-115.8314,9,12,32.793,-115.562,0.26118,0.7068,"S59",192.05,1.4,32.793,-115.562,1197.25809298951,3652.93559176492,8,19.5243794852744,1170.20632249285,3676.6692368547
44,4,722,116,1,0,7,6.54,0,0,18.48,18.48,-18.48,-2.51,20,266.01,0.0913,-1.5464,-0.4962,-0.8298,0.1613,-90,1.08,90,0,0.4723,1,-0.8268,"Kornbloom Road (temp)",262,9401,33.0222,-115.8314,9,12,33.125,-115.665,0.12145,0.25496,"S328",266.01,1.08,33.125,-115.665,1184.99429602543,3689.18494847791,8,22.0472043455888,1170.20632249285,3676.6692368547
44,5,723,116,1,0,7,6.54,0,0,0.95,0.95,0.95,7.96,20,348.69,0.3456,-0.3653,-0.2657,0.1117,0.1613,90,1.44,90,0,0.4162,1,-0.4427,"Parachute Test Site",207,5051,33.0222,-115.8314,9,12,32.929,-115.701,0.43325,0.75322,"S75",348.69,1.44,32.929,-115.701,1183.14699838054,3667.14799203843,8,23.961836993907,1170.20632249285,3676.6692368547
