"i","j","recID","eqid","region","SOF","magBin","mag","rake","ZTOR","Rrup","RJB","RX","RY","FLen","VS30","rockPGA","lnY","intra.Resid","Median","eventTerm","srcSiteA","z1","dip","Z1_1D","Z1_Ref","iregion.i.","epsilon_within","Station.Name","Station.Sequence.Number","Station.ID..No.","Hypocenter.Latitude..deg.","Hypocenter.Longitude..deg.","Hypocenter.Depth..km.","Fault.Rupture.Width..km.","Station.Latitude","Station.Longitude","PGA..g.","T0.200S","STATID","VS30_gmean","Z1_mean","Lat_stat","Lon_stat","X_stat","Y_stat","Basin_ID","D_basin","X_eq","Y_eq"
48,9,840,125,1,0,7,7.28,0,0,144.13,144.13,-133.61,49.86,71.8,550.11,0.02,-4.5563,-0.0104,-4.7152,0.2992,-67.98,0.04,90,0,0.191,1,-0.0187,"Big Tujunga, Angeles Nat F",556,90061,34.2,-116.436,7,15,34.286,-118.225,0.03011,0.071413,"S233",550.11,0.04,34.286,-118.225,939.664761319895,3804.2026146319,9,11.0623224723706,1105.23669257943,3803.86990309112
48,11,842,125,1,0,7,7.28,0,0,137.44,137.44,-136.55,-0.99,71.8,322.75,0.0217,-2.9211,-0.0051,-3.93,0.2992,-96.52,0.52,90,0,0.4375,1,-0.0092,"Brea - S Flower Av",580,90087,34.2,-116.436,7,15,33.916,-117.896,0.041334,0.081256,"S234",322.75,0.52,33.916,-117.896,972.043875215493,3764.59252178888,1,1.02351914686886,1105.23669257943,3803.86990309112
48,12,843,125,1,0,7,7.28,0,0,150.09,150.09,-148.42,-3.19,71.8,270.96,0.0187,-3.098,0.1066,-3.7464,0.2992,-98.55,0.76,90,0,0.4699,1,0.1917,"Buena Park - La Palma",579,90086,34.2,-116.436,7,15,33.847,-118.018,0.042976,0.094735,"S325",270.96,0.76,33.847,-118.018,961.122107328497,3756.37495438366,1,11.1239684314248,1105.23669257943,3803.86990309112
48,13,844,125,1,0,7,7.28,0,0,157.94,157.94,-149.61,41.92,71.8,320.57,0.0171,-3.3669,0.5709,-4.1659,0.2992,-71.31,0.32,90,0,0.4391,1,1.0267,"Burbank - N Buena Vista",521,90012,34.2,-116.436,7,15,34.168,-118.331,0.058425,0.10448,"S237",320.57,0.32,34.168,-118.331,930.498437212805,3790.6479342434,3,1.47918327767423,1105.23669257943,3803.86990309112
48,15,846,125,1,0,7,7.28,0,0,172.45,172.45,-152.2,70.15,71.8,409.4,0.0145,-3.4912,0.1715,-4.4263,0.2992,-61.95,0.32,90,0,0.3548,1,0.3085,"Chatsworth - Devonshire",513,90004,34.2,-116.436,7,15,34.358,-118.571,0.030013,0.047698,"S404",409.4,0.32,34.358,-118.571,907.433056573939,3810.74927906156,9,10.0669199901199,1105.23669257943,3803.86990309112
48,16,847,125,1,0,7,7.28,0,0,161.23,161.23,-160,9.23,71.8,266.9,0.0165,-2.9333,0.6322,-3.7688,0.2992,-82.91,0.84,90,0,0.4719,1,1.137,"Compton - Castlegate St",571,90078,34.2,-116.436,7,15,33.899,-118.196,0.064557,0.12234,"S244",266.9,0.84,33.899,-118.196,944.361411685043,3761.36191987755,1,13.5039957703841,1105.23669257943,3803.86990309112
48,18,849,125,1,0,7,7.28,0,0,128.06,128.06,-126.71,17.5,71.8,324.79,0.0243,-3.2768,0.0836,-3.9927,0.2992,-81.66,0.32,90,0,0.4359,1,0.1503,"Covina - W Badillo",564,90070,34.2,-116.436,7,15,34.087,-117.915,0.050363,0.11817,"S246",324.79,0.32,34.087,-117.915,969.340006351637,3783.49330191198,4,3.22440894948384,1105.23669257943,3803.86990309112
48,19,850,125,1,0,7,7.28,0,0,21.78,21.78,-8.47,-52.15,71.8,359,0.1633,-3.0363,-0.5259,-2.7349,0.2992,-157.1,0.34,90,0,0.4069,1,-0.9458,"Desert Hot Springs",267,12149,34.2,-116.436,7,15,33.962,-116.509,0.15433,0.46634,"S192",359,0.34,33.962,-116.509,1100.18159323679,3776.98371512629,7,1.41227143299073,1105.23669257943,3803.86990309112
48,20,851,125,1,0,7,7.28,0,0,157.46,157.46,-156.15,10.64,71.8,271.9,0.0172,-2.9441,0.2659,-3.7502,0.2992,-82.62,0.88,90,0,0.4694,1,0.4782,"Downey - Co Maint Bldg",288,14368,34.2,-116.436,7,15,33.924,-118.167,0.046025,0.084982,"S248",271.9,0.88,33.924,-118.167,946.915331129906,3764.26380822066,1,10.603517941671,1105.23669257943,3803.86990309112
48,21,852,125,1,0,7,7.28,0,0,126.33,126.33,-123.76,24.98,71.8,459.14,0.0248,-4.2007,-0.5733,-4.2162,0.2992,-78.44,0.32,90,0,0.2965,1,-1.031,"Duarte - Mel Canyon Rd.",561,90067,34.2,-116.436,7,15,34.15,-117.939,0.023001,0.046725,"S406",459.14,0.32,34.15,-117.939,966.775160683524,3790.37859504504,9,0.707383035115431,1105.23669257943,3803.86990309112
48,22,853,125,1,0,7,7.28,0,0,135.88,135.88,-133.49,22.19,71.8,290.63,0.0221,-2.8132,-0.0476,-3.9164,0.2992,-79.23,0.38,90,0,0.4592,1,-0.0856,"El Monte - Fairview Av",560,90066,34.2,-116.436,7,15,34.093,-118.019,0.04208,0.061657,"S249",290.63,0.38,34.093,-118.019,959.699243525594,3783.68526173323,4,6.43382152094224,1105.23669257943,3803.86990309112
48,23,854,125,1,0,7,7.28,0,0,121.8,121.8,-119.75,-13.45,71.8,367.54,0.0263,-4.1425,0.0961,-3.9923,0.2992,-100.5,-999,90,0,0.3988,1,0.1728,"Featherly Park - Maint",274,13122,34.2,-116.436,7,15,33.869,-117.709,0.051402,0.10516,"S250",367.54,-999,33.869,-117.709,989.626455739907,3760.25164904744,9,7.35951926249234,1105.23669257943,3803.86990309112
48,25,856,125,1,0,7,7.28,0,0,146.89,146.89,-142.12,-19.57,71.8,270.54,0.0194,-2.7497,0.5039,-3.8236,0.2992,-104.64,0.54,90,0,0.4701,1,0.9061,"Fountain Valley - Euclid",511,90002,34.2,-116.436,7,15,33.719,-117.937,0.066232,0.13592,"S251",270.54,0.54,33.719,-117.937,969.326876583661,3742.5291499938,1,10.0014617726958,1105.23669257943,3803.86990309112
48,27,858,125,1,0,7,7.28,0,0,122.61,122.61,-120.83,21.45,71.8,362.31,0.026,-3.4596,0.1038,-4.0408,0.2992,-80.21,0.32,90,0,0.4038,1,0.1867,"Glendora - N Oakbank",559,90065,34.2,-116.436,7,15,34.137,-117.883,0.052215,0.11282,"S254",362.31,0.32,34.137,-117.883,972.017661334788,3789.19346787798,4,0.41156968037782,1105.23669257943,3803.86990309112
48,28,859,125,1,0,7,7.28,0,0,136.29,136.29,-135.75,8.55,71.8,337,0.022,-3.4191,0.1784,-4.0759,0.2992,-84.89,0.32,90,0,0.4262,1,0.3208,"Hacienda Heights - Colima",567,90073,34.2,-116.436,7,15,33.99,-117.943,0.049429,0.11268,"S255",337,0.32,33.99,-117.943,967.286653303196,3772.59367570811,9,4.49961962027247,1105.23669257943,3803.86990309112
48,29,860,125,1,0,7,7.28,0,0,68.66,68.66,-53.63,-58.09,71.8,328.09,0.056,-4.4645,-0.2063,-3.4254,0.2992,-128.64,-999,90,0,0.4334,1,-0.3711,"Hemet Fire Station",272,12331,34.2,-116.436,7,15,33.729,-116.979,0.082307,0.18082,"S9",328.0927272425,-999,33.729,-116.979,1058.18187091981,3748.43001980908,9,38.0538905410939,1105.23669257943,3803.86990309112
48,30,861,125,1,0,7,7.28,0,0,156,156,-151.92,-14.42,71.8,270.54,0.0175,-2.9266,0.4834,-3.8771,0.2992,-103.13,0.54,90,0,0.4701,1,0.8694,"Huntington Bch - Waikiki",576,90083,34.2,-116.436,7,15,33.727,-118.044,0.058618,0.11414,"S408",270.54,0.54,33.727,-118.044,959.355849031767,3742.93429842622,1,3.81139875930319,1105.23669257943,3803.86990309112
48,31,862,125,1,0,7,7.28,0,0,54.25,54.25,22.37,-84.45,71.8,339.02,0.0724,-2.7786,-0.1991,-3.0318,0.2992,156,1.16,90,0,0.4245,1,-0.358,"Indio - Coachella Canal",266,12026,34.2,-116.436,7,15,33.717,-116.155,0.1042,0.19674,"S197",339.02,1.16,33.717,-116.155,1134.79174061941,3751.88693567321,9,0.667664221205795,1105.23669257943,3803.86990309112
48,32,863,125,1,0,7,7.28,0,0,167.27,167.27,-165.33,13.12,71.8,316.02,0.0154,-3.1138,0.2704,-4.0609,0.2992,-81.25,0.58,90,0,0.4425,1,0.4862,"Inglewood - Union Oil",285,14196,34.2,-116.436,7,15,33.905,-118.279,0.039,0.063199,"S257",316.02,0.58,33.905,-118.279,936.646717038304,3761.67097987571,1,12.2733566723536,1105.23669257943,3803.86990309112
48,33,864,125,1,0,7,7.28,0,0,11.03,11.03,10.72,-38.52,71.8,379.32,0.264,-2.4191,-0.3617,-2.3132,0.2992,104,-999,90,0,0.387,1,-0.6505,"Joshua Tree",298,22170,34.2,-116.436,7,15,34.13,-116.314,0.27436,0.44575,"S198",379.32,-999,34.13,-116.314,1117.01669939547,3796.82427395701,9,24.3404949421387,1105.23669257943,3803.86990309112
48,34,865,125,1,0,7,7.28,0,0,164.36,164.36,-162.25,14.82,71.8,301,0.0159,-3.2897,0.2988,-3.9443,0.2992,-80.79,0.74,90,0,0.4527,1,0.5373,"LA - 116th St School",290,14403,34.2,-116.436,7,15,33.929,-118.26,0.04209,0.077199,"S258",301,0.74,33.929,-118.26,938.282270091887,3764.41666313217,1,10.8991543074808,1105.23669257943,3803.86990309112
48,35,867,125,1,0,7,7.28,0,0,153.04,153.04,-147.48,33.18,71.8,329.06,0.0181,-4.1164,0.1461,-4.209,0.2992,-74.5,0.26,90,0,0.4326,1,0.2626,"LA - Fletcher Dr",536,90034,34.2,-116.436,7,15,34.115,-118.244,0.039862,0.072844,"S265",329.06,0.26,34.115,-118.244,938.801689319887,3785.13542863915,9,2.24375618216854,1105.23669257943,3803.86990309112
48,37,869,125,1,0,7,7.28,0,0,159.13,159.13,-153.65,31.9,71.8,315.06,0.0169,-3.8651,0.0805,-4.1584,0.2992,-74.92,0.32,90,0,0.4432,1,0.1447,"LA - N Westmoreland",530,90021,34.2,-116.436,7,15,34.082,-118.298,0.03545,0.10943,"S268",315.06,0.32,34.082,-118.298,933.98424278343,3781.24043410878,1,0.443928139738118,1105.23669257943,3803.86990309112
48,38,870,125,1,0,7,7.28,0,0,151.7,151.7,-148.63,22.64,71.8,349.43,0.0184,-3.1931,0.3674,-4.1564,0.2992,-78.46,0.38,90,0,0.4156,1,0.6608,"LA - Obregon Park",337,24400,34.2,-116.436,7,15,34.037,-118.178,0.04853,0.13425,"S269",349.419999713806,0.38,34.037,-118.178,945.305688424754,3776.76174946919,9,1.86929405994365,1105.23669257943,3803.86990309112
48,39,871,125,1,0,7,7.28,0,0,161.56,161.56,-157.98,23.31,71.8,285.28,0.0164,-3.3595,0.0927,-3.8722,0.2992,-77.92,0.72,90,0,0.4623,1,0.1667,"LA - S Grand Ave",531,90022,34.2,-116.436,7,15,34.005,-118.279,0.036466,0.08313,"S270",285.28,0.72,34.005,-118.279,936.134610237232,3772.77294439047,1,4.02513021406878,1105.23669257943,3803.86990309112
48,40,872,125,1,0,7,7.28,0,0,160.99,160.99,-156.36,28.13,71.8,329.52,0.0165,-3.4708,-0.0564,-4.2054,0.2992,-76.23,0.32,90,0,0.4323,1,-0.1014,"LA - W 15th St",529,90020,34.2,-116.436,7,15,34.045,-118.298,0.029788,0.05792,"S409",329.52,0.32,34.045,-118.298,934.173485767762,3777.13272582191,1,1.57506353686702,1105.23669257943,3803.86990309112
48,41,873,125,1,0,7,7.28,0,0,163.96,163.96,-160.81,20.75,71.8,241.41,0.016,-2.9521,0.5385,-3.695,0.2992,-78.75,0.84,90,0,0.4826,1,0.9683,"LA - W 70th St",532,90023,34.2,-116.436,7,15,33.976,-118.289,0.059545,0.094174,"S272",241.41,0.84,33.976,-118.289,935.358338118245,3769.51072658682,1,7.37783232870062,1105.23669257943,3803.86990309112
48,42,874,125,1,0,7,7.28,0,0,160.85,160.85,-159.93,6.6,71.8,344.72,0.0165,-2.6414,0.6351,-4.0097,0.2992,-83.87,0.82,90,0,0.4197,1,1.1421,"LB - Orange Ave",573,90080,34.2,-116.436,7,15,33.881,-118.176,0.05836,0.10181,"S275",344.704210429884,0.82,33.881,-118.176,946.307079268397,3759.45043440394,1,14.098768477339,1105.23669257943,3803.86990309112
48,43,875,125,1,0,7,7.28,0,0,148.47,148.47,-139.14,46.09,71.8,411.55,0.0191,-4.4921,-0.2234,-4.569,0.2992,-69.59,0.1,90,0,0.3524,1,-0.4017,"La Crescenta - New York",555,90060,34.2,-116.436,7,15,34.238,-118.254,0.026186,0.063211,"S278",411.55,0.1,34.238,-118.254,937.241385214583,3798.74814065345,9,6.51237196747276,1105.23669257943,3803.86990309112
48,44,876,125,1,0,7,7.28,0,0,143.12,143.12,-142.88,2.62,71.8,338.27,0.0203,-2.9308,0.0466,-3.9849,0.2992,-86.73,0.56,90,0,0.4252,1,0.0838,"La Habra - Briarcliff",568,90074,34.2,-116.436,7,15,33.921,-117.973,0.039954,0.075509,"S279",338.27,0.56,33.921,-117.973,964.888288988953,3764.79514177281,1,2.36491975104951,1105.23669257943,3803.86990309112
48,45,877,125,1,0,7,7.28,0,0,132.08,132.08,-131.38,11.29,71.8,339.52,0.0232,-3.2,-0.08,-4.0546,0.2992,-84.07,0.32,90,0,0.4241,1,-0.1438,"La Puente - Rimgrove Av",566,90072,34.2,-116.436,7,15,34.026,-117.918,0.040006,0.07336,"S280",339.52,0.32,34.026,-117.918,969.400187079936,3776.70588470598,9,1.00226449745452,1105.23669257943,3803.86990309112
48,46,878,125,1,0,7,7.28,0,0,157.41,157.41,-155.89,-0.05,71.8,267.35,0.0172,-2.6136,0.4122,-3.7555,0.2992,-97.97,0.82,90,0,0.4717,1,0.7412,"Lakewood - Del Amo Blvd",577,90084,34.2,-116.436,7,15,33.846,-118.099,0.053872,0.1088,"S281",267.35,0.82,33.846,-118.099,953.623208296875,3755.90254165294,1,11.2486177971396,1105.23669257943,3803.86990309112
48,48,880,125,1,0,7,7.28,0,0,26.96,26.96,-0.61,-59.63,71.8,355.42,0.1376,-3.1188,-0.5676,-2.7878,0.2992,-178.7,0.48,90,0,0.4102,1,-1.0208,"Mission Creek Fault",66,100,34.2,-116.436,7,15,33.905,-116.419,0.12347,0.25972,"S411",355.42,0.48,33.905,-116.419,1108.92507025471,3771.18149328424,9,1.71988862434573,1105.23669257943,3803.86990309112
48,49,881,125,1,0,7,7.28,0,0,17.36,17.36,-14.18,-42.12,71.8,396.41,0.1937,-2.918,-0.4442,-3.2701,0.2992,-125.21,0.02,90,0,0.3691,1,-0.7988,"Morongo Valley Fire Station",223,5071,34.2,-116.436,7,15,34.0486,-116.5782,0.19249,0.368,"S201",396.406923050054,0.02,34.049,-116.578,1093.18277864536,3786.2489021266,9,5.56130304316732,1105.23669257943,3803.86990309112
48,50,882,125,1,0,7,7.28,0,0,26.84,26.84,-11.89,-54.86,71.8,344.67,0.1381,-3.1427,-0.5568,-2.6235,0.2992,-153.7,0.84,90,0,0.4197,1,-1.0013,"North Palm Springs",222,5070,34.2,-116.436,7,15,33.924,-116.543,0.13073,0.33971,"S203",344.67,0.84,33.924,-116.543,1097.29970502179,3772.56065467107,7,4.57653378613388,1105.23669257943,3803.86990309112
48,51,883,125,1,0,7,7.28,0,0,172.32,172.32,-159.45,53.17,71.8,280.86,0.0145,-3.1984,0.2138,-4.1309,0.2992,-67.71,0.34,90,0,0.4647,1,0.3845,"Northridge - 17645 Saticoy St",512,90003,34.2,-116.436,7,15,34.209,-118.517,0.036926,0.071116,"S295",280.86,0.34,34.209,-118.517,913.134796766699,3794.42773125433,3,5.36809748879591,1105.23669257943,3803.86990309112
48,52,884,125,1,0,7,7.28,0,0,36.15,36.15,-9.76,-64.66,71.8,312.47,0.107,-2.8242,-0.7351,-2.9468,0.2992,-164.34,0.38,90,0,0.445,1,-1.3219,"Palm Springs Airport",265,12025,34.2,-116.436,7,15,33.829,-116.512,0.088741,0.17687,"S204",312.47,0.38,33.829,-116.512,1100.84131398629,3762.18363909344,7,3.10524398424876,1105.23669257943,3803.86990309112
48,53,885,125,1,0,7,7.28,0,0,117.5,117.5,-117.36,7.66,71.8,384.44,0.0278,-3.5086,0.2049,-4.0476,0.2992,-87.14,0.32,90,0,0.3818,1,0.3684,"Pomona - 4th & Locust FF",302,23525,34.2,-116.436,7,15,34.056,-117.748,0.059653,0.16101,"S306",384.428571003863,0.32,34.056,-117.748,984.947090523483,3780.83286104091,5,1.32278512208011,1105.23669257943,3803.86990309112
48,55,887,125,1,0,7,7.28,0,0,96,96,-94.82,-15.78,71.8,389.95,0.037,-4.3205,-0.4041,-3.8913,0.2992,-98.99,0.32,90,0,0.376,1,-0.7266,"Riverside Airport",275,13123,34.2,-116.436,7,15,33.951,-117.446,0.042496,0.14581,"S207",389.970832554262,0.32,33.951,-117.446,1013.49854325885,3770.64876021556,9,6.7397208843987,1105.23669257943,3803.86990309112
48,56,888,125,1,0,7,7.28,0,0,79.76,79.76,-79.69,-10.12,71.8,296.97,0.0469,-2.7763,-0.0414,-3.529,0.2992,-92.47,0.34,90,0,0.4553,1,-0.0744,"San Bernardino - E & Hospitality",303,23542,34.2,-116.436,7,15,34.065,-117.292,0.085827,0.16446,"S412",296.97428552875,0.34,34.065,-117.292,1027.04627260833,3784.09749084897,6,1.66500028373693,1105.23669257943,3803.86990309112
48,57,889,125,1,0,7,7.28,0,0,141.92,141.92,-138.77,24.87,71.8,401.37,0.0206,-3.2635,0.2375,-4.2385,0.2992,-77.92,0.32,90,0,0.3637,1,0.427,"San Gabriel - E Grand Ave",528,90019,34.2,-116.436,7,15,34.091,-118.093,0.045631,0.073448,"S309",401.37,0.32,34.091,-118.093,952.874145655653,3783.13173207285,4,3.705603872153,1105.23669257943,3803.86990309112
48,58,890,125,1,0,7,7.28,0,0,150.1,150.1,-149.13,9.52,71.8,339.06,0.0187,-3.1111,0.4681,-4.0037,0.2992,-83.49,0.62,90,0,0.4245,1,0.8418,"Santa Fe Springs - E.Joslin",570,90077,34.2,-116.436,7,15,33.944,-118.087,0.056124,0.13237,"S311",339.06,0.62,33.944,-118.087,954.213317081021,3766.83675533406,1,6.10240397662044,1105.23669257943,3803.86990309112
48,59,891,125,1,0,7,7.28,0,0,50.85,50.85,-40.94,-51.2,71.8,659.09,0.0773,-4.1292,-0.8521,-3.8633,0.2992,-126.4,-999,90,0,0.0972,1,-1.5324,"Silent Valley - Poppet Flat",271,12206,34.2,-116.436,7,15,33.851,-116.852,0.04557,0.091937,"S211",659.09,-999,33.851,-116.852,1069.1605638679,3762.68443369407,9,22.3236925977208,1105.23669257943,3803.86990309112
48,60,892,125,1,0,7,7.28,0,0,163.54,163.54,-151.94,50.72,71.8,320.93,0.016,-3.4262,0.0082,-4.1697,0.2992,-68.28,0.36,90,0,0.4389,1,0.0147,"Sun Valley - Roscoe Blvd",515,90006,34.2,-116.436,7,15,34.221,-118.421,0.031231,0.056779,"S314",320.93,0.36,34.221,-118.421,921.92866161195,3796.15436223675,3,4.74926982077174,1105.23669257943,3803.86990309112
48,61,893,125,1,0,7,7.28,0,0,158.25,158.25,-147.11,50.04,71.8,393.67,0.017,-4.3486,-0.3585,-4.2681,0.2992,-68.37,0.4,90,0,0.372,1,-0.6446,"Sun Valley - Sunland",517,90008,34.2,-116.436,7,15,34.235,-118.366,0.020981,0.039375,"S315",393.67,0.4,34.235,-118.366,926.929793014171,3797.93841925952,9,0.549429768375011,1105.23669257943,3803.86990309112
48,62,894,125,1,0,7,7.28,0,0,151.53,151.53,-140.25,51.09,71.8,402.16,0.0184,-3.5934,-0.0439,-4.5723,0.2992,-67.76,0.1,90,0,0.3628,1,-0.0789,"Sunland - Mt Gleason Ave",553,90058,34.2,-116.436,7,15,34.269,-118.303,0.030805,0.051392,"S316",402.16,0.1,34.269,-118.303,932.564181279687,3801.979805025,9,3.77932196151113,1105.23669257943,3803.86990309112
48,63,895,125,1,0,7,7.28,0,0,175.65,175.65,-164.23,48.88,71.8,257.21,0.014,-4.1132,0.5725,-4.0891,0.2992,-69.23,0.32,90,0,0.4763,1,1.0295,"Tarzana - Cedar Hill",340,24436,34.2,-116.436,7,15,34.16,-118.534,0.05225,0.1234,"S319",257.21,0.32,34.16,-118.534,911.805673334943,3788.91944262774,3,0.146783680421362,1105.23669257943,3803.86990309112
48,64,896,125,1,0,7,7.28,0,0,136.72,136.72,-131.62,-23.28,71.8,303.09,0.0219,-3.1392,-0.0564,-3.9919,0.2992,-105.71,0.32,90,0,0.4514,1,-0.1013,"Tustin - E Sycamore",582,90089,34.2,-116.436,7,15,33.7278,-117.824,0.0405,0.10858,"S413",303.09,0.32,33.728,-117.824,979.762285414825,3744.05008232815,1,2.92385691359696,1105.23669257943,3803.86990309112
48,65,897,125,1,0,7,7.28,0,0,41.43,41.43,37.99,-57.01,71.8,635.01,0.0944,-3.9665,-0.6607,-3.8778,0.2992,114,0.02,90,0,0.114,1,-1.1882,"Twentynine Palms",297,22161,34.2,-116.436,7,15,34.021,-116.009,0.067687,0.20579,"S414",635.01,0.02,34.021,-116.009,1146.04700372155,3786.60222132964,9,34.8044453428495,1105.23669257943,3803.86990309112
48,66,898,125,1,0,7,7.28,0,0,132.94,132.94,-130.23,-13.96,71.8,416.93,0.0229,-3.3412,-0.2335,-4.2059,0.2992,-101.59,0.32,90,0,0.3463,1,-0.4198,"Villa Park - Serrano Ave",583,90090,34.2,-116.436,7,15,33.821,-117.818,0.030987,0.074467,"S323",416.93,0.32,33.821,-117.818,979.798312586285,3754.40557955498,9,0.510091000848359,1105.23669257943,3803.86990309112
48,67,899,125,1,0,7,7.28,0,0,132.32,132.32,-130.96,16.57,71.8,334.69,0.0231,-3.0052,0.08,-4.0302,0.2992,-81.79,0.34,90,0,0.4281,1,0.1438,"West Covina - S Orange Ave",565,90071,34.2,-116.436,7,15,34.064,-117.952,0.046907,0.072774,"S324",334.69,0.34,34.064,-117.952,966.048033960579,3780.76951189694,4,3.09386738737235,1105.23669257943,3803.86990309112
48,69,3752,125,1,0,7,7.28,0,0,45.34,45.34,-45.21,-24.1,71.8,436.14,0.0866,-3.739,-0.2461,-3.3873,0.2992,-94.33,-999,90,0,0.3239,1,-0.4426,"Forest Falls Post Office",1218,5075,34.2,-116.436,7,15,34.088,-116.919,0.10786,0.29492,"S416",436.14,-999,34.088,-116.919,1061.38141966354,3788.64758101559,9,14.8771606767293,1105.23669257943,3803.86990309112
48,70,3753,125,1,0,7,7.28,0,0,25.02,25.02,2.3,-58.31,71.8,388.63,0.1463,-3.9512,-0.1105,-3.0973,0.2992,175,0.14,90,0,0.3774,1,-0.1987,"Fun Valley",221,5069,34.2,-116.436,7,15,33.925,-116.389,0.21019,0.68311,"S193",388.63,0.14,33.925,-116.389,1111.5617875567,3773.58397215335,9,3.4881997428606,1105.23669257943,3803.86990309112
48,73,3757,125,1,0,7,7.28,0,0,26.95,26.95,-12.34,-54.66,71.8,367.84,0.1377,-3.0844,-0.5149,-2.6814,0.2992,-152.75,0.82,90,0,0.3985,1,-0.9259,"North Palm Springs Fire Sta #36",1241,5295,34.2,-116.436,7,15,33.9247,-116.5479,0.13359,0.3228,"S419",367.83555534074,0.82,33.925,-116.548,1096.8294294643,3772.64254715131,7,4.53973166535027,1105.23669257943,3803.86990309112
48,74,3758,125,1,0,7,7.28,0,0,36.93,36.93,0.99,-68.77,71.8,333.89,0.1049,-2.6825,-0.5473,-2.6614,0.2992,178,1.6,90,0,0.4288,1,-0.9842,"Thousand Palms Post Office",1651,5068,34.2,-116.436,7,15,33.8166,-116.3945,0.10457,0.30149,"S420",333.892499971922,1.6,33.817,-116.394,1111.87335136079,3761.54916289325,7,1.99056900719552,1105.23669257943,3803.86990309112
48,76,3760,125,1,0,7,7.28,0,0,45.48,45.48,-45.48,-9.28,71.8,430.36,0.0863,-3.419,0.2444,-3.3769,0.2992,-90,-999,90,0,0.3307,1,0.4396,"Big Bear Lake - Civic Center",1388,22561,34.2,-116.436,7,15,34.238,-116.935,0.17983,0.40685,"S421",430.36,-999,34.238,-116.935,1058.90782109958,3805.22610210958,9,21.9777014240378,1105.23669257943,3803.86990309112
