"i","j","recID","eqid","region","SOF","magBin","mag","rake","ZTOR","Rrup","RJB","RX","RY","FLen","VS30","rockPGA","lnY","intra.Resid","Median","eventTerm","srcSiteA","z1","dip","Z1_1D","Z1_Ref","iregion.i.","epsilon_within","Station.Name","Station.Sequence.Number","Station.ID..No.","Hypocenter.Latitude..deg.","Hypocenter.Longitude..deg.","Hypocenter.Depth..km.","Fault.Rupture.Width..km.","Station.Latitude","Station.Longitude","PGA..g.","T0.200S","STATID","VS30_gmean","Z1_mean","Lat_stat","Lon_stat","X_stat","Y_stat","Basin_ID","D_basin","X_eq","Y_eq"
69,14,1882,161,1,0,5,4.53,11,7.91,29.5,28.42,-3.84,-29.02,1.8,351.31,0.0135,-7.3082,-0.3962,-7.9638,0.5968,-172.24,0.32,90,0,0.4139,1,-0.5299,"Mentone Fire Station #9",1221,5162,34.2895,-116.9458,9.1,1.5,34.067,-117.117,0.016043,0.028146,"S524",351.305999965842,0.32,34.067,-117.117,1043.21293272401,3785.23955071814,6,0.521097856715528,1057.56950567238,3810.88876399569
69,15,1883,161,1,0,5,4.53,11,7.91,25.47,24.21,1.62,-25.02,1.8,387.12,0.0167,-7.4269,0.2647,-7.8439,0.5968,176.17,0.32,90,0,0.379,1,0.354,"Mill Creek Ranger Station",1219,5076,34.2895,-116.9458,9.1,1.5,34.079,-117.045,0.036808,0.086407,"S525",387.11249987891,0.32,34.079,-117.045,1049.79210509665,3786.95941395221,9,3.16566207237871,1057.56950567238,3810.88876399569
69,18,1886,161,1,0,5,4.53,11,7.91,43.69,42.97,42.02,-9.62,1.8,396.41,0.0075,-7.2832,0.9585,-9.1702,0.5968,102.06,0.02,90,0,0.3691,1,1.2817,"Morongo Valley Fire Station",223,5071,34.2895,-116.9458,9.1,1.5,34.0486,-116.5782,0.033109,0.068971,"S201",396.406923050054,0.02,34.049,-116.578,1093.18277864536,3786.2489021266,9,5.56130304316732,1057.56950567238,3810.88876399569
69,19,1887,161,1,0,5,4.53,11,7.91,54.92,54.34,50.43,-20.93,1.8,367.84,0.0051,-8.0441,0.1908,-8.5973,0.5968,111.89,0.82,90,0,0.3985,1,0.2551,"North Palm Springs Fire Sta #36",1241,5295,34.2895,-116.9458,9.1,1.5,33.9247,-116.5479,0.010912,0.017776,"S419",367.83555534074,0.82,33.925,-116.548,1096.8294294643,3772.64254715131,7,4.53973166535027,1057.56950567238,3810.88876399569
69,21,1889,161,1,0,5,4.53,11,7.91,40.62,39.84,-9.86,-39.45,1.8,488,0.0084,-8.6856,-0.5795,-8.5874,0.5968,-165.66,0.32,90,0,0.2618,1,-0.7749,"Reche Canyon - Olive Dell Ranch",1217,5037,34.2895,-116.9458,9.1,1.5,34.0047,-117.2239,0.0069506,0.013286,"S590",488,0.32,34.005,-117.224,1033.71031392407,3777.78617893196,9,3.54574040475223,1057.56950567238,3810.88876399569
69,23,1891,161,1,0,5,4.53,11,7.91,31.54,30.53,-19.69,-24.17,1.8,642.83,0.0123,-8.1665,-1.0098,-8.7548,0.5968,-139.84,0.02,90,0,0.1083,1,-1.3504,"San Bernardino - Del Rosa Wk Sta",1250,5331,34.2895,-116.9458,9.1,1.5,34.1663,-117.251,0.0059678,0.015302,"S591",642.819999844434,0.02,34.166,-117.251,1030.20316429029,3795.53039055962,9,0.836370156062288,1057.56950567238,3810.88876399569
69,25,1893,161,1,0,5,4.53,11,7.91,38.56,37.74,-19.35,-33.24,1.8,279.46,0.0091,-7.2102,-0.3452,-8.1429,0.5968,-149.16,0.32,90,0,0.4655,1,-0.4617,"San Bernardino - Fire Sta. #10",1253,5339,34.2895,-116.9458,9.1,1.5,34.091,-117.289,0.012476,0.030377,"S527",279.473332697236,0.32,34.091,-117.289,1027.16176973581,3787.00124516141,6,4.07192456075155,1057.56950567238,3810.88876399569
69,26,1894,161,1,0,5,4.53,11,7.91,38.97,38.16,-17.15,-34.92,1.8,316.83,0.0089,-7.3097,-0.2285,-8.2341,0.5968,-153.3,0.34,90,0,0.4419,1,-0.3056,"San Bernardino - Fire Sta. #11",1248,5329,34.2895,-116.9458,9.1,1.5,34.069,-117.275,0.013278,0.033829,"S592",316.821428281552,0.34,34.069,-117.275,1028.59295813516,3784.62996390601,6,2.20011766485598,1057.56950567238,3810.88876399569
69,27,1895,161,1,0,5,4.53,11,7.91,36.24,35.37,-22.05,-28.49,1.8,322.53,0.01,-7.824,-0.4618,-8.1669,0.5968,-141.43,0.32,90,0,0.4377,1,-0.6176,"San Bernardino - Fire Sta. #4",1252,5337,34.2895,-116.9458,9.1,1.5,34.14,-117.294,0.011628,0.025494,"S528",322.516666322151,0.32,34.14,-117.294,1026.39461852872,3792.41852233003,6,3.86538407681358,1057.56950567238,3810.88876399569
69,28,1896,161,1,0,5,4.53,11,7.91,34.62,33.7,-22.72,-25.73,1.8,441.33,0.0107,-8.6797,-0.5035,-8.3264,0.5968,-137.62,0.32,90,0,0.3178,1,-0.6734,"San Bernardino - Fire Sta. #7",1246,5327,34.2895,-116.9458,9.1,1.5,34.165,-117.288,0.010111,0.018009,"S593",441.311249761013,0.32,34.165,-117.288,1026.79286498317,3795.22675528712,6,1.04976700730546,1057.56950567238,3810.88876399569
69,29,1897,161,1,0,5,4.53,11,7.91,42.51,41.77,-24.92,-34.34,1.8,325.97,0.0078,-8.2626,-0.835,-8.3882,0.5968,-143.36,0.32,90,0,0.435,1,-1.1166,"San Bernardino - Fire Sta. #9",1249,5330,34.2895,-116.9458,9.1,1.5,34.103,-117.349,0.0061397,0.010409,"S529",325.984999654892,0.32,34.103,-117.349,1021.54270645346,3788.02502178734,6,0.450792057432281,1057.56950567238,3810.88876399569
69,30,1898,161,1,0,5,4.53,11,7.91,36.63,35.77,-20.74,-29.99,1.8,426.21,0.0098,-7.6713,-0.1962,-8.3812,0.5968,-144.56,0.32,90,0,0.3356,1,-0.2624,"San Bernardino - Lincoln School",1257,5373,34.2895,-116.9458,9.1,1.5,34.1229,-117.2879,0.013132,0.021483,"S594",426.204999970671,0.32,34.123,-117.288,1027.0548061042,3790.5611631665,6,5.02609449597975,1057.56950567238,3810.88876399569
69,32,1900,161,1,0,5,4.53,11,7.91,40.64,39.86,-16.29,-37.22,1.8,358.92,0.0083,-6.9239,0.555,-8.4032,0.5968,-155.89,0.32,90,0,0.4069,1,0.7421,"San Bernardino - Mont. Mem Pk",1247,5328,34.2895,-116.9458,9.1,1.5,34.047,-117.277,0.025826,0.05014,"S530",358.911428434961,0.32,34.047,-117.277,1028.54523704312,3782.17568278081,9,0.125764445290207,1057.56950567238,3810.88876399569
69,34,1902,161,1,0,5,4.53,11,7.91,30.1,29.05,-16,-25.09,1.8,396.01,0.0131,-7.8623,-0.1098,-8.0762,0.5968,-146.59,0.32,90,0,0.3695,1,-0.1468,"San Bernardino - Serrano School",1251,5336,34.2895,-116.9458,9.1,1.5,34.1449,-117.2188,0.019483,0.035908,"S597",396.006249970408,0.32,34.145,-117.219,1033.29068375353,3793.36503301788,6,0.225348590163703,1057.56950567238,3810.88876399569
69,35,1903,161,1,0,5,4.53,11,7.91,24.78,23.49,-4.37,-23.94,1.8,626.44,0.0174,-7.972,0.7744,-8.4305,0.5968,-169.27,0.02,90,0,0.1205,1,1.0356,"Seven Oaks Dam Downstream Surf.",1245,5300,34.2895,-116.9458,9.1,1.5,34.1105,-117.099,0.050698,0.068051,"S532",594.890535476906,0.02,34.11,-117.099,1044.60042245241,3790.11303157627,9,2.15500483975784,1057.56950567238,3810.88876399569
69,36,1904,161,1,0,5,4.53,11,7.91,24.78,23.49,-4.37,-23.94,1.8,564.93,0.0174,-8.0535,-1.296,-8.3817,0.5968,-169.27,0.02,90,0,0.1756,1,-1.7331,"Seven Oaks Dam Right Abt.",1244,5300,34.2895,-116.9458,9.1,1.5,34.1105,-117.099,0.0064092,0.01134,"S532",594.890535476906,0.02,34.11,-117.099,1044.60042245241,3790.11303157627,9,2.15500483975784,1057.56950567238,3810.88876399569
69,39,1907,161,1,0,5,4.53,11,7.91,43.03,42.29,38.31,-18.68,1.8,425.02,0.0076,-8.3061,0.3065,-8.869,0.5968,115.08,0.1,90,0,0.337,1,0.4099,"Whitewater Trout Farm",224,5072,34.2895,-116.9458,9.1,1.5,33.99,-116.656,0.017008,0.033925,"S214",425.01749994853,0.1,33.99,-116.656,1086.37491239148,3779.24003977043,9,4.15050106227951,1057.56950567238,3810.88876399569
69,40,1908,161,1,0,5,4.53,11,7.91,63.49,63,-60.28,-18.89,1.8,399.84,0.004,-8.8883,0.599,-9.0527,0.5968,-106.89,-999,90,0,0.3654,1,0.801,"Wrightwood Post Office",1237,5282,34.2895,-116.9458,9.1,1.5,34.36,-117.629,0.012134,0.017133,"S534",399.819999499775,-999,34.36,-117.629,994.162330417349,3815.1684143642,9,21.9307561973266,1057.56950567238,3810.88876399569
71,2,1918,163,1,0,5,4.92,-32,12.48,16.82,10.98,4.55,-11.73,2.8,724.89,0.0788,-6.7372,0.2615,-6.8112,0.5867,156.24,0.0075,78,0,0.0617,1,0.3497,"Anza - Pinyon Flat",203,5044,33.5083,-116.5143,15.2,3.9,33.607,-116.453,0.12796,0.24868,"S89",724.891999988964,0.0075,33.607,-116.453,1107.88631327739,3737.85601585438,9,11.0798815693917,1102.8745577455,3726.52529361812
71,3,1919,163,1,0,5,4.92,-32,12.48,27.77,24.04,23.67,8.7,2.8,480.22,0.0395,-7.3157,0.6901,-7.0556,0.5867,72.58,-999,78,0,0.2711,1,0.9229,"Anza - Tripp Flats Training",1223,5222,33.5083,-116.5143,15.2,3.9,33.6022,-116.756,0.11856,0.17403,"S508",480.215999933362,-999,33.602,-116.756,1079.74221498855,3735.5521499589,9,28.3146546210926,1102.8745577455,3726.52529361812
71,4,1920,163,1,0,5,4.92,-32,12.48,20.04,14.94,14.67,6.89,2.8,360.45,0.0624,-6.9058,-1.0672,-6.3655,0.5867,69.27,-999,78,0,0.4055,1,-1.4272,"Anza Fire Station",231,5160,33.5083,-116.5143,15.2,3.9,33.5558,-116.674,0.032755,0.075255,"S91",360.45,-999,33.556,-116.674,1087.68115724516,3730.90478776221,9,27.9853852602234,1102.8745577455,3726.52529361812
71,7,1923,163,1,0,5,4.92,-32,12.48,40.04,38.05,-36.6,11.6,2.8,357.64,0.0229,-7.2293,-0.5282,-7.5497,0.5867,-74.11,0.12,78,0,0.4081,1,-0.7064,"Borrego Springs - Scripps Clinic",1222,5220,33.5083,-116.5143,15.2,3.9,33.1937,-116.3289,0.023672,0.053975,"S611",357.64,0.12,33.194,-116.329,1122.37578654099,3692.68469842699,9,27.288629820302,1102.8745577455,3726.52529361812
71,11,1934,163,1,0,5,4.92,-32,12.48,48.58,46.51,25.94,-40.47,2.8,388.63,0.0169,-7.7611,-0.3375,-7.8335,0.5867,146.46,0.14,78,0,0.3774,1,-0.4513,"Fun Valley",221,5069,33.5083,-116.5143,15.2,3.9,33.925,-116.389,0.019986,0.03008,"S193",388.63,0.14,33.925,-116.389,1111.5617875567,3773.58397215335,9,3.4881997428606,1102.8745577455,3726.52529361812
71,15,1938,163,1,0,5,4.92,-32,12.48,96.27,94.89,95.69,-2.13,2.8,362.39,0.005,-8.2134,-0.4142,-8.5364,0.5867,90.54,0.32,78,0,0.4037,1,-0.5539,"Highland Fire Station",1220,5161,33.5083,-116.5143,15.2,3.9,34.136,-117.213,0.0058491,0.028811,"S445",362.395454511247,0.32,34.136,-117.213,1033.90174540423,3792.39672445503,6,0.627221576974224,1102.8745577455,3726.52529361812
71,17,1941,163,1,0,5,4.92,-32,12.48,27.64,23.86,24.66,-1.63,2.8,407.61,0.0398,-7.6293,-0.3506,-6.8937,0.5867,91.18,-999,78,0,0.3568,1,-0.4689,"Hurkey Creek Park",202,5043,33.5083,-116.5143,15.2,3.9,33.6758,-116.68,0.043458,0.084939,"S195",407.61,-999,33.676,-116.68,1086.30513201677,3744.20659821604,9,17.509661150433,1102.8745577455,3726.52529361812
71,19,1943,163,1,0,5,4.92,-32,12.48,32.12,28.79,29.59,-1.54,2.8,845.41,0.032,-7.9462,0.5246,-7.7306,0.5867,91,0.01,78,0,0.0261,1,0.7015,"Idyllwild - Keenwild Fire Sta.",1225,5232,33.5083,-116.5143,15.2,3.9,33.7077,-116.717,0.037199,0.024005,"S617",845.406666653523,0.01,33.708,-116.717,1082.65011395932,3747.55224862229,9,18.3746863319163,1102.8745577455,3726.52529361812
71,20,1944,163,1,0,5,4.92,-32,12.48,20.34,15.26,16.07,-1.06,2.8,382.44,0.0611,-6.9633,0.7316,-7.0841,0.5867,90,0.02,78,0,0.3839,1,0.9783,"Idyllwild - Kenworthy Fire Sta.",1256,5372,33.5083,-116.5143,15.2,3.9,33.6159,-116.621,0.19529,0.30888,"S618",382.44,0.02,33.616,-116.621,1092.20031092374,3737.87657924087,9,19.8550978846493,1102.8745577455,3726.52529361812
71,22,1946,163,1,0,5,4.92,-32,12.48,38.92,36.86,0.53,-38.23,2.8,292.12,0.0239,-6.3345,0.4639,-6.673,0.5867,179.17,1.58,78,0,0.4583,1,0.6203,"Indio - Jackson Road",1240,5294,33.5083,-116.5143,15.2,3.9,33.7462,-116.2163,0.072915,0.17044,"S417",292.12,1.58,33.746,-116.216,1128.91152538214,3754.73498967103,7,0.970612463993085,1102.8745577455,3726.52529361812
71,26,1950,163,1,0,5,4.92,-32,12.48,41.7,39.79,-22.46,-34.2,2.8,298.71,0.0215,-6.6332,-0.3278,-6.5911,0.5867,-145.64,3.08,78,0,0.4542,1,-0.4384,"Mecca Fire Station",1233,5270,33.5083,-116.5143,15.2,3.9,33.572,-116.076,0.029087,0.075622,"S622",298.704999958153,3.08,33.572,-116.076,1143.21643854297,3736.25700059242,8,4.90457687228181,1102.8745577455,3726.52529361812
71,28,1952,163,1,0,5,4.92,-32,12.48,81.53,79.9,80.34,-8.03,2.8,387.12,0.0069,-7.6501,0.0812,-8.3477,0.5867,95.37,0.32,78,0,0.379,1,0.1086,"Mill Creek Ranger Station",1219,5076,33.5083,-116.5143,15.2,3.9,34.079,-117.045,0.012813,0.026685,"S525",387.11249987891,0.32,34.079,-117.045,1049.79210509665,3786.95941395221,9,3.16566207237871,1102.8745577455,3726.52529361812
71,32,1957,163,1,0,5,4.92,-32,12.48,61.31,59.39,47.96,-37.37,2.8,396.41,0.0115,-7.7824,-0.1268,-8.5666,0.5867,126.97,0.02,78,0,0.3691,1,-0.1696,"Morongo Valley Fire Station",223,5071,33.5083,-116.5143,15.2,3.9,34.0486,-116.5782,0.016994,0.042944,"S201",396.406923050054,0.02,34.049,-116.578,1093.18277864536,3786.2489021266,9,5.56130304316732,1102.8745577455,3726.52529361812
71,33,1958,163,1,0,5,4.92,-32,12.48,16.64,10.21,11.01,-0.29,2.8,380.64,0.0799,-6.9782,0.0146,-6.8309,0.5867,90,0.02,78,0,0.3857,1,0.0195,"Mountain Center - Pine Mtn Rnch",1224,5223,33.5083,-116.5143,15.2,3.9,33.5778,-116.5899,0.1157,0.20857,"S625",380.64,0.02,33.578,-116.59,1095.34543306072,3733.83207877207,9,22.3841360789478,1102.8745577455,3726.52529361812
71,35,1960,163,1,0,5,4.92,-32,12.48,47.67,45.39,36.09,-29.87,2.8,367.84,0.0174,-7.8966,-0.5949,-7.3412,0.5867,128.33,0.82,78,0,0.3985,1,-0.7955,"North Palm Springs Fire Sta #36",1241,5295,33.5083,-116.5143,15.2,3.9,33.9247,-116.5479,0.016244,0.030333,"S419",367.83555534074,0.82,33.925,-116.548,1096.8294294643,3772.64254715131,7,4.53973166535027,1102.8745577455,3726.52529361812
71,37,1962,163,1,0,5,4.92,-32,12.48,51.62,50.09,-50.03,2.37,2.8,361.22,0.0153,-7.3826,-0.1841,-7.8633,0.5867,-87.11,0.14,78,0,0.4048,1,-0.2463,"Ocotillo Wells - Veh. Rec. Area",1258,5375,33.5083,-116.5143,15.2,3.9,33.1557,-116.1679,0.022563,0.050678,"S627",361.22,0.14,33.156,-116.168,1137.70165144719,3689.43523000212,9,12.3436771726148,1102.8745577455,3726.52529361812
71,47,1976,163,1,0,5,4.92,-32,12.48,97.68,96.32,97,3.21,2.8,279.46,0.0049,-7.2832,-0.3063,-8.3598,0.5867,87.18,0.32,78,0,0.4655,1,-0.4096,"San Bernardino - Fire Sta. #10",1253,5339,33.5083,-116.5143,15.2,3.9,34.091,-117.289,0.0071837,0.021679,"S527",279.473332697236,0.32,34.091,-117.289,1027.16176973581,3787.00124516141,6,4.07192456075155,1102.8745577455,3726.52529361812
71,48,1977,163,1,0,5,4.92,-32,12.48,95.11,93.72,94.35,3.82,2.8,316.83,0.0051,-7.5811,-0.6946,-8.3988,0.5867,86.62,0.34,78,0,0.4419,1,-0.9289,"San Bernardino - Fire Sta. #11",1248,5329,33.5083,-116.5143,15.2,3.9,34.069,-117.275,0.0048289,0.012669,"S592",316.821428281552,0.34,34.069,-117.275,1028.59295813516,3784.62996390601,6,2.20011766485598,1102.8745577455,3726.52529361812
71,49,1981,163,1,0,5,4.92,-32,12.48,93.65,92.23,92.73,6.92,2.8,358.92,0.0053,-8.0014,-0.3166,-8.4898,0.5867,85.43,0.32,78,0,0.4069,1,-0.4234,"San Bernardino - Mont. Mem Pk",1247,5328,33.5083,-116.5143,15.2,3.9,34.047,-117.277,0.0068613,0.012735,"S530",358.911428434961,0.32,34.047,-117.277,1028.54523704312,3782.17568278081,9,0.125764445290207,1102.8745577455,3726.52529361812
71,50,1982,163,1,0,5,4.92,-32,12.48,97.34,95.98,96.77,-1.83,2.8,396.01,0.0049,-8.3183,-0.3817,-8.615,0.5867,90.72,0.32,78,0,0.3695,1,-0.5104,"San Bernardino - Serrano School",1251,5336,33.5083,-116.5143,15.2,3.9,34.1449,-117.2188,0.0056495,0.015546,"S597",396.006249970408,0.32,34.145,-117.219,1033.29068375353,3793.36503301788,6,0.225348590163703,1102.8745577455,3726.52529361812
71,51,1983,163,1,0,5,4.92,-32,12.48,56.48,54.28,54.9,4.7,2.8,456.83,0.0132,-6.959,-1.0226,-7.9547,0.5867,85.3,-999,78,0,0.2993,1,-1.3675,"San Jacinto - MWD West Portal",1239,5289,33.5083,-116.5143,15.2,3.9,33.8218,-116.9684,0.0073223,0.015041,"S634",456.811999763581,-999,33.822,-116.968,1058.59603097781,3758.82309542393,9,29.5540540594953,1102.8745577455,3726.52529361812
71,53,1985,163,1,0,5,4.92,-32,12.48,87.29,85.76,86.32,-6.65,2.8,626.44,0.0061,-8.5374,0.1311,-9.0662,0.5867,94.27,0.02,78,0,0.1205,1,0.1754,"Seven Oaks Dam Downstream Surf.",1245,5300,33.5083,-116.5143,15.2,3.9,34.1105,-117.099,0.0093191,0.013588,"S532",594.890535476906,0.02,34.11,-117.099,1044.60042245241,3790.11303157627,9,2.15500483975784,1102.8745577455,3726.52529361812
71,57,1989,163,1,0,5,4.92,-32,12.48,56.4,54.3,48.25,-27.68,2.8,425.02,0.0132,-8.3994,-0.3093,-8.1714,0.5867,118.69,0.1,78,0,0.337,1,-0.4136,"Whitewater Trout Farm",224,5072,33.5083,-116.5143,15.2,3.9,33.99,-116.656,0.015009,0.020089,"S214",425.01749994853,0.1,33.99,-116.656,1086.37491239148,3779.24003977043,9,4.15050106227951,1102.8745577455,3726.52529361812
71,58,8171,163,1,0,5,4.92,-32,12.48,20.8,16.48,3.73,-17.61,2.8,760,0.0593,-6.704,0.6336,-7.1211,0.5867,167,0.02,78,0,0.0481,1,0.8473,"Agave Hill",100191,"AGA",33.5083,-116.5143,15.2,3.9,33.63838,-116.4011,0.13566,0.11673,"S637",760,0.02,33.638,-116.401,1112.50200804591,3741.6103473886,9,6.05279940531496,1102.8745577455,3726.52529361812
71,59,8174,163,1,0,5,4.92,-32,12.48,92.68,91.83,-55.5,74.41,2.8,511,0.0054,-9.4211,0.1397,-8.7521,0.5867,-37,-999,78,0,0.2346,1,0.1868,"Barrett",100542,"BAR",33.5083,-116.5143,15.2,3.9,32.68005,-116.6722,0.0083214,0.02652,"S638",511,-999,32.68,-116.672,1093.76613845532,3633.56102497267,9,65.9242709364934,1102.8745577455,3726.52529361812
71,60,8175,163,1,0,5,4.92,-32,12.48,74.41,73.36,-62.09,-40.3,2.8,257.03,0.0081,-6.7516,0.2947,-7.5952,0.5867,-122,0.94,78,0,0.4764,1,0.3941,"Bombay Beach Fire Station",1234,5271,33.5083,-116.5143,15.2,3.9,33.3527,-115.733,0.022714,0.097833,"S512",257.005454284998,0.94,33.353,-115.733,1176.85760018628,3714.09788012833,8,8.80920535062899,1102.8745577455,3726.52529361812
71,61,8176,163,1,0,5,4.92,-32,12.48,92.68,91.25,86.98,-31.04,2.8,356,0.0054,-7.8966,-0.4434,-8.4087,0.5867,109,-999,78,0,0.4096,1,-0.5929,"Big Bear Solar Observatory",100543,"BBR",33.5083,-116.5143,15.2,3.9,34.2623,-116.9208,0.0062099,0.019047,"S639",356,-999,34.262,-116.921,1060.03990091627,3807.97012276097,9,24.8888191575653,1102.8745577455,3726.52529361812
71,62,8177,163,1,0,5,4.92,-32,12.48,64.83,62.82,63.62,-1,2.8,341,0.0104,-7.1809,-0.9204,-7.8664,0.5867,90,-999,78,0,0.4229,1,-1.2309,"Beaumont, I-10 at 79",3039,"bbs",33.5083,-116.5143,15.2,3.9,33.921,-116.981,0.0075585,0.02,"S640",341,-999,33.921,-116.981,1056.74404639851,3769.75201224916,9,19.5231577374379,1102.8745577455,3726.52529361812
71,63,8178,163,1,0,5,4.92,-32,12.48,70.33,68.59,54.17,44.33,2.8,399.9,0.009,-8.6738,-0.2306,-8.1306,0.5867,52,-999,78,0,0.3653,1,-0.3084,"Bear Creek Country Club",100161,"BCC",33.5083,-116.5143,15.2,3.9,33.57508,-117.2612,0.012141,0.014047,"S641",399.9,-999,33.575,-117.261,1032.95713434719,3729.82552084101,9,38.1038549497581,1102.8745577455,3726.52529361812
71,64,8179,163,1,0,5,4.92,-32,12.48,72.43,71.27,7.07,-72.31,2.8,796,0.0086,-8.6507,-0.6036,-8.8256,0.5867,174,0.02,78,0,0.0372,1,-0.8072,"Belle Mountain Joshua Tree",100091,"BEL",33.5083,-116.5143,15.2,3.9,34.0006,-115.9982,0.0056802,0.0091589,"S642",796,0.02,34.001,-115.998,1147.21820191963,3784.44836783776,9,33.363213660934,1102.8745577455,3726.52529361812
71,65,8182,163,1,0,5,4.92,-32,12.48,63.97,62.26,37.53,-51.49,2.8,524,0.0106,-8.7786,-0.9286,-8.2561,0.5867,143,-999,78,0,0.2197,1,-1.2418,"Black Rock Canyon Campground 2",3042,"bla2",33.5083,-116.5143,15.2,3.9,34.069,-116.39,0.0059273,0.010387,"S643",524,-999,34.069,-116.39,1110.43195134824,3789.58438518104,9,14.6795900429487,1102.8745577455,3726.52529361812
71,68,8193,163,1,0,5,4.92,-32,12.48,99.71,98.38,98.97,5.06,2.8,267.92,0.0047,-7.389,-0.4093,-8.3529,0.5867,86,0.32,78,0,0.4714,1,-0.5474,"Colton, Grape St. and W. Mill",3050,"clt",33.5083,-116.5143,15.2,3.9,34.093,-117.317,0.0062783,0.021146,"S646",267.901290277526,0.32,34.093,-117.317,1024.56162765688,3787.07870937347,6,2.13770696813022,1102.8745577455,3726.52529361812
71,69,8196,163,1,0,5,4.92,-32,12.48,51.31,49.77,-21.28,-46.33,2.8,370,0.0154,-7.5407,-0.6859,-7.9504,0.5867,-155,0.1,78,0,0.3964,1,-0.9173,"Cactus City, Airway beacon",3052,"ctc",33.5083,-116.5143,15.2,3.9,33.655,-115.99,0.013604,0.038091,"S647",370,0.1,33.655,-115.99,1150.59271925333,3746.02699384787,9,7.25501120943978,1102.8745577455,3726.52529361812
71,71,8201,163,1,0,5,4.92,-32,12.48,49.97,47.66,43.81,21.78,2.8,576.04,0.0161,-8.2396,-0.0623,-8.0083,0.5867,65,-999,78,0,0.1646,1,-0.0833,"Domenigoni Reservoir",3053,"dgr",33.5083,-116.5143,15.2,3.9,33.65,-117.009,0.0174,0.022862,"S649",576.001066630619,-999,33.65,-117.009,1055.90775924286,3739.48987776095,9,45.0612344625958,1102.8745577455,3726.52529361812
71,72,8204,163,1,0,5,4.92,-32,12.48,17.97,12.13,12.8,3.05,2.8,361,0.0722,-6.1573,0.0911,-6.8874,0.5867,82,0.02,78,0,0.405,1,0.1219,"Anza, Mitchell Rd.",3054,"dnr",33.5083,-116.5143,15.2,3.9,33.567,-116.631,0.13261,0.23658,"S650",361,0.02,33.567,-116.631,1091.60678598575,3732.37333091595,9,25.2848917623737,1102.8745577455,3726.52529361812
