"i","j","recID","eqid","region","SOF","magBin","mag","rake","ZTOR","Rrup","RJB","RX","RY","FLen","VS30","rockPGA","lnY","intra.Resid","Median","eventTerm","srcSiteA","z1","dip","Z1_1D","Z1_Ref","iregion.i.","epsilon_within","Station.Name","Station.Sequence.Number","Station.ID..No.","Hypocenter.Latitude..deg.","Hypocenter.Longitude..deg.","Hypocenter.Depth..km.","Fault.Rupture.Width..km.","Station.Latitude","Station.Longitude","PGA..g.","T0.200S","STATID","VS30_gmean","Z1_mean","Lat_stat","Lon_stat","X_stat","Y_stat","Basin_ID","D_basin","X_eq","Y_eq"
67,10,1769,158,1,0,7,7.13,1,0,195.87,195.87,-187.09,44.86,44,460.09,0.0108,-5.1668,-0.1513,-5.9243,0.3929,-72.78,0.32,82,0,0.2953,1,-0.2722,"Beverly Hills Pac Bell Bsmt",1263,5402,34.5981,-116.2645,14.8,16.2,34.0762,-118.3959,0.014983,0.028507,"S510",460.096666642517,0.32,34.076,-118.396,924.961756233529,3780.16146908355,1,0.541514978531818,1118.12363271072,3849.16206715708
67,11,1770,158,1,0,7,7.13,1,0,61.85,61.85,-60.96,-4.43,44,406.7,0.063,-4.4811,0.4701,-5.0552,0.3929,-80.25,-999,82,0,0.3578,1,0.8453,"Big Bear Lake - Fire Station",1389,22791,34.5981,-116.2645,14.8,16.2,34.241,-116.872,0.16623,0.39297,"S511",406.7,-999,34.241,-116.872,1064.70142746225,3805.90882963374,9,26.1871703710957,1118.12363271072,3849.16206715708
67,12,1771,158,1,0,7,7.13,1,0,120.69,120.69,-38.86,-138.23,44,257.03,0.026,-4.5052,-0.2284,-4.9809,0.3929,-161.22,0.94,82,0,0.4764,1,-0.4107,"Bombay Beach Fire Station",1234,5271,34.5981,-116.2645,14.8,16.2,33.3527,-115.733,0.041807,0.07603,"S512",257.005454284998,0.94,33.353,-115.733,1176.85760018628,3714.09788012833,8,8.80920535062899,1118.12363271072,3849.16206715708
67,13,1772,158,1,0,7,7.13,1,0,187.73,187.73,-175.8,54.39,44,422.33,0.0118,-5.4012,0.4509,-5.8339,0.3929,-69.46,0.34,82,0,0.3401,1,0.8108,"Burbank Airport",1260,5398,34.5981,-116.2645,14.8,16.2,34.1949,-118.354,0.030979,0.063439,"S513",422.304999852007,0.34,34.195,-118.354,928.239169372763,3793.54827004574,3,1.64282154392299,1118.12363271072,3849.16206715708
67,14,1773,158,1,0,7,7.13,1,0,77.01,77.01,-76.86,-39.05,44,376.91,0.0486,-4.8485,-0.7462,-5.1322,0.3929,-93.59,-999,82,0,0.3895,1,-1.3419,"Cabazon",225,5073,34.5981,-116.2645,14.8,16.2,33.9176,-116.7833,0.039222,0.079988,"S189",376.91,-999,33.918,-116.783,1075.10563905666,3770.51577946264,9,15.6938469024446,1118.12363271072,3849.16206715708
67,15,1776,158,1,0,7,7.13,1,0,56.4,56.4,-53.9,-46.32,44,359,0.0699,-5.2423,-0.4437,-4.9211,0.3929,-107.12,0.34,82,0,0.4069,1,-0.798,"Desert Hot Springs",267,12149,34.5981,-116.2645,14.8,16.2,33.962,-116.509,0.076543,0.14986,"S192",359,0.34,33.962,-116.509,1100.18159323679,3776.98371512629,7,1.41227143299073,1118.12363271072,3849.16206715708
67,16,1777,158,1,0,7,7.13,1,0,106.17,106.17,-105.16,17.6,44,526.24,0.0315,-4.7522,-0.0967,-5.5822,0.3929,-82.1,0.32,82,0,0.2172,1,-0.1738,"Devore - Devore Water Company",1232,5265,34.5981,-116.2645,14.8,16.2,34.235,-117.407,0.043179,0.077571,"S514",526.222856770544,0.32,34.235,-117.407,1015.37695451982,3802.39139796235,9,3.88789026444082,1118.12363271072,3849.16206715708
67,17,1780,158,1,0,7,7.13,1,0,149.43,149.43,-147.11,-4.41,44,367.54,0.0182,-4.7451,0.2248,-5.5563,0.3929,-79.89,-999,82,0,0.3988,1,0.4042,"Featherly Park - Maint",274,13122,34.5981,-116.2645,14.8,16.2,33.869,-117.709,0.040537,0.065773,"S250",367.54,-999,33.869,-117.709,989.626455739907,3760.25164904744,9,7.35951926249234,1118.12363271072,3849.16206715708
67,18,1782,158,1,0,7,7.13,1,0,74.92,74.92,-74.92,-27.18,44,436.14,0.0503,-4.3896,-0.3852,-5.2314,0.3929,-90,-999,82,0,0.3239,1,-0.6927,"Forest Falls Post Office",1218,5075,34.5981,-116.2645,14.8,16.2,34.088,-116.919,0.055178,0.13407,"S416",436.14,-999,34.088,-116.919,1061.38141966354,3788.64758101559,9,14.8771606767293,1118.12363271072,3849.16206715708
67,20,1784,158,1,0,7,7.13,1,0,118.5,118.5,-30.19,-137.08,44,384.66,0.0267,-4.9682,0.437,-5.3972,0.3929,-165.24,0.5,82,0,0.3816,1,0.7858,"Frink",1284,11684,34.5981,-116.2645,14.8,16.2,33.398,-115.657,0.071575,0.16921,"S515",384.66,0.5,33.398,-115.657,1183.59675935663,3719.60312600301,8,1.7523957804543,1118.12363271072,3849.16206715708
67,22,1786,158,1,0,7,7.13,1,0,61.21,61.21,-61.21,-27.66,44,624.94,0.0638,-4.4736,-0.0488,-5.3924,0.3929,-90,-999,82,0,0.1217,1,-0.0878,"Heart Bar State Park",1561,"22T04",34.5981,-116.2645,14.8,16.2,34.161,-116.799,0.083916,0.27513,"S516",624.94,-999,34.161,-116.799,1071.9810048085,3797.42850934279,9,26.6133317338941,1118.12363271072,3849.16206715708
67,26,1790,158,1,0,7,7.13,1,0,184.03,184.03,-182.32,-11.76,44,315.52,0.0123,-4.1261,0.0855,-5.5987,0.3929,-82.19,0.4,82,0,0.4428,1,0.1538,"Huntington Beach - Lake St",278,13197,34.5981,-116.2645,14.8,16.2,33.662,-117.997,0.025487,0.059047,"S256",315.513333192467,0.4,33.662,-117.997,964.066894362711,3735.92791059247,1,1.56962021588596,1118.12363271072,3849.16206715708
67,29,1793,158,1,0,7,7.13,1,0,196.78,196.78,-177.75,71.85,44,525.79,0.0107,-5.0401,0.8198,-6.0187,0.3929,-64.59,0.32,82,0,0.2177,1,1.4743,"Jensen Filter Plant Generator Building",1153,655,34.5981,-116.2645,14.8,16.2,34.313,-118.498,0.036891,0.05152,"S453",525.793333312201,0.32,34.313,-118.498,914.375338798572,3806.05006039044,9,2.37542548329085,1118.12363271072,3849.16206715708
67,30,1794,158,1,0,7,7.13,1,0,31.06,31.06,-28.22,-38.36,44,379.32,0.1259,-5.1158,-0.3267,-4.5859,0.3929,-114.7,-999,82,0,0.387,1,-0.5874,"Joshua Tree",298,22170,34.5981,-116.2645,14.8,16.2,34.13,-116.314,0.14652,0.35629,"S198",379.32,-999,34.13,-116.314,1117.01669939547,3796.82427395701,9,24.3404949421387,1118.12363271072,3849.16206715708
67,31,1795,158,1,0,7,7.13,1,0,50.42,50.42,-31.94,-64.3,44,686.12,0.0788,-4.8471,-0.2951,-5.4256,0.3929,-140.7,0.02,82,0,0.0809,1,-0.5307,"Joshua Tree N.M. - Keys View",1294,12647,34.5981,-116.2645,14.8,16.2,33.925,-116.172,0.078407,0.2113,"S518",686.12,0.02,33.925,-116.172,1131.67108450951,3774.90632186666,9,17.2647710197722,1118.12363271072,3849.16206715708
67,32,1797,158,1,0,7,7.13,1,0,177.94,177.94,-172.68,32.98,44,365.22,0.0131,-4.7805,0.5146,-5.7063,0.3929,-76.02,0.32,82,0,0.401,1,0.9253,"LA - City Terrace",353,24592,34.5981,-116.2645,14.8,16.2,34.053,-118.171,0.039265,0.094559,"S426",365.22,0.32,34.053,-118.171,945.868682694138,3778.56875037486,9,2.96176288966282,1118.12363271072,3849.16206715708
67,33,1799,158,1,0,7,7.13,1,0,179.29,179.29,-174.3,31.76,44,349.43,0.0129,-4.5936,0.2668,-5.6594,0.3929,-76.45,0.38,82,0,0.4156,1,0.4797,"LA - Obregon Park",337,24400,34.5981,-116.2645,14.8,16.2,34.037,-118.178,0.030662,0.071845,"S269",349.419999713806,0.38,34.037,-118.178,945.305688424754,3776.76174946919,9,1.86929405994365,1118.12363271072,3849.16206715708
67,34,1800,158,1,0,7,7.13,1,0,186.79,186.79,-180.54,36.35,44,304.68,0.0119,-4.7478,-0.452,-5.6122,0.3929,-75.13,0.32,82,0,0.4503,1,-0.8128,"LA - Pico & Sentous",358,24612,34.5981,-116.2645,14.8,16.2,34.043,-118.271,0.014689,0.0246,"S455",304.686666520799,0.32,34.043,-118.271,936.679014250303,3777.02591751834,1,0.222842358267544,1118.12363271072,3849.16206715708
67,35,1801,158,1,0,7,7.13,1,0,183.96,183.96,-177.63,36.79,44,452.15,0.0123,-4.9251,0.1105,-5.8672,0.3929,-74.92,0.32,82,0,0.3049,1,0.1988,"LA - Temple & Hope",357,24611,34.5981,-116.2645,14.8,16.2,34.059,-118.246,0.022322,0.048476,"S427",452.157142518647,0.32,34.059,-118.246,938.906793997517,3778.90955909279,9,1.37746629385185,1118.12363271072,3849.16206715708
67,36,1803,158,1,0,7,7.13,1,0,194.67,194.67,-189.21,6.94,44,322,0.0109,-3.866,-0.1892,-5.6496,0.3929,-76.4,0.42,82,0,0.4381,1,-0.3402,"LB - City Hall",293,14560,34.5981,-116.2645,14.8,16.2,33.768,-118.196,0.017132,0.024716,"S460",322,0.42,33.768,-118.196,945.041996916923,3746.81777110706,1,2.89156795500447,1118.12363271072,3849.16206715708
67,41,1808,158,1,0,7,7.13,1,0,177.48,177.48,-171.7,35.01,44,330.03,0.0132,-4.9182,0.5662,-5.6328,0.3929,-75.34,0.32,82,0,0.4319,1,1.0181,"Los Angeles - Acosta Residence",1259,5396,34.5981,-116.2645,14.8,16.2,34.073,-118.117,0.043415,0.088358,"S522",330.014999659106,0.32,34.073,-118.117,950.752822842908,3781.02676268052,4,1.25246299036718,1118.12363271072,3849.16206715708
67,42,1809,158,1,0,7,7.13,1,0,112.26,112.26,-110.69,20.6,44,414.03,0.029,-4.8565,0.0238,-5.4539,0.3929,-80.39,-999,82,0,0.3496,1,0.0427,"Lytle Creek Fire Station",1266,5409,34.5981,-116.2645,14.8,16.2,34.233,-117.482,0.049699,0.13234,"S523",414.012856876674,-999,34.233,-117.482,1008.47009190542,3801.79063031426,9,7.19727004489511,1118.12363271072,3849.16206715708
67,43,1810,158,1,0,7,7.13,1,0,91.96,91.96,-43.1,-107.04,44,318,0.0386,-4.0651,0.2747,-4.9052,0.3929,-152.05,2.18,82,0,0.441,1,0.494,"Mecca - CVWD Yard",1282,11625,34.5981,-116.2645,14.8,16.2,33.564,-115.987,0.093619,0.23386,"S430",318,2.18,33.564,-115.987,1151.56072025984,3735.92736912681,8,1.4866504963852,1118.12363271072,3849.16206715708
67,44,1811,158,1,0,7,7.13,1,0,91.15,91.15,-90.67,-10.71,44,351.31,0.0391,-4.5068,-0.3966,-5.2171,0.3929,-84.13,0.32,82,0,0.4139,1,-0.7131,"Mentone Fire Station #9",1221,5162,34.5981,-116.2645,14.8,16.2,34.067,-117.117,0.046565,0.075932,"S524",351.305999965842,0.32,34.067,-117.117,1043.21293272401,3785.23955071814,6,0.521097856715528,1118.12363271072,3849.16206715708
67,45,1812,158,1,0,7,7.13,1,0,84.87,84.87,-84.64,-12.6,44,387.12,0.0429,-4.4812,-0.2505,-5.2372,0.3929,-85.78,0.32,82,0,0.379,1,-0.4505,"Mill Creek Ranger Station",1219,5076,34.5981,-116.2645,14.8,16.2,34.079,-117.045,0.056344,0.16477,"S525",387.11249987891,0.32,34.079,-117.045,1049.79210509665,3786.95941395221,9,3.16566207237871,1118.12363271072,3849.16206715708
67,46,1813,158,1,0,7,7.13,1,0,53.21,53.21,-52.97,-35.09,44,396.41,0.0744,-4.8291,-0.4285,-5.2718,0.3929,-95.48,0.02,82,0,0.3691,1,-0.7707,"Morongo Valley Fire Station",223,5071,34.5981,-116.2645,14.8,16.2,34.0486,-116.5782,0.079991,0.18968,"S201",396.406923050054,0.02,34.049,-116.578,1093.18277864536,3786.2489021266,9,5.56130304316732,1118.12363271072,3849.16206715708
67,47,1814,158,1,0,7,7.13,1,0,198.13,198.13,-175.03,80.4,44,269.14,0.0105,-5.1277,-0.1504,-5.5376,0.3929,-62.05,0.42,82,0,0.4708,1,-0.2705,"Newhall - Fire Sta",324,24279,34.5981,-116.2645,14.8,16.2,34.387,-118.533,0.018559,0.048649,"S293",269.129999442621,0.42,34.387,-118.533,910.789343189345,3814.12208343641,9,9.62481281214998,1118.12363271072,3849.16206715708
67,48,1816,158,1,0,7,7.13,1,0,61.86,61.86,-59.29,-48.27,44,367.84,0.063,-5.0277,-0.5093,-4.8828,0.3929,-106.58,0.82,82,0,0.3985,1,-0.9158,"North Palm Springs Fire Sta #36",1241,5295,34.5981,-116.2645,14.8,16.2,33.9247,-116.5479,0.064289,0.17423,"S419",367.83555534074,0.82,33.925,-116.548,1096.8294294643,3772.64254715131,7,4.53973166535027,1118.12363271072,3849.16206715708
67,49,1817,158,1,0,7,7.13,1,0,110.72,110.72,-41.41,-127.48,44,382.07,0.0296,-4.2893,0.1959,-5.3002,0.3929,-158.04,0.72,82,0,0.3842,1,0.3522,"North Shore - Durmid",1280,11591,34.5981,-116.2645,14.8,16.2,33.421,-115.831,0.062505,0.11812,"S433",382.07,0.72,33.421,-115.831,1167.18729676213,3721.02326367553,8,9.45571037597347,1118.12363271072,3849.16206715708
67,50,1818,158,1,0,7,7.13,1,0,186.31,186.31,-170.18,64.91,44,508.08,0.012,-5.2314,0.5345,-5.9561,0.3929,-65.99,0.32,82,0,0.238,1,0.9611,"Pacoima Kagel Canyon",316,24088,34.5981,-116.2645,14.8,16.2,34.296,-118.375,0.03154,0.063076,"S299",508.082222183345,0.32,34.296,-118.375,925.791506668452,3804.67258290396,9,1.81566550641537,1118.12363271072,3849.16206715708
67,53,1821,158,1,0,7,7.13,1,0,143.36,143.36,-142.13,15.08,44,384.44,0.0196,-4.9302,0.0576,-5.5852,0.3929,-82.5,0.32,82,0,0.3818,1,0.1036,"Pomona - 4th & Locust FF",302,23525,34.5981,-116.2645,14.8,16.2,34.056,-117.748,0.036101,0.070638,"S306",384.428571003863,0.32,34.056,-117.748,984.947090523483,3780.83286104091,5,1.32278512208011,1118.12363271072,3849.16206715708
67,54,1822,158,1,0,7,7.13,1,0,123.79,123.79,-122.45,-7.82,44,389.95,0.025,-5.069,-0.5287,-5.4927,0.3929,-81.57,0.32,82,0,0.376,1,-0.9508,"Riverside Airport",275,13123,34.5981,-116.2645,14.8,16.2,33.951,-117.446,0.024722,0.088076,"S207",389.970832554262,0.32,33.951,-117.446,1013.49854325885,3770.64876021556,9,6.7397208843987,1118.12363271072,3849.16206715708
67,57,1826,158,1,0,7,7.13,1,0,103.62,103.62,-101.41,-1.14,44,279.46,0.0327,-4.2423,-0.3206,-5.1625,0.3929,-78.15,0.32,82,0,0.4655,1,-0.5765,"San Bernardino - Fire Sta. #10",1253,5339,34.5981,-116.2645,14.8,16.2,34.091,-117.289,0.045925,0.13037,"S527",279.473332697236,0.32,34.091,-117.289,1027.16176973581,3787.00124516141,6,4.07192456075155,1118.12363271072,3849.16206715708
67,58,1827,158,1,0,7,7.13,1,0,101.71,101.71,-98.37,3.75,44,322.53,0.0336,-4.5713,-0.2342,-5.2278,0.3929,-75.29,0.32,82,0,0.4377,1,-0.4212,"San Bernardino - Fire Sta. #4",1252,5337,34.5981,-116.2645,14.8,16.2,34.14,-117.294,0.048842,0.1027,"S528",322.516666322151,0.32,34.14,-117.294,1026.39461852872,3792.41852233003,6,3.86538407681358,1118.12363271072,3849.16206715708
67,59,1828,158,1,0,7,7.13,1,0,108.02,108.02,-104.9,2.55,44,325.97,0.0307,-4.6974,-0.3181,-5.2756,0.3929,-76.19,0.32,82,0,0.435,1,-0.5721,"San Bernardino - Fire Sta. #9",1249,5330,34.5981,-116.2645,14.8,16.2,34.103,-117.349,0.041081,0.083107,"S529",325.984999654892,0.32,34.103,-117.349,1021.54270645346,3788.02502178734,6,0.450792057432281,1118.12363271072,3849.16206715708
67,60,1829,158,1,0,7,7.13,1,0,104.95,104.95,-103.6,-5.84,44,358.92,0.0321,-4.4581,0.6539,-5.3249,0.3929,-80.81,0.32,82,0,0.4069,1,1.1758,"San Bernardino - Mont. Mem Pk",1247,5328,34.5981,-116.2645,14.8,16.2,34.047,-117.277,0.10936,0.17288,"S530",358.911428434961,0.32,34.047,-117.277,1028.54523704312,3782.17568278081,9,0.125764445290207,1118.12363271072,3849.16206715708
67,62,1831,158,1,0,7,7.13,1,0,92.71,92.71,-92.19,-46.54,44,447.22,0.0382,-4.8453,-0.0783,-5.3887,0.3929,-96.08,-999,82,0,0.3108,1,-0.1408,"San Jacinto - Soboba",270,12204,34.5981,-116.2645,14.8,16.2,33.797,-116.88,0.056041,0.12301,"S208",447.22,-999,33.797,-116.88,1066.92279718386,3756.52873183446,9,26.5134036129374,1118.12363271072,3849.16206715708
67,63,1832,158,1,0,7,7.13,1,0,87.2,87.2,-86.36,-7.32,44,564.93,0.0414,-4.5556,-0.1058,-5.6633,0.3929,-82.04,0.02,82,0,0.1756,1,-0.1902,"Seven Oaks Dam Project Office",1243,5300,34.5981,-116.2645,14.8,16.2,34.1105,-117.099,0.054201,0.18428,"S532",594.890535476906,0.02,34.11,-117.099,1044.60042245241,3790.11303157627,9,2.15500483975784,1118.12363271072,3849.16206715708
67,64,1833,158,1,0,7,7.13,1,0,72.88,72.88,-71.69,-46.07,44,523.59,0.052,-5.2809,-1.1986,-5.3601,0.3929,-100.35,-999,82,0,0.2201,1,-2.1556,"Snow Creek",1292,12630,34.5981,-116.2645,14.8,16.2,33.888,-116.684,0.022203,0.042166,"S442",523.59,-999,33.888,-116.684,1084.48343593803,3767.74384806304,9,6.29628657691978,1118.12363271072,3849.16206715708
67,65,1834,158,1,0,7,7.13,1,0,191.59,191.59,-172.92,70.84,44,420.81,0.0113,-5.2438,0.4678,-5.9974,0.3929,-64.49,0.1,82,0,0.3418,1,0.8412,"Sylmar - County Hospital Grounds",1429,24763,34.5981,-116.2645,14.8,16.2,34.327,-118.444,0.030352,0.054472,"S497",420.804999970295,0.1,34.327,-118.444,919.279623783126,3807.82634272483,9,0.622651949573569,1118.12363271072,3849.16206715708
67,67,1836,158,1,0,7,7.13,1,0,42.06,42.06,-13.5,-62.17,44,635.01,0.0947,-5.237,-0.7166,-5.2762,0.3929,-161.27,0.02,82,0,0.114,1,-1.2887,"Twentynine Palms",297,22161,34.5981,-116.2645,14.8,16.2,34.021,-116.009,0.063209,0.13792,"S414",635.01,0.02,34.021,-116.009,1146.04700372155,3786.60222132964,9,34.8044453428495,1118.12363271072,3849.16206715708
67,70,1840,158,1,0,7,7.13,1,0,169.83,169.83,-166.54,24.75,44,298.68,0.0144,-3.635,0.7464,-5.5087,0.3929,-78.7,0.4,82,0,0.4542,1,1.3422,"Whittier Narrows Dam downstream",98,289,34.5981,-116.2645,14.8,16.2,34.02,-118.053,0.059158,0.098217,"S25",298.68,0.4,34.02,-118.053,956.951345678403,3775.4268605099,9,0.408876109750224,1118.12363271072,3849.16206715708
67,72,1842,158,1,0,7,7.13,1,0,118.71,118.71,-112.39,38.96,44,399.84,0.0267,-5.3722,0.0656,-5.4638,0.3929,-71.22,-999,82,0,0.3654,1,0.118,"Wrightwood Post Office",1237,5282,34.5981,-116.2645,14.8,16.2,34.36,-117.629,0.048059,0.12875,"S534",399.819999499775,-999,34.36,-117.629,994.162330417349,3815.1684143642,9,21.9307561973266,1118.12363271072,3849.16206715708
67,73,3780,158,1,0,7,7.13,1,0,175.39,175.39,-169.98,33.69,44,549.75,0.0135,-4.8859,0.1725,-5.9597,0.3929,-75.73,0.32,82,0,0.1914,1,0.3102,"Alhambra - Fremont School",342,24461,34.5981,-116.2645,14.8,16.2,34.07,-118.15,0.02386,0.053052,"S224",549.75,0.32,34.07,-118.15,947.71967397188,3780.54823760313,9,0.450730331938614,1118.12363271072,3849.16206715708
67,74,3781,158,1,0,7,7.13,1,0,162.36,162.36,-158.88,0.41,44,283.54,0.0156,-4.1894,0.1343,-5.4097,0.3929,-78.12,0.46,82,0,0.4632,1,0.2415,"Anaheim - Kraemer & La Palma",1652,13883,34.5981,-116.2645,14.8,16.2,33.853,-117.857,0.035669,0.065308,"S535",283.526666039624,0.46,33.853,-117.857,976.005510062375,3757.77726546981,1,0.804480509951182,1118.12363271072,3849.16206715708
67,75,3782,158,1,0,7,7.13,1,0,159.02,159.02,-155.93,-1.21,44,359.47,0.0163,-4.2683,0.5391,-5.6133,0.3929,-78.69,0.32,82,0,0.4064,1,0.9695,"Anaheim - Lakeview & Riverdale",1318,13849,34.5981,-116.2645,14.8,16.2,33.854,-117.817,0.050113,0.14465,"S536",359.484999687052,0.32,33.854,-117.817,979.705895624118,3758.07485689687,1,0.288313811928064,1118.12363271072,3849.16206715708
67,76,3783,158,1,0,7,7.13,1,0,89.67,89.67,-89.67,-37.93,44,315.21,0.0399,-4.241,-0.1367,-5.0871,0.3929,-90,-999,82,0,0.443,1,-0.2459,"Beaumont - 6th & Maple",1298,12919,34.5981,-116.2645,14.8,16.2,33.93,-116.972,0.064355,0.14744,"S537",315.21,-999,33.93,-116.972,1057.51875096999,3770.80108533564,9,19.0628341417148,1118.12363271072,3849.16206715708
67,77,3787,158,1,0,7,7.13,1,0,137.69,137.69,-132.93,-13.02,44,334.85,0.021,-4.9684,-0.2319,-5.4609,0.3929,-83.63,0.32,82,0,0.428,1,-0.417,"Corona - California Ave",1653,13726,34.5981,-116.2645,14.8,16.2,33.8556,-117.54,0.030421,0.046607,"S538",334.866665837177,0.32,33.856,-117.54,1005.36027130496,3759.62883799966,5,0.442364514714427,1118.12363271072,3849.16206715708
67,78,3788,158,1,0,7,7.13,1,0,180.96,180.96,-173.88,39.62,44,370.69,0.0127,-5.2131,0.0002,-5.729,0.3929,-73.92,0.32,82,0,0.3957,1,0.0003,"Cypress Park - San Fernando & Division",1654,24813,34.5981,-116.2645,14.8,16.2,34.096,-118.23,0.022556,0.043358,"S539",370.69499996628,0.32,34.096,-118.23,940.193180489643,3783.08639872622,9,4.64308231970163,1118.12363271072,3849.16206715708
67,79,3789,158,1,0,7,7.13,1,0,177.8,177.8,-175.44,18.98,44,274.73,0.0131,-4.0398,0.3431,-5.3785,0.3929,-80.65,0.66,82,0,0.468,1,0.617,"Downey - Florence & I605",1655,14828,34.5981,-116.2645,14.8,16.2,33.939,-118.098,0.037452,0.099707,"S540",274.719999635984,0.66,33.939,-118.098,953.221997791321,3766.23279846545,1,7.25179006321936,1118.12363271072,3849.16206715708
67,80,3790,158,1,0,7,7.13,1,0,163,163,-158.45,5.09,44,376.96,0.0155,-4.1107,0.283,-5.6021,0.3929,-76.44,0.52,82,0,0.3894,1,0.5088,"Fullerton - CSU Fullerton Grnds",1323,13878,34.5981,-116.2645,14.8,16.2,33.889,-117.886,0.036348,0.068092,"S541",376.983999490687,0.52,33.889,-117.886,973.119324070772,3761.6405164157,1,3.09921898014971,1118.12363271072,3849.16206715708
67,81,3791,158,1,0,7,7.13,1,0,171.89,171.89,-169.35,-5.26,44,283.73,0.014,-4.0072,-0.0355,-5.4187,0.3929,-80.14,0.54,82,0,0.4631,1,-0.0638,"Garden Grove - Hwy 22 & Harbor",1656,13884,34.5981,-116.2645,14.8,16.2,33.766,-117.918,0.027064,0.055721,"S542",283.719999647531,0.54,33.766,-117.918,970.832094175834,3747.83497012968,1,9.9729380666793,1118.12363271072,3849.16206715708
67,82,3792,158,1,0,7,7.13,1,0,187.99,187.99,-179.54,44.01,44,413.39,0.0117,-5.2365,0.4252,-5.8292,0.3929,-72.76,0.32,82,0,0.3503,1,0.7646,"Hollywood - Franklin & Bronson",1657,24810,34.5981,-116.2645,14.8,16.2,34.103,-118.316,0.030483,0.058358,"S543",413.394999969763,0.32,34.103,-118.316,932.214421256142,3783.49532501466,1,0.255374195862365,1118.12363271072,3849.16206715708
