"i","j","recID","eqid","region","SOF","magBin","mag","rake","ZTOR","Rrup","RJB","RX","RY","FLen","VS30","rockPGA","lnY","intra.Resid","Median","eventTerm","srcSiteA","z1","dip","Z1_1D","Z1_Ref","iregion.i.","epsilon_within","Station.Name","Station.Sequence.Number","Station.ID..No.","Hypocenter.Latitude..deg.","Hypocenter.Longitude..deg.","Hypocenter.Depth..km.","Fault.Rupture.Width..km.","Station.Latitude","Station.Longitude","PGA..g.","T0.200S","STATID","VS30_gmean","Z1_mean","Lat_stat","Lon_stat","X_stat","Y_stat","Basin_ID","D_basin","X_eq","Y_eq"
2,1,51,30,1,1,7,6.61,83,0,55.2,55.2,-54.51,-20.18,20,280.56,0.0374,-2.4357,-0.8383,-1.899,0.1849,-99.03,0.32,45,0,0.4649,1,-1.4125,"2516 Via Tejon PV",3,411,34.44,-118.41,13,27.4,33.801,-118.387,0.031274,0.090758,"S5",280.56,0.32,33.801,-118.387,927.168415498866,3749.67041310359,9,2.93540553323861,921.842258158971,3820.51223903168
2,2,56,30,1,1,7,6.61,83,0,61.79,61.79,-29.31,-64.87,20,235,0.0325,-1.8183,0.0559,-1.9541,0.1849,-151.69,0.36,45,0,0.4849,1,0.0943,"Carbon Canyon Dam",71,108,34.44,-118.41,13,27.4,33.9121,-117.838,0.071213,0.18071,"S6",235,0.36,33.912,-117.838,977.435872022373,3764.41747537246,9,1.98429789416711,921.842258158971,3820.51223903168
2,5,66,30,1,1,7,6.61,83,0,139.14,139.14,-27.63,-146.65,20,328.09,0.0094,-2.4456,0.7267,-3.4527,0.1849,-168.54,-999,45,0,0.4334,1,1.2245,"Hemet Fire Station",272,12331,34.44,-118.41,13,27.4,33.729,-116.979,0.036698,0.10258,"S9",328.0927272425,-999,33.729,-116.979,1058.18187091981,3748.43001980908,9,38.0538905410939,921.842258158971,3820.51223903168
2,7,68,30,1,1,7,6.61,83,0,22.77,22.77,-22.3,-14.84,20,316.46,0.0974,-0.6449,0.3118,-1.0994,0.1849,-101.66,0.32,45,0,0.4421,1,0.5254,"LA - Hollywood Stor FF",326,24303,34.44,-118.41,13,27.4,34.09,-118.339,0.21729,0.55754,"S11",316.46,0.32,34.09,-118.339,930.156315689499,3781.95476635018,1,0.942811477833974,921.842258158971,3820.51223903168
2,12,77,30,1,1,7,6.61,83,0,1.81,0,2.56,-4.94,20,2016.13,0.5422,0.6964,0.9594,-0.1719,0.1849,90,0,45,0,0.0001,1,1.6167,"Pacoima Dam (upper left abut)",88,279,34.44,-118.41,13,27.4,34.334,-118.396,1.2217,2.0558,"S16",2016.13,-999,34.334,-118.396,923.665137051258,3808.80315542428,9,3.56777023868403,921.842258158971,3820.51223903168
2,15,82,30,1,1,7,6.61,83,0,68.84,68.84,-36.79,63.12,20,248.98,0.0282,-3.0399,-0.7799,-2.1144,0.1849,-32.3,0.52,45,0,0.4797,1,-1.3141,"Port Hueneme",85,272,34.44,-118.41,13,27.4,34.145,-119.206,0.026619,0.058143,"S19",248.98,0.52,34.145,-119.206,849.866512200171,3784.74097080256,2,0.954760089028969,921.842258158971,3820.51223903168
2,16,83,30,1,1,7,6.61,83,0,52.64,52.64,-9.37,-61.47,20,421.44,0.0396,-1.8343,-0.0802,-2.0486,0.1849,-169.74,0.32,45,0,0.3411,1,-0.1351,"Puddingstone Dam (Abutment)",87,278,34.44,-118.41,13,27.4,34.091,-117.808,0.059764,0.20898,"S20",421.44,0.32,34.091,-117.808,979.203362753127,3784.43575324459,9,1.33002969158871,921.842258158971,3820.51223903168
2,17,85,30,1,1,7,6.61,83,0,108.01,108.01,-70.57,-93.92,20,459.37,0.0146,-2.4746,0.4801,-3.1835,0.1849,-139.2,-999,45,0,0.2962,1,0.809,"San Juan Capistrano",104,465,34.44,-118.41,13,27.4,33.4894,-117.671,0.038196,0.10209,"S21",459.37,-999,33.489,-117.671,995.329808276681,3718.2319860778,9,21.7493532560838,921.842258158971,3820.51223903168
2,18,87,30,1,1,7,6.61,83,0,30.7,30.7,-4.38,-39.9,20,667.13,0.0723,-0.5768,0.6257,-1.6821,0.1849,-171.79,0.02,45,0,0.0921,1,1.0543,"Santa Anita Dam",68,104,34.44,-118.41,13,27.4,34.185,-118.018,0.18648,0.59166,"S22",667.13,0.02,34.185,-118.018,959.291860889662,3793.90514249828,9,2.99670603014491,921.842258158971,3820.51223903168
2,19,91,30,1,1,7,6.61,83,0,61.73,61.72,0.74,-70.94,20,487.23,0.0392,-1.9765,0.0482,-2.1603,0.1849,179,0.32,45,0,0.2627,1,0.0813,"Upland - San Antonio Dam",95,287,34.44,-118.41,13,27.4,34.155,-117.675,0.064655,0.22567,"S23",487.23,0.32,34.155,-117.675,991.120177186324,3792.17745909811,9,0.727624647936925,921.842258158971,3820.51223903168
2,21,93,30,1,1,7,6.61,83,0,39.45,39.45,-22.94,-42.34,20,298.68,0.0553,-1.1036,0.0926,-1.5635,0.1849,-144.43,0.4,45,0,0.4542,1,0.156,"Whittier Narrows Dam",96,289,34.44,-118.41,13,27.4,34.02,-118.053,0.1122,0.34967,"S25",298.68,0.4,34.02,-118.053,956.951345678403,3775.4268605099,9,0.408876109750224,921.842258158971,3820.51223903168
2,22,94,30,1,1,7,6.61,83,0,62.23,61.64,23.83,-67.84,20,486,0.0554,-2.2882,-0.5669,-1.8311,0.1849,158,-999,45,0,0.2642,1,-0.9553,"Wrightwood - 6074 Park Dr",99,290,34.44,-118.41,13,27.4,34.36,-117.63,0.048565,0.14941,"S26",486,-999,34.36,-117.63,994.070226559392,3815.16352743136,9,21.9540221622914,921.842258158971,3820.51223903168
11,1,158,50,1,0,7,6.53,0,0,0.34,0,0.35,-11.09,50,259.86,0.2715,-0.4043,-0.4194,0.2353,-0.1072,90,1.36,80,0,0.4751,1,-0.6976,"Aeropuerto Mexicali",243,6616,32.644,-115.307,9.96,13,32.651,-115.332,0.29094,0.5554,"S48",259.86,1.36,32.651,-115.332,1220.02142590592,3638.6875680565,8,23.9345891094636,1222.43157347582,3638.07989677778
11,2,159,50,1,0,7,6.53,0,0,0.65,0,0.66,-15.51,50,242.05,0.275,-1.0251,-0.6768,0.2145,-0.1072,90,1.32,80,0,0.4824,1,-1.1259,"Agrarias",245,6618,32.644,-115.307,9.96,13,32.621,-115.301,0.23865,0.29349,"S49",242.05,1.32,32.621,-115.301,1223.18302292983,3635.56177303597,8,23.8288160267673,1222.43157347582,3638.07989677778
11,3,160,50,1,0,7,6.53,0,0,2.66,0.44,2.7,-7.01,50,223.03,0.2498,0.4459,0.4804,0.1338,-0.1072,90,1.4,80,0,0.4887,1,0.7992,"Bonds Corner",210,5054,32.644,-115.307,9.96,13,32.6931,-115.3382,0.68661,1.8796,"S50",223.03,1.4,32.693,-115.338,1219.11721059549,3643.31986985077,8,27.2634867129375,1222.43157347582,3638.07989677778
11,4,161,50,1,0,7,6.53,0,0,10.42,8.54,9.64,29.3,50,208.71,0.1081,-0.9688,-0.3284,-0.3312,-0.1072,66,1.5,80,0,0.4926,1,-0.5463,"Brawley Airport",216,5060,32.644,-115.307,9.96,13,32.991,-115.513,0.17591,0.43507,"S51",208.71,1.5,32.991,-115.513,1200.29012549851,3675.2893360384,8,29.0616401576757,1222.43157347582,3638.07989677778
11,5,162,50,1,0,7,6.53,0,0,10.45,10.45,-10.45,-0.36,50,231.23,0.1079,-0.5396,-0.0185,-0.3362,-0.1072,-90,1.28,80,0,0.4862,1,-0.0307,"Calexico Fire Station",209,5053,32.644,-115.307,9.96,13,32.6695,-115.493,0.23764,0.50843,"S52",231.23,1.28,32.67,-115.493,1204.71666843991,3639.7121963247,8,16.7153830149913,1222.43157347582,3638.07989677778
11,6,163,50,1,0,7,6.53,0,0,24.6,23.17,18.52,41.5,50,205.78,0.0498,-1.5017,-0.2625,-0.8953,-0.1072,48,1.46,80,0,0.4933,1,-0.4367,"Calipatria Fire Station",217,5061,32.644,-115.307,9.96,13,33.1266,-115.516,0.097772,0.29346,"S53",205.78,1.46,33.127,-115.516,1198.92461157595,3690.39859912134,8,21.3356945849613,1222.43157347582,3638.07989677778
11,9,166,50,1,0,7,6.53,0,0,50.1,49.1,28.71,66.36,50,336.49,0.0228,-1.9058,0.8304,-1.8877,-0.1072,35,0.42,80,0,0.4266,1,1.3814,"Coachella Canal #4",219,5066,32.644,-115.307,9.96,13,33.36,-115.59,0.12238,0.18966,"S56",336.49,0.42,33.36,-115.59,1190.15025103134,3715.82171453897,8,2.14596005116254,1222.43157347582,3638.07989677778
11,10,167,50,1,0,7,6.53,0,0,15.3,13.52,13.78,-32.06,50,259.86,0.0781,-1.1163,-0.205,-0.5991,-0.1072,117,1.12,80,0,0.4751,1,-0.341,"Compuertas",248,6622,32.644,-115.307,9.96,13,32.573,-115.083,0.15012,0.35472,"S57",259.86,1.12,32.573,-115.083,1244.11439199633,3631.73722796696,8,33.1436190110001,1222.43157347582,3638.07989677778
11,12,170,50,1,0,7,6.53,0,0,7.31,7.31,-7.31,14.49,50,192.05,0.1403,-0.8682,-0.273,-0.1908,-0.1072,-90,1.4,80,0,0.4962,1,-0.4541,"EC County Center FF",151,1136,32.644,-115.307,9.96,13,32.793,-115.562,0.22388,0.5115,"S59",192.05,1.4,32.793,-115.562,1197.25809298951,3652.93559176492,8,19.5243794852744,1222.43157347582,3638.07989677778
11,13,171,50,1,0,7,6.53,0,0,0.07,0.07,-0.07,6.23,50,264.57,0.2561,-0.8928,-0.4054,0.2106,-0.1072,-90,1.32,80,0,0.473,1,-0.6744,"El Centro - Meloland Geot. Array",160,1336,32.644,-115.307,9.96,13,32.773,-115.447,0.3125,0.46171,"S60",235.339448608653,1.32,32.773,-115.447,1208.22392787201,3651.48055758119,8,25.7276066999583,1222.43157347582,3638.07989677778
11,14,172,50,1,0,7,6.53,0,0,21.68,19.76,22.01,15.63,50,237.33,0.0564,-1.0575,0.0453,-0.8394,-0.1072,90,1.28,80,0,0.4841,1,0.0753,"El Centro Array #1",212,5056,32.644,-115.307,9.96,13,32.96,-115.319,0.14458,0.26909,"S61",237.33,1.28,32.96,-115.319,1218.73272112993,3673.15883006397,8,21.4237347471958,1222.43157347582,3638.07989677778
11,15,173,50,1,0,7,6.53,0,0,8.6,8.6,-8.6,13.74,50,202.85,0.1252,-0.7954,-0.2333,-0.2442,-0.1072,-90,1.42,80,0,0.4939,1,-0.3881,"El Centro Array #10",103,412,32.644,-115.307,9.96,13,32.7806,-115.5681,0.19857,0.49864,"S62",202.85,1.42,32.781,-115.568,1196.7886319513,3651.56082092997,8,18.0964902666491,1222.43157347582,3638.07989677778
11,16,174,50,1,0,7,6.53,0,0,12.56,12.56,-12.56,12.71,50,196.25,0.0928,-0.1615,0.5371,-0.428,-0.1072,-90,1.42,80,0,0.4954,1,0.8935,"El Centro Array #11",214,5058,32.644,-115.307,9.96,13,32.7517,-115.5952,0.37492,1.0946,"S63",196.25,1.42,32.752,-115.595,1194.47831586902,3648.15595341538,8,13.9966464427343,1222.43157347582,3638.07989677778
11,17,175,50,1,0,7,6.53,0,0,17.94,17.94,-17.94,12.08,50,196.88,0.0676,-1.0692,-0.1876,-0.6464,-0.1072,-90,1.2,80,0,0.4952,1,-0.312,"El Centro Array #12",115,931,32.644,-115.307,9.96,13,32.718,-115.637,0.14074,0.3978,"S64",196.88,1.2,32.718,-115.637,1190.79459994939,3644.09708211329,8,8.75191786397271,1222.43157347582,3638.07989677778
11,18,176,50,1,0,7,6.53,0,0,21.98,21.98,-21.98,13.89,50,249.92,0.0557,-1.2712,-0.1442,-0.8698,-0.1072,-90,2.72,80,0,0.4794,1,-0.2399,"El Centro Array #13",215,5059,32.644,-115.307,9.96,13,32.709,-115.683,0.11768,0.40205,"S65",249.92,2.72,32.709,-115.683,1186.53856088731,3642.79481371071,8,5.85618596313547,1222.43157347582,3638.07989677778
11,19,178,50,1,0,7,6.53,0,0,12.85,10.79,13.04,13.2,50,162.94,0.091,-0.2514,0.2165,-0.4465,-0.1072,90,1.6,80,0,0.5007,1,0.3601,"El Centro Array #3",213,5057,32.644,-115.307,9.96,13,32.894,-115.38,0.26473,0.73037,"S66",162.94,1.6,32.894,-115.38,1213.54501199442,3665.39740821947,8,30.3840952700863,1222.43157347582,3638.07989677778
11,20,179,50,1,0,7,6.53,0,0,7.05,4.9,7.15,13.46,50,208.91,0.1437,-0.5364,0.244,-0.1623,-0.1072,90,1.6,80,0,0.4925,1,0.4059,"El Centro Array #4",119,955,32.644,-115.307,9.96,13,32.864,-115.432,0.38078,0.80262,"S67",208.91,1.6,32.864,-115.432,1208.90474885361,3661.70627965863,8,33.3774252176079,1222.43157347582,3638.07989677778
11,21,180,50,1,0,7,6.53,0,0,3.95,1.76,4.01,14.58,50,205.63,0.212,0.0594,0.0685,0.0267,-0.1072,90,1.6,80,0,0.4933,1,0.114,"El Centro Array #5",118,952,32.644,-115.307,9.96,13,32.855,-115.466,0.41145,0.96326,"S68",205.63,1.6,32.855,-115.466,1205.78420245017,3660.47535025058,8,30.49293710078,1222.43157347582,3638.07989677778
11,22,181,50,1,0,7,6.53,0,0,1.35,0,1.37,14.34,50,203.22,0.2755,-0.5001,0.5139,0.1287,-0.1072,90,1.56,80,0,0.4939,1,0.8549,"El Centro Array #6",230,5158,32.644,-115.307,9.96,13,32.839,-115.487,0.44817,0.68309,"S69",203.22,1.56,32.839,-115.487,1203.93960951295,3658.55403408515,8,27.8553143624154,1222.43157347582,3638.07989677778
11,23,182,50,1,0,7,6.53,0,0,0.56,0.56,-0.56,14.42,50,210.51,0.2536,-0.6048,0.0001,0.1158,-0.1072,-90,1.52,80,0,0.4921,1,0.0002,"El Centro Array #7",200,5028,32.644,-115.307,9.96,13,32.829,-115.504,0.43676,0.63151,"S70",210.51,1.52,32.829,-115.504,1202.42239444714,3657.32747756032,8,25.9812125975055,1222.43157347582,3638.07989677778
11,24,183,50,1,0,7,6.53,0,0,3.86,3.86,-3.86,14.4,50,206.08,0.1971,0.1443,0.3837,-0.0049,-0.1072,-90,1.44,80,0,0.4932,1,0.6383,"El Centro Array #8",120,958,32.644,-115.307,9.96,13,32.811,-115.532,0.52691,0.99314,"S71",206.08,1.44,32.811,-115.532,1199.93474785532,3655.13777250615,8,22.7849217056112,1222.43157347582,3638.07989677778
11,25,184,50,1,0,7,6.53,0,0,5.09,5.09,-5.09,13.24,50,202.26,0.174,0.3876,0.2598,-0.0702,-0.1072,-90,1.42,80,0,0.4941,1,0.4322,"El Centro Differential Array",232,5165,32.644,-115.307,9.96,13,32.796,-115.535,0.43726,0.96885,"S72",202.26,1.42,32.796,-115.535,1199.77137964838,3653.44905525418,8,21.2833375846538,1222.43157347582,3638.07989677778
11,26,185,50,1,0,7,6.53,0,0,7.5,5.35,7.61,5.78,50,202.89,0.1379,-0.6148,-0.207,-0.1897,-0.1072,90,1.5,80,0,0.4939,1,-0.3443,"Holtville Post Office",211,5055,32.644,-115.307,9.96,13,32.8114,-115.3786,0.2378,0.70434,"S73",202.89,1.5,32.811,-115.379,1214.3092217288,3656.16944233716,8,33.4097626110356,1222.43157347582,3638.07989677778
11,27,186,50,1,0,7,6.53,0,0,36.92,35.64,26.37,51.25,50,212,0.0325,-1.7761,-0.0122,-1.2807,-0.1072,45,0.7,80,0,0.4917,1,-0.0203,"Niland Fire Station",263,11023,32.644,-115.307,9.96,13,33.239,-115.512,0.087609,0.26251,"S74",212,0.7,33.239,-115.512,1198.40266380686,3702.88485086288,8,11.2719870528651,1222.43157347582,3638.07989677778
11,28,187,50,1,0,7,6.53,0,0,12.69,12.69,-8.52,34.4,50,348.69,0.092,-1.1852,-0.14,-0.5582,-0.1072,-42.16,1.44,80,0,0.4162,1,-0.233,"Parachute Test Site",207,5051,32.644,-115.307,9.96,13,32.929,-115.701,0.16742,0.39105,"S75",348.69,1.44,32.929,-115.701,1183.14699838054,3667.14799203843,8,23.961836993907,1222.43157347582,3638.07989677778
11,29,188,50,1,0,7,6.53,0,0,30.33,30.33,-29.71,31.09,50,316.64,0.0402,-1.7651,-0.5902,-1.2811,-0.1072,-78.42,0.66,80,0,0.442,1,-0.9818,"Plaster City",208,5052,32.644,-115.307,9.96,13,32.79,-115.86,0.050964,0.19414,"S76",316.64,0.66,32.79,-115.86,1169.28425257869,3650.6623653101,8,8.54956925774128,1222.43157347582,3638.07989677778
11,30,190,50,1,0,7,6.53,0,0,24.61,24.61,-15.98,43.72,50,362.38,0.0498,-0.3895,0.4167,-1.1448,-0.1072,-40.5,1.2,80,0,0.4037,1,0.6932,"Superstition Mtn Camera",94,286,32.644,-115.307,9.96,13,32.955,-115.825,0.16371,0.44748,"S77",362.38,1.2,32.955,-115.825,1171.31822634773,3669.23669116938,8,11.9506899539235,1222.43157347582,3638.07989677778
11,32,192,50,1,0,7,6.53,0,0,15.25,14.75,4.55,39.58,50,193.67,0.0784,-2.0324,-0.8513,-0.5392,-0.1072,17,1.5,80,0,0.4959,1,-1.4162,"Westmorland Fire Sta",264,11369,32.644,-115.307,9.96,13,33.037,-115.623,0.08244,0.1539,"S79",193.67,1.5,33.037,-115.623,1189.61704946035,3679.67365859876,8,28.051285630522,1222.43157347582,3638.07989677778
12,1,193,51,1,0,5,5.01,0,7.26,13.04,10.83,2.11,-12.41,3.6,223.03,0.0656,-1.8263,-0.3411,-1.3693,0.4463,168.75,1.4,90,0,0.4887,1,-0.4567,"Bonds Corner",210,5054,32.7667,-115.4413,9.5,4.2,32.6931,-115.3382,0.1046,0.17784,"S50",223.03,1.4,32.693,-115.338,1219.11721059549,3643.31986985077,8,27.2634867129375,1208.81003190502,3650.81810910545
12,2,194,51,1,0,5,5.01,0,7.26,25.32,24.26,10.94,23.43,3.6,208.71,0.0272,-2.2253,-0.2537,-2.1008,0.4463,26.81,1.5,90,0,0.4926,1,-0.3397,"Brawley Airport",216,5060,32.7667,-115.4413,9.5,4.2,32.991,-115.513,0.052831,0.11886,"S51",208.71,1.5,32.991,-115.513,1200.29012549851,3675.2893360384,8,29.0616401576757,1208.81003190502,3650.81810910545
12,3,195,51,1,0,5,5.01,0,7.26,13.32,11.17,-10.67,-5.04,3.6,231.23,0.0639,-1.7012,-0.4816,-1.4021,0.4463,-107.19,1.28,90,0,0.4862,1,-0.6449,"Calexico Fire Station",209,5053,32.7667,-115.4413,9.5,4.2,32.6695,-115.493,0.088034,0.17719,"S52",231.23,1.28,32.67,-115.493,1204.71666843991,3639.7121963247,8,16.7153830149913,1208.81003190502,3650.81810910545
12,5,197,51,1,0,5,5.01,0,7.26,24.84,23.76,22.59,9.09,3.6,237.33,0.028,-2.4264,-0.1735,-2.1441,0.4463,71.95,1.28,90,0,0.4841,1,-0.2323,"El Centro Array #1",212,5056,32.7667,-115.4413,9.5,4.2,32.96,-115.319,0.055628,0.097993,"S61",237.33,1.28,32.96,-115.319,1218.73272112993,3673.15883006397,8,21.4237347471958,1208.81003190502,3650.81810910545
12,6,198,51,1,0,5,5.01,0,7.26,12.96,10.73,-8.08,8.86,3.6,202.85,0.0661,-2.5898,-0.9888,-1.3365,0.4463,-48.83,1.42,90,0,0.4939,1,-1.324,"El Centro Array #10",103,412,32.7667,-115.4413,9.5,4.2,32.7806,-115.5681,0.052531,0.096473,"S62",202.85,1.42,32.781,-115.568,1196.7886319513,3651.56082092997,8,18.0964902666491,1208.81003190502,3650.81810910545
12,7,199,51,1,0,5,5.01,0,7.26,15.42,13.61,-12.09,8.02,3.6,196.25,0.0531,-1.48,0.4001,-1.4967,0.4463,-62.7,1.42,90,0,0.4954,1,0.5357,"El Centro Array #11",214,5058,32.7667,-115.4413,9.5,4.2,32.7517,-115.5952,0.1873,0.25531,"S63",196.25,1.42,32.752,-115.595,1194.47831586902,3648.15595341538,8,13.9966464427343,1208.81003190502,3650.81810910545
12,8,200,51,1,0,5,5.01,0,7.26,18.78,17.32,16.08,8.2,3.6,188.78,0.0411,-1.5278,0.2207,-1.6933,0.4463,68.2,1.54,90,0,0.4968,1,0.2956,"El Centro Array #2",228,5115,32.7667,-115.4413,9.5,4.2,32.916,-115.366,0.12721,0.19983,"S80",188.78,1.54,32.916,-115.366,1214.68092983716,3667.94077343827,8,27.606524979734,1208.81003190502,3650.81810910545
12,9,201,51,1,0,5,5.01,0,7.26,16.25,14.54,13.5,7.18,3.6,162.94,0.0497,-1.2707,0.035,-1.4963,0.4463,68.21,1.6,90,0,0.5007,1,0.0469,"El Centro Array #3",213,5057,32.7667,-115.4413,9.5,4.2,32.894,-115.38,0.12695,0.28759,"S66",162.94,1.6,32.894,-115.38,1213.54501199442,3665.39740821947,8,30.3840952700863,1208.81003190502,3650.81810910545
12,10,202,51,1,0,5,5.01,0,7.26,12.11,9.69,7.63,7.77,3.6,208.91,0.0718,-0.8827,0.1308,-1.2813,0.4463,51.98,1.6,90,0,0.4925,1,0.1751,"El Centro Array #4",119,955,32.7667,-115.4413,9.5,4.2,32.864,-115.432,0.17185,0.45744,"S67",208.91,1.6,32.864,-115.432,1208.90474885361,3661.70627965863,8,33.3774252176079,1208.81003190502,3650.81810910545
12,11,203,51,1,0,5,5.01,0,7.26,11.23,8.56,4.56,9.05,3.6,205.63,0.0785,-0.8275,0.2563,-1.2113,0.4463,32.16,1.6,90,0,0.4933,1,0.3432,"El Centro Array #5",118,952,32.7667,-115.4413,9.5,4.2,32.855,-115.466,0.21893,0.45,"S68",205.63,1.6,32.855,-115.466,1205.78420245017,3660.47535025058,8,30.49293710078,1208.81003190502,3650.81810910545
12,12,204,51,1,0,5,5.01,0,7.26,10.37,7.4,1.91,8.95,3.6,203.22,0.0861,-0.7007,0.213,-1.1432,0.4463,14.94,1.56,90,0,0.4939,1,0.2852,"El Centro Array #6",230,5158,32.7667,-115.4413,9.5,4.2,32.839,-115.487,0.23052,0.53528,"S69",203.22,1.56,32.839,-115.487,1203.93960951295,3658.55403408515,8,27.8553143624154,1208.81003190502,3650.81810910545
12,13,205,51,1,0,5,5.01,0,7.26,10.31,7.32,-0.02,9.13,3.6,210.51,0.0867,-1.1917,-0.0229,-1.1441,0.4463,-0.19,1.52,90,0,0.4921,1,-0.0306,"El Centro Array #7",200,5028,32.7667,-115.4413,9.5,4.2,32.829,-115.504,0.1803,0.39892,"S70",210.51,1.52,32.829,-115.504,1202.42239444714,3657.32747756032,8,25.9812125975055,1208.81003190502,3650.81810910545
12,14,206,51,1,0,5,5.01,0,7.26,10.94,8.18,-3.32,9.28,3.6,206.08,0.081,-1.4706,-0.2421,-1.1895,0.4463,-23.93,1.44,90,0,0.4932,1,-0.3241,"El Centro Array #8",120,958,32.7667,-115.4413,9.5,4.2,32.811,-115.532,0.13414,0.18272,"S71",206.08,1.44,32.811,-115.532,1199.93474785532,3655.13777250615,8,22.7849217056112,1208.81003190502,3650.81810910545
12,15,207,51,1,0,5,5.01,0,7.26,10.71,7.87,-4.61,8.18,3.6,202.26,0.083,-0.9776,-0.1621,-1.1686,0.4463,-35.84,1.42,90,0,0.4941,1,-0.217,"El Centro Differential Array",232,5165,32.7667,-115.4413,9.5,4.2,32.796,-115.535,0.15199,0.28766,"S72",202.26,1.42,32.796,-115.535,1199.77137964838,3653.44905525418,8,21.2833375846538,1208.81003190502,3650.81810910545
12,16,208,51,1,0,5,5.01,0,7.26,10.58,7.69,7.69,0.05,3.6,202.89,0.0842,-0.7942,0.0721,-1.1592,0.4463,90,1.5,90,0,0.4939,1,0.0966,"Holtville Post Office",211,5055,32.7667,-115.4413,9.5,4.2,32.8114,-115.3786,0.19587,0.29641,"S73",202.89,1.5,32.811,-115.379,1214.3092217288,3656.16944233716,8,33.4097626110356,1208.81003190502,3650.81810910545
15,1,225,55,1,0,5,5.19,10,10.79,17.26,12.24,13.45,2.41,3.7,724.89,0.0631,-1.8463,0.3251,-1.6944,-0.0125,87.22,0.0075,70,0,0.0617,1,0.4456,"Anza - Pinyon Flat",203,5044,33.505,-116.514,13.6,3.6,33.607,-116.453,0.11004,0.14061,"S89",724.891999988964,0.0075,33.607,-116.453,1107.88631327739,3737.85601585438,9,11.0798815693917,1102.92551118401,3726.16025889091
15,2,226,55,1,0,5,5.19,10,10.79,12.28,5.85,-5.51,3.78,3.7,617.78,0.0955,-1.1847,-0.2546,-1.1808,-0.0125,-70.24,0.02,70,0,0.1274,1,-0.3489,"Anza - Terwilliger Valley",204,5045,33.505,-116.514,13.6,3.6,33.48,-116.59,0.097901,0.2244,"S90",617.78,0.02,33.48,-116.59,1096.02134988222,3722.94023367792,9,29.9944241699979,1102.92551118401,3726.16025889091
